{"type":"FeatureCollection","features":[{"type":"Feature","id":1,"geometry":{"type":"Polygon","coordinates":[[[-97.252144451999982,49.86012381200004],[-97.253544568999985,49.860177610000051],[-97.253663552999967,49.858862293000072],[-97.252265589999979,49.858808917000033],[-97.25214675999996,49.860098754000035],[-97.252144451999982,49.86012381200004]]]},"properties":{"OBJECTID":1,"Hospital":"West Park Manor PCH","Shape_Length":0.005441282776230667,"Shape_Area":1.8463199562202146e-06}},{"type":"Feature","id":2,"geometry":{"type":"Polygon","coordinates":[[[-97.292712789999939,49.85955462700008],[-97.292708890999961,49.859596590000081],[-97.292592143999968,49.860852765000061],[-97.292573478999941,49.861053601000037],[-97.294013871999937,49.861109522000049],[-97.294067669999947,49.860540917000037],[-97.294132639999987,49.859854812000037],[-97.294136614999957,49.859812819000069],[-97.293389242999979,49.859675734000064],[-97.292712789999939,49.85955462700008]]]},"properties":{"OBJECTID":2,"Hospital":"Charleswood Care Centre","Shape_Length":0.0056964599234876354,"Shape_Area":2.0235294520068888e-06}},{"type":"Feature","id":3,"geometry":{"type":"Polygon","coordinates":[[[-97.064962862999948,49.914503961000037],[-97.06541249899999,49.913940862000061],[-97.066171010999938,49.912990912000055],[-97.063116402999981,49.911973165000063],[-97.063066065999976,49.911983815000042],[-97.062925336999967,49.912061842000071],[-97.062826313999949,49.912133522000033],[-97.062731379999946,49.912230349000026],[-97.061839262999968,49.913463646000082],[-97.064962862999948,49.914503961000037]]]},"properties":{"OBJECTID":3,"Hospital":"Concordia Place","Shape_Length":0.010440541587761733,"Shape_Area":6.0506436703119355e-06}},{"type":"Feature","id":4,"geometry":{"type":"Polygon","coordinates":[[[-97.06541249899999,49.913940862000061],[-97.065917159999969,49.914108941000052],[-97.065639870999973,49.914456294000047],[-97.066048293999984,49.914592243000072],[-97.065876007999975,49.914808061000031],[-97.066566135999949,49.915037882000036],[-97.067015627999979,49.914474776000077],[-97.067453052999952,49.913926770000046],[-97.067773827999986,49.913524897000059],[-97.066171010999938,49.912990912000055],[-97.06541249899999,49.913940862000061]]]},"properties":{"OBJECTID":4,"Hospital":"Bethania Mennonite PCH","Shape_Length":0.0072513040622057589,"Shape_Area":2.5990811016027675e-06}},{"type":"Feature","id":5,"geometry":{"type":"MultiPolygon","coordinates":[[[[-97.14186062999994,49.766760353000052],[-97.142969785999981,49.766373069000053],[-97.143908134999947,49.76604541200004],[-97.143899097999963,49.765843619000066],[-97.142548089999991,49.765864534000059],[-97.142170300999965,49.76587038100007],[-97.14186062999994,49.766760353000052]]],[[[-97.14161594899997,49.766845785000044],[-97.141604239999936,49.766748029000041],[-97.141908659999956,49.765874429000064],[-97.140727145999961,49.765892700000052],[-97.140718436999975,49.765975146000073],[-97.140721912999936,49.765993193000043],[-97.140720180999949,49.766002160000028],[-97.140723828999967,49.76601571100008],[-97.140723611999988,49.766093966000028],[-97.140717406999954,49.76611095700008],[-97.140712016999942,49.766179234000049],[-97.140714311999943,49.766191864000064],[-97.140715286999978,49.766202674000056],[-97.140716973999986,49.766267467000034],[-97.140702087999955,49.76636617500003],[-97.140705562999983,49.766384221000067],[-97.140698878999956,49.766522640000062],[-97.140700909999964,49.766578443000071],[-97.140705669999988,49.766599208000059],[-97.140693133999946,49.766672768000035],[-97.140696403999982,49.766696208000042],[-97.140701542999977,49.766707084000075],[-97.14070366499999,49.766724209000074],[-97.14069877899999,49.766743021000082],[-97.140699812999969,49.766824894000081],[-97.140693366999983,49.766848178000032],[-97.140685050999991,49.766884025000081],[-97.14068606099994,49.766893936000031],[-97.140695294999944,49.766906677000065],[-97.140697072999956,49.766932792000034],[-97.140704265999943,49.766962592000027],[-97.140700503999938,49.767024598000035],[-97.140691763999939,49.767035252000028],[-97.140685892999954,49.767116115000078],[-97.140694713999949,49.767139644000054],[-97.140688301999944,49.767162029000076],[-97.140688005999948,49.767169780000074],[-97.14161594899997,49.766845785000044]]]]},"properties":{"OBJECTID":5,"Hospital":"St. Norbert Personal Care Home","Shape_Length":0.0095273905126673566,"Shape_Area":2.115592526147343e-06}},{"type":"Feature","id":6,"geometry":{"type":"MultiPolygon","coordinates":[[[[-97.15273665899997,49.80758194100008],[-97.152823896999962,49.807552380000061],[-97.152659811999968,49.807350022000037],[-97.152702861999956,49.807335390000048],[-97.152712768999947,49.807347616000072],[-97.152811046999943,49.80731421400003],[-97.153009706999967,49.807246766000048],[-97.153054023999971,49.80725140800007],[-97.153181960999973,49.807394233000082],[-97.153140831999963,49.807408331000033],[-97.153163719999952,49.807437228000026],[-97.153207258999942,49.807422474000077],[-97.153670348999981,49.807265550000068],[-97.15376202899995,49.807234482000069],[-97.153840368999965,49.807207935000065],[-97.153932288999954,49.807227792000049],[-97.154278977999979,49.80711025800008],[-97.153637061999973,49.806906334000075],[-97.153754481999954,49.806619901000033],[-97.154567995999969,49.806341469000074],[-97.154862585999979,49.806311115000028],[-97.154912270999944,49.806214943000043],[-97.155522573999974,49.805033597000033],[-97.154179198999941,49.805488650000029],[-97.154672068999957,49.806100348000029],[-97.154507279999962,49.806156968000039],[-97.154582673999982,49.80624890100006],[-97.154473763999988,49.80628633300006],[-97.154435688999968,49.80623991200008],[-97.153685397999936,49.80649777900004],[-97.153592590999949,49.806384585000046],[-97.153264389999947,49.806494097000041],[-97.152821422999978,49.805948555000043],[-97.151707241999986,49.80632593200005],[-97.152389907999975,49.807169788000067],[-97.152284834999989,49.807205184000054],[-97.152395053999953,49.807341738000048],[-97.152344169999992,49.80735810300007],[-97.152569871999958,49.807638457000053],[-97.15273665899997,49.80758194100008]]],[[[-97.15018443799994,49.807032537000055],[-97.150173816999938,49.807192891000057],[-97.15017228499994,49.807216028000028],[-97.150244315999942,49.807305491000079],[-97.151030180999953,49.807039214000042],[-97.150943997999946,49.806932196000048],[-97.15103615299995,49.80690091300005],[-97.150815802999944,49.806627853000066],[-97.150032521999947,49.806893133000074],[-97.150046685999939,49.806894286000045],[-97.150060689999975,49.806896700000038],[-97.150074422999978,49.806900355000039],[-97.150087774999974,49.806905223000058],[-97.150100637999969,49.806911264000064],[-97.150112909999962,49.806918430000053],[-97.150124491999975,49.806926664000059],[-97.150135292999948,49.806935900000042],[-97.15014522499996,49.806946063000055],[-97.150153944999943,49.806956720000073],[-97.150161709999963,49.806968092000034],[-97.150168461999954,49.806980094000039],[-97.150174148999952,49.806992635000029],[-97.150178728999947,49.80700562100003],[-97.150182166999969,49.807018955000046],[-97.15018443799994,49.807032537000055]]]]},"properties":{"OBJECTID":6,"Hospital":"Victoria General Hospital","Shape_Length":0.016359350552464406,"Shape_Area":3.2522060762269366e-06}},{"type":"Feature","id":7,"geometry":{"type":"Polygon","coordinates":[[[-97.168022339999936,49.797912246000067],[-97.167972702999975,49.797903223000048],[-97.167924123999967,49.797889609000038],[-97.167877026999975,49.797871521000047],[-97.167831822999972,49.797849119000034],[-97.16779474599997,49.797826539000027],[-97.16775960199999,49.797801054000047],[-97.167726617999961,49.797772829000053],[-97.167696006999961,49.797742047000042],[-97.167241345999969,49.797180200000071],[-97.166960134999954,49.79727560300006],[-97.167527863999965,49.797977224000078],[-97.167171537999991,49.798098004000053],[-97.167540694999957,49.798554215000081],[-97.168157532999942,49.799316490000081],[-97.168288830999984,49.799272008000059],[-97.169894516999989,49.798727993000057],[-97.169091415999958,49.797733158000028],[-97.168975314999955,49.797589335000055],[-97.168022339999936,49.797912246000067]]]},"properties":{"OBJECTID":7,"Hospital":"Southeast Personal Care Home","Shape_Length":0.0085449443797248337,"Shape_Area":2.849800541965183e-06}},{"type":"Feature","id":8,"geometry":{"type":"Polygon","coordinates":[[[-97.152138691999937,49.829124269000033],[-97.152864104999992,49.828878777000057],[-97.154861309999944,49.828202852000061],[-97.15551254099995,49.827982441000074],[-97.155559366999967,49.827463591000026],[-97.152268761999949,49.828577711000037],[-97.152198798999962,49.828937855000049],[-97.152138691999937,49.829124269000033]]]},"properties":{"OBJECTID":8,"Hospital":"Golden Door Geriatric Centre","Shape_Length":0.0081196258440300925,"Shape_Area":1.6710543481085407e-06}},{"type":"Feature","id":9,"geometry":{"type":"Polygon","coordinates":[[[-97.191674565999961,49.824245113000075],[-97.194095890999961,49.823429937000071],[-97.194041487999982,49.823245599000074],[-97.193207252999969,49.822209155000053],[-97.191641415999982,49.82273667000004],[-97.190820690999942,49.822891881000032],[-97.191546053999957,49.823789167000029],[-97.19135758799996,49.823853016000044],[-97.191674565999961,49.824245113000075]]]},"properties":{"OBJECTID":9,"Hospital":"The Saul and Claribel Simkin Centre","Shape_Length":0.0084221095283101167,"Shape_Area":3.6395241732507603e-06}},{"type":"Feature","id":10,"geometry":{"type":"Polygon","coordinates":[[[-97.07722006299997,49.945756062000044],[-97.076982885999939,49.946053561000042],[-97.077112642999964,49.946080824000035],[-97.07724245299994,49.946107837000056],[-97.077372313999945,49.946134599000061],[-97.077502422999942,49.946161151000069],[-97.077632583999957,49.946187452000061],[-97.077762794999956,49.946213502000035],[-97.07839146799995,49.945424888000048],[-97.077673996999977,49.945186666000041],[-97.077567163999959,49.945320676000051],[-97.077460328999962,49.945454686000062],[-97.077353493999965,49.945588695000026],[-97.07722006299997,49.945756062000044]]]},"properties":{"OBJECTID":10,"Hospital":"Donwood Manor","Shape_Length":0.0036693311239389954,"Shape_Area":7.5169556404339989e-07}},{"type":"Feature","id":11,"geometry":{"type":"Polygon","coordinates":[[[-97.072057958999949,49.95737936200004],[-97.073094735999973,49.957840053000041],[-97.073984806999988,49.957237464000059],[-97.07335896699999,49.956959378000079],[-97.072812932999966,49.956716748000076],[-97.07254984299999,49.956919885000048],[-97.072057958999949,49.95737936200004]]]},"properties":{"OBJECTID":11,"Hospital":"Kildonan Personal Care Centre","Shape_Length":0.0044972361111813618,"Shape_Area":1.112693045119516e-06}},{"type":"Feature","id":12,"geometry":{"type":"Polygon","coordinates":[[[-97.053345389999947,49.920384934000026],[-97.053121719999979,49.92031075400007],[-97.053086834999988,49.920336073000044],[-97.053051481999944,49.920360735000031],[-97.053015672999948,49.92038473000008],[-97.052978469999971,49.920408648000034],[-97.052940814999943,49.920431846000042],[-97.052902719999963,49.920454315000029],[-97.052875789999973,49.920469670000045],[-97.052848678999965,49.920484703000056],[-97.052821389999963,49.920499412000026],[-97.052793485999985,49.920514024000056],[-97.052765406999981,49.920528297000033],[-97.052737157999957,49.920542230000081],[-97.052710730999991,49.920555198000045],[-97.052684399999976,49.92056836200004],[-97.052658167999937,49.920581721000076],[-97.052632287999984,49.920595141000035],[-97.05260650699995,49.920608751000032],[-97.052580826999986,49.920622550000076],[-97.052551993999941,49.920638341000029],[-97.05252330199994,49.920654386000081],[-97.052494752999962,49.920670683000026],[-97.052466680999942,49.920687036000061],[-97.05243875299999,49.920703633000073],[-97.052410970999972,49.920720474000063],[-97.052387670999963,49.920734864000053],[-97.052364485999988,49.92074943800003],[-97.05234141599999,49.920764193000082],[-97.052318703999958,49.920778971000061],[-97.05229610799995,49.920793925000055],[-97.052273627999966,49.920809055000063],[-97.052253255999972,49.920822995000037],[-97.052232988999947,49.920837089000031],[-97.052212828999984,49.920851335000066],[-97.052192977999937,49.920865587000037],[-97.052173233999952,49.920879988000081],[-97.052153598999951,49.920894535000059],[-97.052135067999984,49.920908481000026],[-97.052116641999987,49.920922566000058],[-97.052098321999949,49.920936789000052],[-97.052080290999982,49.920951007000042],[-97.052062364999983,49.920965358000046],[-97.052044547999969,49.920979843000055],[-97.052027851999981,49.920993625000051],[-97.052011258999983,49.921007530000054],[-97.051994770999954,49.921021559000053],[-97.051978543999951,49.92103557300004],[-97.051962420999985,49.921049707000066],[-97.051946402999988,49.921063960000026],[-97.051930647999939,49.921078194000074],[-97.051915001999987,49.921092550000026],[-97.051899468999977,49.921107027000062],[-97.051884196999936,49.921121481000057],[-97.05186903699996,49.921136053000055],[-97.051853988999937,49.92115074000003],[-97.05183834099995,49.921166261000053],[-97.051822826999967,49.92118191600008],[-97.051807445999941,49.921197702000029],[-97.051792356999954,49.921213455000043],[-97.051777401999971,49.921229335000078],[-97.051762581999981,49.921245341000031],[-97.051750631999937,49.921258455000043],[-97.051738777999958,49.921271655000055],[-97.051727020999977,49.921284941000067],[-97.051715456999943,49.921298199000034],[-97.051703989999965,49.92131154100008],[-97.051692618999937,49.921324965000053],[-97.051692256999956,49.921341677000044],[-97.051689676999956,49.921460860000082],[-97.05168688699996,49.921589702000063],[-97.051682960999983,49.921771049000029],[-97.051681413999972,49.921842490000074],[-97.051931551999985,49.921844736000025],[-97.052258394999967,49.921847670000034],[-97.052265520999981,49.921515359000068],[-97.053644640999948,49.921973671000046],[-97.054730165999956,49.920844179000028],[-97.054584231999968,49.920795783000074],[-97.054425658999946,49.920743195000057],[-97.054274518999989,49.920693072000063],[-97.054115946999957,49.920640483000057],[-97.053964807999989,49.920590360000062],[-97.053806236999947,49.920537771000056],[-97.053655098999968,49.920487647000073],[-97.053496527999982,49.920435058000066],[-97.053345389999947,49.920384934000026]]]},"properties":{"OBJECTID":12,"Hospital":"River East Personal Care Home Ltd.","Shape_Length":0.0079057154902414297,"Shape_Area":2.9823185354574937e-06}},{"type":"Feature","id":13,"geometry":{"type":"Polygon","coordinates":[[[-97.184280367999975,49.960628478000046],[-97.184503363999966,49.960628831000065],[-97.184507725999936,49.959532804000048],[-97.183231693999971,49.959530790000031],[-97.183121425999957,49.95972443900007],[-97.183060090999959,49.959837858000071],[-97.183005158999947,49.959954513000071],[-97.182956801999978,49.960074043000077],[-97.182916446999968,49.960191970000039],[-97.182882491999976,49.960311896000064],[-97.182855033999942,49.96043347400007],[-97.182828863999987,49.960569437000061],[-97.183070122999936,49.960587147000069],[-97.183311591999939,49.960601712000027],[-97.183553230999962,49.960613128000034],[-97.183795535999991,49.960621410000044],[-97.184037928999942,49.960626527000045],[-97.184280367999975,49.960628478000046]]]},"properties":{"OBJECTID":13,"Hospital":"Maples Personal Care Home","Shape_Length":0.0051701769870054403,"Shape_Area":1.6429764439563857e-06}},{"type":"Feature","id":14,"geometry":{"type":"Polygon","coordinates":[[[-97.152691232999985,49.956733383000028],[-97.152850116999957,49.956784518000063],[-97.153281156999981,49.956923243000062],[-97.154922328999987,49.957451410000033],[-97.155762982999988,49.956494237000072],[-97.156007201999955,49.956572812000047],[-97.15616358799997,49.956370612000057],[-97.155919374999939,49.956292039000061],[-97.15360392499997,49.95554702700008],[-97.153448222999941,49.955749420000075],[-97.152691232999985,49.956733383000028]]]},"properties":{"OBJECTID":14,"Hospital":"Actionmarguerite (St. Joseph)","Shape_Length":0.0083155900798812469,"Shape_Area":3.4365597917793595e-06}},{"type":"Feature","id":15,"geometry":{"type":"Polygon","coordinates":[[[-97.148309969999957,49.953843440000071],[-97.147925963999967,49.954339878000042],[-97.147256033999952,49.954124156000034],[-97.146999330999961,49.95441637700003],[-97.146606431999942,49.954808066000055],[-97.146227406999969,49.955239522000056],[-97.146257753999976,49.955316053000047],[-97.146955287999958,49.955594700000063],[-97.147167690999936,49.955679547000045],[-97.151484951999976,49.957068433000074],[-97.152687878999984,49.955505126000048],[-97.152843616999974,49.955302724000035],[-97.148309969999957,49.953843440000071]]]},"properties":{"OBJECTID":15,"Hospital":"Seven Oaks General Hospital","Shape_Length":0.015437473117115448,"Shape_Area":1.1133542066183711e-05}},{"type":"Feature","id":16,"geometry":{"type":"Polygon","coordinates":[[[-97.148309969999957,49.953843440000071],[-97.147925963999967,49.954339878000042],[-97.147256033999952,49.954124156000034],[-97.146999330999961,49.95441637700003],[-97.146606431999942,49.954808066000055],[-97.146227406999969,49.955239522000056],[-97.146257753999976,49.955316053000047],[-97.146955287999958,49.955594700000063],[-97.147167690999936,49.955679547000045],[-97.151484951999976,49.957068433000074],[-97.152687878999984,49.955505126000048],[-97.152843616999974,49.955302724000035],[-97.148309969999957,49.953843440000071]]]},"properties":{"OBJECTID":16,"Hospital":"Seven Oaks General Hospital","Shape_Length":0.015437473117115448,"Shape_Area":1.1133542066183711e-05}},{"type":"Feature","id":17,"geometry":{"type":"Polygon","coordinates":[[[-97.148309969999957,49.953843440000071],[-97.147925963999967,49.954339878000042],[-97.147256033999952,49.954124156000034],[-97.146999330999961,49.95441637700003],[-97.146606431999942,49.954808066000055],[-97.146227406999969,49.955239522000056],[-97.146257753999976,49.955316053000047],[-97.146955287999958,49.955594700000063],[-97.147167690999936,49.955679547000045],[-97.151484951999976,49.957068433000074],[-97.152687878999984,49.955505126000048],[-97.152843616999974,49.955302724000035],[-97.148309969999957,49.953843440000071]]]},"properties":{"OBJECTID":17,"Hospital":"Seven Oaks General Hospital","Shape_Length":0.015437473117115448,"Shape_Area":1.1133542066183711e-05}},{"type":"Feature","id":18,"geometry":{"type":"Polygon","coordinates":[[[-97.148309969999957,49.953843440000071],[-97.147925963999967,49.954339878000042],[-97.147256033999952,49.954124156000034],[-97.146999330999961,49.95441637700003],[-97.146606431999942,49.954808066000055],[-97.146227406999969,49.955239522000056],[-97.146257753999976,49.955316053000047],[-97.146955287999958,49.955594700000063],[-97.147167690999936,49.955679547000045],[-97.151484951999976,49.957068433000074],[-97.152687878999984,49.955505126000048],[-97.152843616999974,49.955302724000035],[-97.148309969999957,49.953843440000071]]]},"properties":{"OBJECTID":18,"Hospital":"Seven Oaks General Hospital","Shape_Length":0.015437473117115448,"Shape_Area":1.1133542066183711e-05}},{"type":"Feature","id":19,"geometry":{"type":"Polygon","coordinates":[[[-97.128053210999951,49.882565022000051],[-97.12713008999998,49.882604097000069],[-97.127105215999961,49.882605150000074],[-97.126744723999991,49.882620407000047],[-97.126664579999954,49.882623799000044],[-97.12637652799998,49.88263598900005],[-97.125069246999942,49.882691305000037],[-97.12457754199994,49.882712106000042],[-97.124365933999968,49.882721058000072],[-97.123665425999945,49.882750688000044],[-97.123670582999978,49.882805404000067],[-97.124006277999968,49.886366844000065],[-97.124035548999984,49.886677372000065],[-97.124639705999982,49.886653609000064],[-97.124658957999941,49.886634158000049],[-97.124734509999939,49.886473649000038],[-97.124841593999975,49.886343694000061],[-97.124850016999972,49.88633365700008],[-97.124874142999943,49.886304912000071],[-97.124889459999963,49.886268910000069],[-97.124914866999973,49.886241976000065],[-97.124922498999979,49.886228247000076],[-97.125053421999951,49.886086624000029],[-97.12509913599996,49.886042208000049],[-97.125124071999949,49.886027410000054],[-97.125166385999989,49.886009655000066],[-97.125191743999949,49.885987577000037],[-97.125304184999948,49.885877408000056],[-97.125346778999983,49.885805686000026],[-97.125655499999937,49.885512583000036],[-97.125915446999954,49.88529254000008],[-97.126062656999977,49.885154417000081],[-97.126140772999975,49.885089297000036],[-97.126247708999983,49.88498452400006],[-97.126288975999955,49.884954248000042],[-97.126382353999986,49.884861669000031],[-97.126431407999974,49.884820815000069],[-97.126507643999958,49.884743071000059],[-97.126775123999948,49.884500840000044],[-97.126886617999958,49.884411342000078],[-97.126922133999983,49.884385740000027],[-97.127105044999951,49.884217070000034],[-97.127174103999948,49.884162867000043],[-97.127304443999947,49.884014395000065],[-97.127332981999984,49.883989221000036],[-97.127365944999951,49.88393605300007],[-97.12738098799997,49.883921454000074],[-97.127401094999982,49.883909096000082],[-97.12745483499998,49.883887386000026],[-97.12747828199997,49.883864288000041],[-97.127666015999978,49.883693177000055],[-97.127758832999973,49.883632970000065],[-97.127781888999948,49.883605548000048],[-97.127952536999942,49.88346942000004],[-97.128055250999978,49.883372853000026],[-97.128111393999973,49.883350193000069],[-97.128145600999972,49.883308019000026],[-97.128167094999981,49.88328857700003],[-97.128203092999968,49.883268470000075],[-97.128235375999964,49.883247223000069],[-97.128269856999964,49.88321953500008],[-97.128302539999936,49.883180755000069],[-97.128379578999954,49.883128928000076],[-97.128407412999991,49.883103921000043],[-97.12842345699994,49.883085021000056],[-97.128481556999986,49.883047730000044],[-97.128506641999991,49.883023667000032],[-97.128521407999983,49.883007176000035],[-97.128624095999953,49.882932826000058],[-97.12873983999998,49.882834040000034],[-97.128910218999977,49.882729930000039],[-97.128952424999966,49.882700477000071],[-97.129021100999978,49.882659669000077],[-97.129026010999951,49.882655071000045],[-97.129025162999937,49.882648221000068],[-97.129192340999964,49.882516793000036],[-97.129146859999992,49.882518719000075],[-97.128505200999939,49.882545887000049],[-97.128053210999951,49.882565022000051]]]},"properties":{"OBJECTID":19,"Hospital":"St. Boniface Hospital","Shape_Length":0.016290578588000277,"Shape_Area":1.1328497460015432e-05}},{"type":"Feature","id":20,"geometry":{"type":"Polygon","coordinates":[[[-97.120550766999941,49.888807384000074],[-97.120635324999967,49.888802872000042],[-97.120668087999945,49.888801124000054],[-97.120661154999937,49.88874635500008],[-97.12075527099995,49.888741333000041],[-97.120762207999974,49.888796101000025],[-97.122600451999972,49.888697996000076],[-97.122516428999973,49.888036429000067],[-97.122504649999939,49.887943686000028],[-97.122571062999953,49.887938058000032],[-97.122562787999982,49.887899281000045],[-97.12265156899997,49.887892745000045],[-97.122623939999983,49.887758402000031],[-97.122453161999942,49.887773100000061],[-97.122446373999992,49.887740091000069],[-97.122202141999992,49.887761110000042],[-97.122180579999963,49.887659176000057],[-97.120929073999946,49.887726890000067],[-97.120874121999975,49.88730937400004],[-97.120364714999937,49.887337474000049],[-97.120477454999957,49.888228195000067],[-97.120550766999941,49.888807384000074]]]},"properties":{"OBJECTID":20,"Hospital":"Actionmarguerite (St. Boniface)","Shape_Length":0.0074765618857447463,"Shape_Area":2.3767834805057643e-06}},{"type":"Feature","id":21,"geometry":{"type":"Polygon","coordinates":[[[-97.264500387999988,49.886024733000056],[-97.264410213999952,49.887007259000029],[-97.265934847999972,49.887064655000074],[-97.26601741099995,49.886164441000062],[-97.265877706999959,49.886063056000069],[-97.26450162399999,49.886011271000029],[-97.264500387999988,49.886024733000056]]]},"properties":{"OBJECTID":21,"Hospital":"Extendicare Oakview Place","Shape_Length":0.0049795526906897267,"Shape_Area":1.5166113364666288e-06}},{"type":"Feature","id":22,"geometry":{"type":"Polygon","coordinates":[[[-97.307248766999976,49.883673499000054],[-97.307333403999962,49.883677054000032],[-97.30788354799995,49.88370016500005],[-97.307890150999981,49.88363453900007],[-97.307974133999949,49.882801574000041],[-97.307328833999975,49.882877787000041],[-97.30725537099994,49.883607873000074],[-97.307248766999976,49.883673499000054]]]},"properties":{"OBJECTID":22,"Hospital":"Heritage Lodge","Shape_Length":0.0029880013691940309,"Shape_Area":5.4009138891654748e-07}},{"type":"Feature","id":23,"geometry":{"type":"Polygon","coordinates":[[[-97.288600483999971,49.889288781000062],[-97.288700458999983,49.888155418000053],[-97.287845908999941,49.888215745000082],[-97.287841080999954,49.888270443000067],[-97.287410245999979,49.888339899000073],[-97.287350741999944,49.889012079000054],[-97.288408291999986,49.890022738000027],[-97.288535323999952,49.890027431000078],[-97.288674976999971,49.890032388000066],[-97.288814631999969,49.890037344000064],[-97.288861520999944,49.889504285000044],[-97.288839770999971,49.889513634000082],[-97.288817344999984,49.889521222000042],[-97.28879438599995,49.889527002000079],[-97.288769513999966,49.889531126000065],[-97.288744381999948,49.889533128000039],[-97.288719170999968,49.889532993000046],[-97.28869421099995,49.889531371000032],[-97.28866949899998,49.889527501000032],[-97.288645237999958,49.889521416000036],[-97.288623550999944,49.889513929000032],[-97.288602558999969,49.889504671000054],[-97.288582406999979,49.889493706000053],[-97.288574207999943,49.889489390000051],[-97.288566403999937,49.889484398000036],[-97.288559047999968,49.889478764000046],[-97.288552194999966,49.889472530000035],[-97.288545891999945,49.889465740000048],[-97.288540183999942,49.889458442000034],[-97.288535112999966,49.889450688000068],[-97.28853071399999,49.889442534000068],[-97.288527019999947,49.889434038000047],[-97.288524054999982,49.889425260000053],[-97.288521841999966,49.889416263000044],[-97.288520395999967,49.889407112000072],[-97.288519727999983,49.889397871000028],[-97.288519841999971,49.889388607000058],[-97.288520810999955,49.889378867000062],[-97.288522644999944,49.889369252000051],[-97.288525328999981,49.889359839000065],[-97.288528840999959,49.889350703000048],[-97.288533153999936,49.889341916000035],[-97.28853823299994,49.889333549000071],[-97.288544037999941,49.889325668000026],[-97.288550522999969,49.889318336000031],[-97.288557634999961,49.889311611000039],[-97.288565318999986,49.889305547000049],[-97.288573511999971,49.889300193000054],[-97.288582150999957,49.889295590000074],[-97.288591164999957,49.88929177600005],[-97.288600483999971,49.889288781000062]]]},"properties":{"OBJECTID":23,"Hospital":"Golden West Centennial Lodge","Shape_Length":0.0061223653123383412,"Shape_Area":1.8429969152155272e-06}},{"type":"Feature","id":24,"geometry":{"type":"MultiPolygon","coordinates":[[[[-97.234772068999973,49.878905221000082],[-97.236313048999989,49.878964998000072],[-97.236548648999985,49.878974135000078],[-97.236709008999981,49.877226346000043],[-97.236471816999938,49.877253456000062],[-97.23517441599995,49.877401735000035],[-97.234911445999956,49.877401079000037],[-97.234881023999947,49.877729387000045],[-97.234660352999981,49.877728830000081],[-97.234439681999959,49.87772827200007],[-97.234435610999981,49.877772127000071],[-97.234420298999964,49.877937042000042],[-97.234407597999962,49.87807383300003],[-97.234394896999959,49.878210623000029],[-97.234382196999945,49.878347413000029],[-97.234369495999943,49.878484204000074],[-97.23435679499994,49.878620994000073],[-97.234344093999937,49.878757785000062],[-97.234331990999976,49.878888146000065],[-97.234738200999971,49.878903907000051],[-97.234772068999973,49.878905221000082]]],[[[-97.236587890999942,49.876058731000057],[-97.236527028999944,49.876063069000054],[-97.236501957999963,49.87606736500004],[-97.236473371999978,49.87607646500004],[-97.236428371999978,49.876081447000047],[-97.236184456999979,49.876075397000079],[-97.23611580499994,49.876080109000043],[-97.236004137999942,49.876084976000072],[-97.235905038999988,49.876077261000034],[-97.235757736999972,49.876074569000082],[-97.235719451999955,49.87608244200004],[-97.235690200999954,49.87608685400005],[-97.235685588999957,49.876098837000029],[-97.235674450999966,49.876102715000059],[-97.235667467999974,49.876099551000038],[-97.235670374999984,49.87608853100005],[-97.235662653999952,49.876086525000062],[-97.235561975999985,49.87607248900008],[-97.235531953999953,49.876071312000079],[-97.235480124999981,49.87607655000005],[-97.235415717999956,49.876071702000047],[-97.235300606999942,49.876067970000065],[-97.235216750999939,49.876069752000035],[-97.235167917999945,49.876076954000041],[-97.235060297999951,49.876092826000047],[-97.235031919999983,49.87610079600006],[-97.234942659999945,49.876127824000037],[-97.234855110999945,49.876181270000075],[-97.23471940099995,49.876257639000073],[-97.234693893999975,49.876266246000057],[-97.234663468999941,49.876283772000079],[-97.234641498999963,49.876290813000026],[-97.234582932999956,49.876297567000051],[-97.234525284999961,49.876297429000033],[-97.234456648999981,49.877038140000082],[-97.235078721999969,49.877039694000075],[-97.235126330999947,49.877039813000067],[-97.236512248999986,49.876881463000075],[-97.236587890999942,49.876058731000057]]]]},"properties":{"OBJECTID":24,"Hospital":"Deer Lodge Centre","Shape_Length":0.013493316148112982,"Shape_Area":5.1774684121861865e-06}},{"type":"Feature","id":25,"geometry":{"type":"Polygon","coordinates":[[[-97.278466648999938,49.883607229000063],[-97.278678835999983,49.881294044000072],[-97.274155540999971,49.880083813000056],[-97.274705508999944,49.881672155000047],[-97.274820129999966,49.881676581000079],[-97.274841787999947,49.881692355000041],[-97.276259821999986,49.881747106000034],[-97.276355431999946,49.881816739000044],[-97.276329876999966,49.88209302100006],[-97.274831190999976,49.882035116000054],[-97.275016722999965,49.882570915000031],[-97.275053207999974,49.88266244700003],[-97.275095630999942,49.882751383000027],[-97.275143808999985,49.882837338000058],[-97.275201192999987,49.882925156000056],[-97.275264581999977,49.883008742000072],[-97.275333664999948,49.883087688000046],[-97.275388542999963,49.883141843000033],[-97.275446724999938,49.883192433000033],[-97.275507979999986,49.883239257000071],[-97.275578125999971,49.883285888000046],[-97.275651315999937,49.883327580000071],[-97.275727201999985,49.883364135000079],[-97.275763953999956,49.882963017000066],[-97.276399058999971,49.882987329000059],[-97.276349878999952,49.883523074000038],[-97.276367440999991,49.883524538000074],[-97.27638501399997,49.883525857000052],[-97.276402597999947,49.883527032000075],[-97.276420228999939,49.883528064000075],[-97.27643786699997,49.883528952000063],[-97.276455511999984,49.88352969500005],[-97.278466648999938,49.883607229000063]]]},"properties":{"OBJECTID":25,"Hospital":"Grace Hospital","Shape_Length":0.017498468301739515,"Shape_Area":9.5887984819386399e-06}},{"type":"Feature","id":26,"geometry":{"type":"Polygon","coordinates":[[[-97.088589921999983,49.834701032000055],[-97.088702277999971,49.834839008000074],[-97.089119683999968,49.835351586000058],[-97.090323653999974,49.83493659800007],[-97.090795918999959,49.834773811000048],[-97.090412940999954,49.834280653000064],[-97.090285139999992,49.834116082000037],[-97.088589921999983,49.834701032000055]]]},"properties":{"OBJECTID":26,"Hospital":"Meadowood Manor","Shape_Length":0.0052380547774576215,"Shape_Area":1.4051725029618388e-06}},{"type":"Feature","id":27,"geometry":{"type":"Polygon","coordinates":[[[-97.129675077999991,49.815797701000065],[-97.129852482999979,49.81602214000003],[-97.129968183999949,49.816168514000026],[-97.130083884999976,49.816314887000033],[-97.130199605999962,49.81646128400007],[-97.130315308999968,49.816607657000077],[-97.130431030999944,49.816754055000047],[-97.130582660999949,49.816945876000034],[-97.130944029999966,49.81687329500005],[-97.13102177899998,49.816901871000027],[-97.131815870999958,49.816387183000074],[-97.131107016999977,49.815529329000071],[-97.130204275999972,49.814436784000065],[-97.130158983999991,49.814449806000027],[-97.130112322999992,49.814448603000073],[-97.13010143799994,49.814449687000035],[-97.130071643999941,49.814468905000069],[-97.130030022999961,49.814488383000025],[-97.129995938999969,49.814507082000034],[-97.129962177999971,49.814560688000029],[-97.129924260999985,49.814592279000067],[-97.129806170999984,49.814640925000049],[-97.12980056899994,49.814642004000063],[-97.129758236999976,49.814665518000027],[-97.129729517999976,49.814671261000058],[-97.129718692999973,49.814681610000036],[-97.129716984999959,49.814697054000078],[-97.12971220999998,49.814701925000065],[-97.12969759899994,49.814705917000026],[-97.129671775999952,49.814705050000043],[-97.129660477999948,49.814709635000042],[-97.129647225999975,49.814721654000039],[-97.129628974999946,49.81473350300007],[-97.129625398999963,49.814743340000064],[-97.12952563999994,49.814806855000029],[-97.129429054999946,49.814845773000059],[-97.129274805999955,49.814916413000049],[-97.129250512999988,49.814937160000056],[-97.129224488999967,49.814988372000073],[-97.129196074999982,49.815000596000061],[-97.129162819999976,49.815005006000035],[-97.129147410999963,49.815018880000082],[-97.129128381999976,49.81502567900003],[-97.129097282999965,49.815028235000057],[-97.129073866999988,49.81503708200006],[-97.129675077999991,49.815797701000065]]]},"properties":{"OBJECTID":27,"Hospital":"Actionmarguerite (St. Vital)","Shape_Length":0.0076934838365977625,"Shape_Area":3.2783507119778846e-06}},{"type":"Feature","id":28,"geometry":{"type":"Polygon","coordinates":[[[-97.10751746699998,49.820292184000039],[-97.106983104999983,49.819646065000029],[-97.106783040999971,49.819404156000076],[-97.105890793999947,49.819713531000048],[-97.106620414999952,49.820595598000068],[-97.107311575999972,49.820355964000044],[-97.10734539699996,49.820344462000037],[-97.107379341999945,49.82033332900005],[-97.107413405999978,49.820322566000073],[-97.10744798099995,49.820312057000081],[-97.107482668999978,49.820301929000038],[-97.10751746699998,49.820292184000039]]]},"properties":{"OBJECTID":28,"Hospital":"Vista Park Lodge","Shape_Length":0.0041885668888296578,"Shape_Area":1.0132188829905908e-06}},{"type":"Feature","id":29,"geometry":{"type":"Polygon","coordinates":[[[-97.117215983999984,49.801351371000067],[-97.117099014999951,49.801208403000032],[-97.116982047999954,49.801065435000055],[-97.116865079999968,49.800922467000078],[-97.116747754999949,49.800779062000061],[-97.116686570999946,49.800800022000033],[-97.116001556999947,49.801034690000051],[-97.116144158999987,49.801821502000053],[-97.11625160899996,49.802414346000035],[-97.116426226999977,49.802354474000026],[-97.116606367999964,49.80229270600006],[-97.116786508999951,49.802230939000026],[-97.116966648999949,49.80216917100006],[-97.117146788999946,49.802107403000036],[-97.117533458999958,49.80197481600004],[-97.117683865999936,49.801923242000044],[-97.117557101999978,49.801768305000053],[-97.11744992399997,49.801637306000032],[-97.117332953999949,49.801494339000044],[-97.11728160399997,49.801431576000027],[-97.117215983999984,49.801351371000067]]]},"properties":{"OBJECTID":29,"Hospital":"Golden Links Lodge","Shape_Length":0.0051833442810856733,"Shape_Area":1.5959532313934704e-06}},{"type":"Feature","id":30,"geometry":{"type":"Polygon","coordinates":[[[-97.13213048199998,49.817309333000026],[-97.132875513999977,49.817151097000078],[-97.13377670999995,49.816838790000077],[-97.133788438999943,49.816834812000081],[-97.133800215999941,49.816830977000052],[-97.133812037999974,49.816827286000034],[-97.13382405699997,49.81682369400005],[-97.133836118999966,49.816820251000081],[-97.133848222999973,49.816816957000071],[-97.134570018999966,49.816567231000079],[-97.13478444499998,49.816493044000026],[-97.135004787999947,49.816416807000053],[-97.135225129999981,49.816340571000069],[-97.135445470999969,49.816264335000028],[-97.135665810999967,49.816188098000055],[-97.135886150999966,49.816111860000035],[-97.136106489999975,49.816035622000072],[-97.136166086999935,49.816015001000039],[-97.135760104999974,49.815466531000027],[-97.13571749099998,49.815408955000066],[-97.135585425999977,49.815322431000027],[-97.135436588999937,49.815224918000069],[-97.135419845999991,49.81520465400007],[-97.135224999999991,49.814968832000034],[-97.134967960999973,49.814657731000068],[-97.134767446999945,49.814415041000075],[-97.134669677999966,49.814296705000061],[-97.131107016999977,49.815529329000071],[-97.131815870999958,49.816387183000074],[-97.13102177899998,49.816901871000027],[-97.13213048199998,49.817309333000026]]]},"properties":{"OBJECTID":30,"Hospital":"St. Amant Health and Transition Services","Shape_Length":0.013546975825407271,"Shape_Area":8.6649102381317677e-06}},{"type":"Feature","id":31,"geometry":{"type":"Polygon","coordinates":[[[-97.081633077999982,49.822181876000059],[-97.081561968999949,49.822311949000039],[-97.08157079199998,49.822374772000046],[-97.081566468999938,49.822550893000027],[-97.081247363999978,49.822858275000044],[-97.081111762999967,49.822968353000078],[-97.080982189999986,49.823162496000066],[-97.081051864999949,49.823337242000036],[-97.081291831999977,49.823342149000041],[-97.081590426999981,49.823375587000044],[-97.081852659999981,49.823331539000037],[-97.08196322699996,49.823321443000054],[-97.082274762999987,49.823326218000034],[-97.082505275999949,49.823408036000046],[-97.082680375999985,49.82357604200007],[-97.082889260999991,49.823503800000026],[-97.082186181999987,49.822161942000037],[-97.081945627999971,49.822084487000041],[-97.081893978999972,49.822101501000077],[-97.081842220999988,49.822118183000043],[-97.081790356999988,49.822134530000028],[-97.081738032999965,49.822150652000062],[-97.081685605999951,49.822166434000053],[-97.081633077999982,49.822181876000059]]]},"properties":{"OBJECTID":31,"Hospital":"River Park Gardens","Shape_Length":0.0054593949970274556,"Shape_Area":1.4659791648553494e-06}},{"type":"Feature","id":32,"geometry":{"type":"MultiPolygon","coordinates":[[[[-96.981375860999947,49.899686083000063],[-96.982698783999979,49.899678977000065],[-96.982696098999952,49.89947072800004],[-96.98137318299996,49.899477834000038],[-96.981375860999947,49.899686083000063]]],[[[-96.979995236999969,49.900674102000039],[-96.981125043999953,49.900682110000048],[-96.981121180999992,49.900370384000041],[-96.981191233999937,49.90037000600006],[-96.981188560999954,49.900156709000044],[-96.981061607999948,49.900157393000029],[-96.98106024599997,49.900048734000052],[-96.980737299999987,49.900050473000078],[-96.980733653999948,49.899755310000046],[-96.979983852999965,49.899759328000073],[-96.979995236999969,49.900674102000039]]]]},"properties":{"OBJECTID":32,"Hospital":"Park Manor Care Home","Shape_Length":0.0073057779542146884,"Shape_Area":1.2135269244585527e-06}},{"type":"Feature","id":33,"geometry":{"type":"Polygon","coordinates":[[[-97.212287797999977,49.86625779700006],[-97.214194167999949,49.866328293000038],[-97.214291882999987,49.865299967000055],[-97.213657467999951,49.865274622000072],[-97.21306534699994,49.86525096400004],[-97.212177168999972,49.865215472000045],[-97.212171320999971,49.86527716900008],[-97.212150974999986,49.865491810000037],[-97.212360417999946,49.865500208000071],[-97.212287797999977,49.86625779700006]]]},"properties":{"OBJECTID":33,"Hospital":"Tuxedo Villa","Shape_Length":0.0063052821082425518,"Shape_Area":2.0303557644041704e-06}},{"type":"Feature","id":34,"geometry":{"type":"Polygon","coordinates":[[[-97.122367136999969,49.945120644000042],[-97.123606424999991,49.945519841000078],[-97.124112865999962,49.944864500000051],[-97.122873064999965,49.944465771000068],[-97.122367136999969,49.945120644000042]]]},"properties":{"OBJECTID":34,"Hospital":"Luther Home","Shape_Length":0.0042600996737102662,"Shape_Area":1.0139831654391423e-06}},{"type":"Feature","id":35,"geometry":{"type":"Polygon","coordinates":[[[-97.121096739999984,49.870059609000066],[-97.12326842799996,49.869744465000053],[-97.120839201999956,49.866731952000066],[-97.118712285999948,49.867449732000068],[-97.116291881999985,49.868265997000037],[-97.117636737999987,49.868810894000035],[-97.119375060999971,49.869595865000065],[-97.120301886999982,49.869971773000032],[-97.12042706699998,49.87001411500006],[-97.120555371999956,49.870045747000063],[-97.120685887999969,49.870066441000063],[-97.120822862999944,49.870076202000064],[-97.120960165999975,49.870073919000049],[-97.121096739999984,49.870059609000066]]]},"properties":{"OBJECTID":35,"Hospital":"Riverview Health Centre","Shape_Length":0.016030426843784917,"Shape_Area":1.19281581408375e-05}},{"type":"Feature","id":36,"geometry":{"type":"Polygon","coordinates":[[[-97.175186958999973,49.853149031000044],[-97.174988160999987,49.852906861000065],[-97.17495635399996,49.852868113000056],[-97.17475398199997,49.85262158300003],[-97.174659846999987,49.852653059000033],[-97.174565710999957,49.852684535000037],[-97.174471574999984,49.852716010000051],[-97.174377438999954,49.852747486000055],[-97.174283302999982,49.852778962000059],[-97.174189165999962,49.852810437000073],[-97.174095029999989,49.852841912000031],[-97.17400089299997,49.852873388000035],[-97.173906756999941,49.852904863000049],[-97.173812619999978,49.852936338000063],[-97.173718482999959,49.852967813000078],[-97.173921022999991,49.853214553000043],[-97.173952825999947,49.853253295000059],[-97.174151590999941,49.853495433000035],[-97.174245716999962,49.853463943000065],[-97.174339840999949,49.85343245100006],[-97.174433965999981,49.853400961000034],[-97.174528089999967,49.853369469000029],[-97.174622214999943,49.853337979000059],[-97.174716338999986,49.853306487000054],[-97.174810463999961,49.853274997000028],[-97.174904586999958,49.85324350500008],[-97.174998710999944,49.853212014000064],[-97.17509283399994,49.853180522000059],[-97.175186958999973,49.853149031000044]]]},"properties":{"OBJECTID":36,"Hospital":"Poseidon Care Centre","Shape_Length":0.003548644656923648,"Shape_Area":6.9619532885928263e-07}},{"type":"Feature","id":37,"geometry":{"type":"Polygon","coordinates":[[[-97.144865185999947,49.872519082000053],[-97.144738174999986,49.872360964000052],[-97.144611164999958,49.87220284600005],[-97.144357148999973,49.871886608000068],[-97.144034958999953,49.871994340000072],[-97.143965563999984,49.872172526000043],[-97.143934359999946,49.872252649000075],[-97.143869154999948,49.872420073000058],[-97.143841520999956,49.872491027000081],[-97.143675712999936,49.872916759000077],[-97.144300009999938,49.872708040000077],[-97.14437531699997,49.87268286300008],[-97.144451000999936,49.872657559000061],[-97.144865185999947,49.872519082000053]]]},"properties":{"OBJECTID":37,"Hospital":"Pembina Place Mennonite PCH","Shape_Length":0.0033950697704641809,"Shape_Area":6.0641791376026586e-07}},{"type":"Feature","id":38,"geometry":{"type":"MultiPolygon","coordinates":[[[[-97.149986782999974,49.870374419000029],[-97.149753199999964,49.870082324000066],[-97.149639526999977,49.87012033600007],[-97.149873144999958,49.870412421000026],[-97.149986782999974,49.870374419000029]]],[[[-97.15064971399994,49.870584649000079],[-97.150416200999985,49.870292539000047],[-97.150290014999939,49.870334739000043],[-97.150101056999972,49.870397930000081],[-97.149912097999959,49.870461122000052],[-97.150145719999955,49.870753206000074],[-97.150334642999951,49.870690022000076],[-97.150523565999947,49.870626839000067],[-97.15064971399994,49.870584649000079]]]]},"properties":{"OBJECTID":38,"Hospital":"The Convalescent Home of Winnipeg","Shape_Length":0.0027986842552476551,"Shape_Area":2.286796089333782e-07}},{"type":"Feature","id":39,"geometry":{"type":"Polygon","coordinates":[[[-97.159814477999987,49.880189990000076],[-97.160932409999987,49.880227113000046],[-97.161017407999964,49.879026600000032],[-97.161014996999938,49.879017562000058],[-97.161011849999966,49.87900875400004],[-97.161007986999948,49.879000236000081],[-97.161003434999941,49.878992065000034],[-97.160998224999958,49.878984297000045],[-97.160992391999969,49.878976985000065],[-97.160985976999939,49.878970179000078],[-97.160979021999992,49.87896392500005],[-97.160971468999946,49.878958191000038],[-97.160963462999973,49.878953109000065],[-97.160955059999992,49.878948714000046],[-97.160946319999937,49.878945037000051],[-97.160937301999979,49.878942102000053],[-97.160928070999944,49.878939932000037],[-97.160918690999949,49.878938541000082],[-97.16090922799998,49.878937939000082],[-97.160899746999974,49.878938130000051],[-97.160890314999961,49.878939112000069],[-97.160880998999971,49.878940880000073],[-97.160124750999955,49.878976883000064],[-97.160105305999991,49.878975769000078],[-97.160085838999976,49.878976359000035],[-97.160066496999946,49.878978648000043],[-97.160047429999963,49.878982619000055],[-97.160028781999983,49.878988240000069],[-97.160010696999962,49.878995470000064],[-97.159993313999962,49.879004253000062],[-97.159976763999964,49.879014521000045],[-97.159961174999978,49.879026196000041],[-97.159947243999966,49.879038626000067],[-97.159934402999966,49.879052179000041],[-97.159922742999981,49.879066760000057],[-97.159912344999952,49.879082267000058],[-97.159903282999949,49.879098591000059],[-97.159895620999976,49.879115616000036],[-97.159889411999984,49.879133223000053],[-97.159814477999987,49.880189990000076]]]},"properties":{"OBJECTID":39,"Hospital":"Misericordia Place","Shape_Length":0.0046237065096068567,"Shape_Area":1.3885807500766984e-06}},{"type":"Feature","id":40,"geometry":{"type":"Polygon","coordinates":[[[-97.137806055999988,49.891030754000042],[-97.137876449999965,49.891160868000043],[-97.137946844999988,49.891290982000044],[-97.138017240999943,49.891421096000045],[-97.138499583999987,49.891311525000049],[-97.138429117999976,49.891181459000052],[-97.138358651999965,49.891051395000034],[-97.138288185999954,49.890921329000037],[-97.137806055999988,49.891030754000042]]]},"properties":{"OBJECTID":40,"Hospital":"Beacon Hill Lodge","Shape_Length":0.0018766134811385119,"Shape_Area":2.1133821351585875e-07}},{"type":"Feature","id":41,"geometry":{"type":"Polygon","coordinates":[[[-97.182988085999966,49.89931550600005],[-97.183835700999964,49.899341670000069],[-97.183857027999977,49.899067953000042],[-97.18387835599998,49.898794236000072],[-97.183899683999982,49.898520520000034],[-97.183921010999939,49.898246803000063],[-97.183073483999976,49.898220658000071],[-97.183052134999969,49.898494369000048],[-97.18303078699995,49.898768081000071],[-97.183009435999963,49.899041793000038],[-97.182988085999966,49.89931550600005]]]},"properties":{"OBJECTID":41,"Hospital":"Calvary Place Personal Care Home","Shape_Length":0.003892307923269436,"Shape_Area":9.3020108957787736e-07}},{"type":"Feature","id":42,"geometry":{"type":"MultiPolygon","coordinates":[[[[-97.159751340999946,49.889586311000073],[-97.159746691999942,49.889652021000074],[-97.159738945999948,49.889761539000062],[-97.159731197999974,49.889871056000061],[-97.159723450999991,49.889980574000049],[-97.160241157999963,49.889996032000056],[-97.160248899999942,49.889886515000057],[-97.160256643999958,49.889776999000048],[-97.160264386999984,49.88966748200005],[-97.160269031999974,49.889601772000049],[-97.159751340999946,49.889586311000073]]],[[[-97.159135358999947,49.889759973000082],[-97.159653051999953,49.889775436000036],[-97.159654213999943,49.889759008000055],[-97.159666610999977,49.889583780000066],[-97.159148920999939,49.889568315000076],[-97.159136521999983,49.889743545000044],[-97.159135358999947,49.889759973000082]]],[[[-97.160021258999961,49.889331093000067],[-97.160021662999952,49.889325617000054],[-97.159956419999958,49.889323589000071],[-97.159956612999963,49.889320821000069],[-97.160001614999942,49.888675293000063],[-97.160154752999972,49.888633764000076],[-97.160155651999958,49.888621043000057],[-97.160157168999945,49.888599530000079],[-97.160179859999971,49.888277938000044],[-97.159937065999941,49.888343778000035],[-97.159794020999982,49.888382568000054],[-97.159650975999966,49.888421358000073],[-97.159507930999951,49.888460149000082],[-97.159364885999992,49.888498938000055],[-97.15922183899994,49.888537727000028],[-97.159196661999943,49.888893574000065],[-97.159168098999942,49.889297268000064],[-97.15915260099996,49.889516307000065],[-97.160009951999939,49.889541917000031],[-97.160025495999946,49.889331224000045],[-97.160021258999961,49.889331093000067]]]]},"properties":{"OBJECTID":42,"Hospital":"Lions Personal Care Home","Shape_Length":0.0075293681052400483,"Shape_Area":1.2407860418392582e-06}},{"type":"Feature","id":43,"geometry":{"type":"Polygon","coordinates":[[[-97.176328849999948,49.930297726000049],[-97.176913839999941,49.929536256000063],[-97.175056125999959,49.928941795000071],[-97.174970508999991,49.928960398000072],[-97.174563620999947,49.929489398000044],[-97.174859632999983,49.929584832000046],[-97.17491124899999,49.929517344000033],[-97.174916598999971,49.929519063000043],[-97.174924066999949,49.929509379000081],[-97.174943915999961,49.929515742000035],[-97.175005665999947,49.929435669000043],[-97.17530777099995,49.929532506000044],[-97.175305912999988,49.929534922000073],[-97.175349578999942,49.929548919000069],[-97.17534263999994,49.92955794900007],[-97.175498250999965,49.929607931000078],[-97.175425530999973,49.929701696000052],[-97.175428073999967,49.929702495000072],[-97.175205517999984,49.929991589000053],[-97.175790149999955,49.930179106000026],[-97.175828743999944,49.93019148500008],[-97.175929148999955,49.930169652000075],[-97.176328849999948,49.930297726000049]]]},"properties":{"OBJECTID":43,"Hospital":"Fred Douglas Lodge","Shape_Length":0.0064056386374477621,"Shape_Area":1.5520245886916324e-06}},{"type":"Feature","id":44,"geometry":{"type":"Polygon","coordinates":[[[-97.130633085999989,49.917088350000029],[-97.130765322999991,49.91708847600006],[-97.130870477999963,49.917054376000067],[-97.130973437999955,49.916969495000046],[-97.131270523999945,49.91638152400003],[-97.131277090999959,49.916350846000057],[-97.130834207999953,49.916207542000052],[-97.130840764999959,49.916194576000066],[-97.128572137999981,49.915460475000032],[-97.128532521999944,49.915468980000071],[-97.128482686999973,49.915533287000073],[-97.128308144999949,49.91618942000008],[-97.128349855999943,49.916407235000065],[-97.129652165999971,49.916827526000077],[-97.130489971999964,49.917065166000043],[-97.130633085999989,49.917088350000029]]]},"properties":{"OBJECTID":44,"Hospital":"Holy Family Nursing Home","Shape_Length":0.00733770802647387,"Shape_Area":2.6665045206915157e-06}}]}