{"type":"FeatureCollection","features":[{"type":"Feature","id":1,"geometry":{"type":"Point","coordinates":[-97.129415206999965,49.902315685000076]},"properties":{"OBJECTID":1,"TARGET_FID":228074,"School_Name":"Argyle High School","Address":"30 Argyle St.","Zip_Code":"R3B 0H4","Latitude":49.902315690000002,"Longitude":-97.129415210000005}},{"type":"Feature","id":2,"geometry":{"type":"Point","coordinates":[-97.164014110999972,49.935815218000073]},"properties":{"OBJECTID":2,"TARGET_FID":240210,"School_Name":"Andrew Mynarski V.C. School ","Address":"1111 Machray Ave. ","Zip_Code":"R2X 1H6","Latitude":49.935815220000002,"Longitude":-97.164014109999997}},{"type":"Feature","id":3,"geometry":{"type":"Point","coordinates":[-97.189564665999967,49.915761515000042]},"properties":{"OBJECTID":3,"TARGET_FID":225256,"School_Name":"Adolescent Parent Centre","Address":"136 Cecil St. ","Zip_Code":"R3E 2Y9","Latitude":49.915761519999997,"Longitude":-97.189564669999996}},{"type":"Feature","id":4,"geometry":{"type":"Point","coordinates":[-97.188675932999956,49.862670707000063]},"properties":{"OBJECTID":4,"TARGET_FID":200476,"School_Name":"Brock Corydon School","Address":"1510 Corydon Ave.","Zip_Code":"R3N 0J6","Latitude":49.862670710000003,"Longitude":-97.188675930000002}},{"type":"Feature","id":5,"geometry":{"type":"Point","coordinates":[-97.130172679999987,49.923347011000033]},"properties":{"OBJECTID":5,"TARGET_FID":237618,"School_Name":"Champlain School","Address":"275 Church Ave.","Zip_Code":"R2W 1B9","Latitude":49.923347010000001,"Longitude":-97.130172680000001}},{"type":"Feature","id":6,"geometry":{"type":"Point","coordinates":[-97.131400376999977,49.868154610000033]},"properties":{"OBJECTID":6,"TARGET_FID":191566,"School_Name":"Collège Churchill High School","Address":"510 Hay St. ","Zip_Code":"R3L 2L6","Latitude":49.868154609999998,"Longitude":-97.131400380000002}},{"type":"Feature","id":7,"geometry":{"type":"Point","coordinates":[-97.143096316999959,49.913318106000077]},"properties":{"OBJECTID":7,"TARGET_FID":231082,"School_Name":"Children of the Earth High School","Address":"100 Salter St.","Zip_Code":"R2W 5M1","Latitude":49.913318109999999,"Longitude":-97.143096319999998}},{"type":"Feature","id":8,"geometry":{"type":"Point","coordinates":[-97.185780823999949,49.898037016000046]},"properties":{"OBJECTID":8,"TARGET_FID":215197,"School_Name":"Clifton School","Address":"1070 Clifton St.","Zip_Code":"R3E 2T7","Latitude":49.898037019999997,"Longitude":-97.185780820000005}},{"type":"Feature","id":9,"geometry":{"type":"Point","coordinates":[-97.203539226999965,49.866634007000073]},"properties":{"OBJECTID":9,"TARGET_FID":204911,"School_Name":"Carpathia School","Address":"300 Carpathia Rd.","Zip_Code":"R3N 1T3","Latitude":49.866634009999999,"Longitude":-97.203539230000004}},{"type":"Feature","id":10,"geometry":{"type":"Point","coordinates":[-97.135662490999948,49.911245806000068]},"properties":{"OBJECTID":10,"TARGET_FID":230919,"School_Name":"David Livingstone School","Address":"270 Flora Ave.","Zip_Code":"R2W 2P9","Latitude":49.911245809999997,"Longitude":-97.135662490000001}},{"type":"Feature","id":11,"geometry":{"type":"Point","coordinates":[-97.098052304999953,49.910274595000033]},"properties":{"OBJECTID":11,"TARGET_FID":246393,"School_Name":"Elmwood High School","Address":"505 Chalmers Ave. ","Zip_Code":"R2L 0G4","Latitude":49.910274600000001,"Longitude":-97.098052300000006}},{"type":"Feature","id":12,"geometry":{"type":"Point","coordinates":[-97.150756705999981,49.867492104000064]},"properties":{"OBJECTID":12,"TARGET_FID":192602,"School_Name":"Earl Grey School","Address":"340 Cockburn St. N ","Zip_Code":"R3M 2P5","Latitude":49.8674921,"Longitude":-97.150756709999996}},{"type":"Feature","id":13,"geometry":{"type":"Point","coordinates":[-97.170747460999962,49.899851279000075]},"properties":{"OBJECTID":13,"TARGET_FID":218815,"School_Name":"Daniel McIntyre Collegiate Institute","Address":"720 Alverstone St.","Zip_Code":"R3E 2H1","Latitude":49.89985128,"Longitude":-97.170747460000001}},{"type":"Feature","id":14,"geometry":{"type":"Point","coordinates":[-97.149374781999938,49.906045883000047]},"properties":{"OBJECTID":14,"TARGET_FID":227067,"School_Name":"Dufferin School","Address":"545 Alexander Ave.","Zip_Code":"R3A 0P1","Latitude":49.906045880000001,"Longitude":-97.149374780000002}},{"type":"Feature","id":15,"geometry":{"type":"Point","coordinates":[-97.215529706999973,49.939387585000077]},"properties":{"OBJECTID":15,"TARGET_FID":249646,"School_Name":"École Garden Grove School","Address":"2340 Burrows Ave. ","Zip_Code":"R2R 1W1","Latitude":49.939387590000003,"Longitude":-97.215529709999998}},{"type":"Feature","id":16,"geometry":{"type":"Point","coordinates":[-97.148074664999967,49.926140113000031]},"properties":{"OBJECTID":16,"TARGET_FID":238902,"School_Name":"Faraday School","Address":"405 Parr St. ","Zip_Code":"R2W 5G1","Latitude":49.926140109999999,"Longitude":-97.148074660000006}},{"type":"Feature","id":17,"geometry":{"type":"Point","coordinates":[-97.133107434999943,49.88404971500006]},"properties":{"OBJECTID":17,"TARGET_FID":196553,"School_Name":"Fort Rouge School","Address":"115 River Ave.","Zip_Code":"R3L 0A8","Latitude":49.88404972,"Longitude":-97.133107429999995}},{"type":"Feature","id":18,"geometry":{"type":"Point","coordinates":[-97.17145087099999,49.89400050100005]},"properties":{"OBJECTID":18,"TARGET_FID":219021,"School_Name":"General Wolfe School","Address":"661 Banning St.","Zip_Code":"R3G 2G3","Latitude":49.894000499999997,"Longitude":-97.171450870000001}},{"type":"Feature","id":19,"geometry":{"type":"Point","coordinates":[-97.145520614999953,49.87513049000006]},"properties":{"OBJECTID":19,"TARGET_FID":192997,"School_Name":"Gladstone School","Address":"500 Gertrude Ave.","Zip_Code":"R3L 0M8","Latitude":49.875130489999997,"Longitude":-97.145520610000005}},{"type":"Feature","id":20,"geometry":{"type":"Point","coordinates":[-97.117307296999968,49.91621669400007]},"properties":{"OBJECTID":20,"TARGET_FID":246103,"School_Name":"Glenelm School","Address":"96 Carmen Ave.","Zip_Code":"R2L 0E6","Latitude":49.916216689999999,"Longitude":-97.117307299999993}},{"type":"Feature","id":21,"geometry":{"type":"Point","coordinates":[-97.091056767999987,49.90778621700008]},"properties":{"OBJECTID":21,"TARGET_FID":246470,"School_Name":"École George V School","Address":"265 Grey St. ","Zip_Code":"R2L 1V6","Latitude":49.907786219999998,"Longitude":-97.091056769999994}},{"type":"Feature","id":22,"geometry":{"type":"Point","coordinates":[-97.161741608999989,49.886775301000057]},"properties":{"OBJECTID":22,"TARGET_FID":212281,"School_Name":"Gordon Bell High School","Address":"3 Borrowman Pl. ","Zip_Code":"R3G 1M6","Latitude":49.886775299999996,"Longitude":-97.161741610000007}},{"type":"Feature","id":23,"geometry":{"type":"Point","coordinates":[-97.171223301999987,49.889076301000046]},"properties":{"OBJECTID":23,"TARGET_FID":228589,"School_Name":"Greenway School","Address":"390 Burnell St. ","Zip_Code":"R3G 2A8","Latitude":49.889076299999999,"Longitude":-97.171223299999994}},{"type":"Feature","id":24,"geometry":{"type":"Point","coordinates":[-97.170465325999942,49.856073311000046]},"properties":{"OBJECTID":24,"TARGET_FID":191454,"School_Name":"Grant Park High School","Address":"450 Nathaniel St. ","Zip_Code":"R3M 3E3","Latitude":49.856073309999999,"Longitude":-97.170465329999999}},{"type":"Feature","id":25,"geometry":{"type":"Point","coordinates":[-97.168367838999984,49.869154696000066]},"properties":{"OBJECTID":25,"TARGET_FID":195339,"School_Name":"Grosvenor School","Address":"1045 Grosvenor Ave","Zip_Code":"R3M 0M8","Latitude":49.869154700000003,"Longitude":-97.168367840000002}},{"type":"Feature","id":26,"geometry":{"type":"Point","coordinates":[-97.156389009999941,49.857906098000058]},"properties":{"OBJECTID":26,"TARGET_FID":190705,"School_Name":"Harrow School","Address":"550 Harrow St.","Zip_Code":"R3M 3A2","Latitude":49.857906100000001,"Longitude":-97.156389009999998}},{"type":"Feature","id":27,"geometry":{"type":"Point","coordinates":[-97.140950800999974,49.933413384000062]},"properties":{"OBJECTID":27,"TARGET_FID":243909,"School_Name":"Inkster School","Address":"633 Inkster Blvd. ","Zip_Code":"R2W 0L3","Latitude":49.933413379999998,"Longitude":-97.140950799999999}},{"type":"Feature","id":28,"geometry":{"type":"Point","coordinates":[-97.186966862999952,49.885901194000041]},"properties":{"OBJECTID":28,"TARGET_FID":214995,"School_Name":"Isaac Brock School","Address":"1265 Barratt Ave.","Zip_Code":"R3G 0L9","Latitude":49.885901189999998,"Longitude":-97.186966859999998}},{"type":"Feature","id":29,"geometry":{"type":"Point","coordinates":[-97.152558479999982,49.902648907000071]},"properties":{"OBJECTID":29,"TARGET_FID":223786,"School_Name":"Hugh John Macdonald School","Address":"567 Bannatyne Ave. ","Zip_Code":"R3A 0G8","Latitude":49.902648910000003,"Longitude":-97.152558479999996}},{"type":"Feature","id":30,"geometry":{"type":"Point","coordinates":[-97.151873678999948,49.922592808000047]},"properties":{"OBJECTID":30,"TARGET_FID":235162,"School_Name":"Isaac Newton School","Address":"730 Aberdeen Ave. ","Zip_Code":"R2W 1W9","Latitude":49.922592809999998,"Longitude":-97.151873679999994}},{"type":"Feature","id":31,"geometry":{"type":"Point","coordinates":[-97.198994809999988,49.859965490000036]},"properties":{"OBJECTID":31,"TARGET_FID":203813,"School_Name":"École J.B. Mitchell School","Address":"1720 John Brebeuf","Zip_Code":"R3N 0M1","Latitude":49.85996549,"Longitude":-97.198994810000002}},{"type":"Feature","id":32,"geometry":{"type":"Point","coordinates":[-97.161322429999984,49.894493106000027]},"properties":{"OBJECTID":32,"TARGET_FID":221601,"School_Name":"John M. King School","Address":"525 Agnes St.","Zip_Code":"R3G 1N7","Latitude":49.894493109999999,"Longitude":-97.161322429999998}},{"type":"Feature","id":33,"geometry":{"type":"Point","coordinates":[-97.167113570999959,49.87333039300006]},"properties":{"OBJECTID":33,"TARGET_FID":197868,"School_Name":"`École Secondaire Kelvin High School","Address":"155 Kingsway","Zip_Code":"R3M 0G3","Latitude":49.87333039,"Longitude":-97.167113569999998}},{"type":"Feature","id":34,"geometry":{"type":"Point","coordinates":[-97.191564420999953,49.916637088000073]},"properties":{"OBJECTID":34,"TARGET_FID":225256,"School_Name":"Keewatin Prairie Community School","Address":"1570 Elgin Ave. W ","Zip_Code":"R3E 1C2","Latitude":49.916637090000002,"Longitude":-97.191564420000006}},{"type":"Feature","id":35,"geometry":{"type":"Point","coordinates":[-97.157145559999947,49.919978785000069]},"properties":{"OBJECTID":35,"TARGET_FID":231989,"School_Name":"King Edward School","Address":"825 Selkirk Ave.","Zip_Code":"R2X 2Y6","Latitude":49.919978790000002,"Longitude":-97.157145560000004}},{"type":"Feature","id":36,"geometry":{"type":"Point","coordinates":[-97.156265962999953,49.938809108000044]},"properties":{"OBJECTID":36,"TARGET_FID":244149,"School_Name":"École Lansdowne","Address":"715 Wiginton St.","Zip_Code":"R2X 2G2","Latitude":49.938809110000001,"Longitude":-97.156265959999999}},{"type":"Feature","id":37,"geometry":{"type":"Point","coordinates":[-97.17249123199997,49.879015000000038]},"properties":{"OBJECTID":37,"TARGET_FID":207337,"School_Name":"École Laura Secord School","Address":"960 Wolseley Ave.","Zip_Code":"R3G 1E7","Latitude":49.879015000000003,"Longitude":-97.172491230000006}},{"type":"Feature","id":38,"geometry":{"type":"Point","coordinates":[-97.081657720999942,49.90468990100004]},"properties":{"OBJECTID":38,"TARGET_FID":245800,"School_Name":"Kent Road School","Address":"361 Kent Rd.","Zip_Code":"R2L 1X9","Latitude":49.904689900000001,"Longitude":-97.081657719999995}},{"type":"Feature","id":39,"geometry":{"type":"Point","coordinates":[-97.156479785999977,49.868158381000057]},"properties":{"OBJECTID":39,"TARGET_FID":194301,"School_Name":"École LaVérendrye","Address":"290 Lilac St.","Zip_Code":"R3M 2T5","Latitude":49.868158379999997,"Longitude":-97.156479790000006}},{"type":"Feature","id":40,"geometry":{"type":"Point","coordinates":[-97.11414757099999,49.912882079000042]},"properties":{"OBJECTID":40,"TARGET_FID":246864,"School_Name":"Lord Selkirk School","Address":"170 Poplar Ave.","Zip_Code":"R2L 2B6","Latitude":49.912882080000003,"Longitude":-97.11414757}},{"type":"Feature","id":41,"geometry":{"type":"Point","coordinates":[-97.169585980999955,49.929116610000051]},"properties":{"OBJECTID":41,"TARGET_FID":236069,"School_Name":"Lord Nelson School","Address":"820 McPhillips St. ","Zip_Code":"R2X 2J7","Latitude":49.929116610000001,"Longitude":-97.169585979999994}},{"type":"Feature","id":42,"geometry":{"type":"Point","coordinates":[-97.119415009999955,49.924623491000034]},"properties":{"OBJECTID":42,"TARGET_FID":241838,"School_Name":"École Luxton School","Address":"111 Polson Ave. ","Zip_Code":"R2W 0M5","Latitude":49.924623490000002,"Longitude":-97.119415009999997}},{"type":"Feature","id":43,"geometry":{"type":"Point","coordinates":[-97.140824401999964,49.858769015000064]},"properties":{"OBJECTID":43,"TARGET_FID":211021,"School_Name":"Lord Roberts School","Address":"665 Beresford Ave. ","Zip_Code":"R3L 1J9","Latitude":49.858769019999997,"Longitude":-97.1408244}},{"type":"Feature","id":44,"geometry":{"type":"Point","coordinates":[-97.131885521999948,49.919960806000063]},"properties":{"OBJECTID":44,"TARGET_FID":237595,"School_Name":"Machray School","Address":"320 Mountain Ave. ","Zip_Code":"R2W 1K1","Latitude":49.919960809999999,"Longitude":-97.131885519999997}},{"type":"Feature","id":45,"geometry":{"type":"Point","coordinates":[-97.180379021999954,49.857139196000048]},"properties":{"OBJECTID":45,"TARGET_FID":198881,"School_Name":"Montrose School","Address":"691 Montrose St.","Zip_Code":"R3M 3M4","Latitude":49.857139199999999,"Longitude":-97.180379020000004}},{"type":"Feature","id":46,"geometry":{"type":"Point","coordinates":[-97.162660265999989,49.879920580000032]},"properties":{"OBJECTID":46,"TARGET_FID":208264,"School_Name":"Mulvey School","Address":"750 Wolseley Ave. ","Zip_Code":"R3G 1C6","Latitude":49.879920579999997,"Longitude":-97.162660270000003}},{"type":"Feature","id":47,"geometry":{"type":"Point","coordinates":[-97.199397224999984,49.949914291000027]},"properties":{"OBJECTID":47,"TARGET_FID":253230,"School_Name":"Meadows West School","Address":"150 Inkster Garden Dr.","Zip_Code":"R2R 2R8","Latitude":49.949914290000002,"Longitude":-97.199397219999994}},{"type":"Feature","id":48,"geometry":{"type":"Point","coordinates":[-97.144013464999944,49.914086182000062]},"properties":{"OBJECTID":48,"TARGET_FID":231082,"School_Name":"Niji Mahkwa School","Address":"450 Flora Ave. ","Zip_Code":"R2W 2R8","Latitude":49.914086179999998,"Longitude":-97.144013459999996}},{"type":"Feature","id":49,"geometry":{"type":"Point","coordinates":[-97.129956509999943,49.909116006000033]},"properties":{"OBJECTID":49,"TARGET_FID":230676,"School_Name":"Norquay School","Address":"132 Lusted Ave. ","Zip_Code":"R2W 2P2","Latitude":49.909116009999998,"Longitude":-97.12995651}},{"type":"Feature","id":50,"geometry":{"type":"Point","coordinates":[-97.15736231599999,49.908047607000071]},"properties":{"OBJECTID":50,"TARGET_FID":226647,"School_Name":"Pinkham School","Address":"765 Pacific Ave. ","Zip_Code":"R3E 1G1","Latitude":49.908047609999997,"Longitude":-97.157362320000004}},{"type":"Feature","id":51,"geometry":{"type":"Point","coordinates":[-97.222676284999977,49.942677314000036]},"properties":{"OBJECTID":51,"TARGET_FID":254516,"School_Name":"Prairie Rose School","Address":"105 Lucas Ave. ","Zip_Code":"R2R 2S8","Latitude":49.942677310000001,"Longitude":-97.222676280000002}},{"type":"Feature","id":52,"geometry":{"type":"Point","coordinates":[-97.175092974999984,49.904368496000075]},"properties":{"OBJECTID":52,"TARGET_FID":217145,"School_Name":"Principal Sparling School","Address":"1150 Sherburn St. ","Zip_Code":"R3E 2N4","Latitude":49.904368499999997,"Longitude":-97.175092969999994}},{"type":"Feature","id":53,"geometry":{"type":"Point","coordinates":[-97.141971632999969,49.910841379000033]},"properties":{"OBJECTID":53,"TARGET_FID":230978,"School_Name":"R.B. Russell Vocational High School","Address":"364 Dufferin Ave. ","Zip_Code":"R2W 2Y3","Latitude":49.910841380000001,"Longitude":-97.14197163}},{"type":"Feature","id":54,"geometry":{"type":"Point","coordinates":[-97.187097620999964,49.870773996000025]},"properties":{"OBJECTID":54,"TARGET_FID":200616,"School_Name":"Queenston School","Address":"245 Queenston St. ","Zip_Code":"R3N 0W6","Latitude":49.870773999999997,"Longitude":-97.187097620000003}},{"type":"Feature","id":55,"geometry":{"type":"Point","coordinates":[-97.101797673999954,49.906759979000071]},"properties":{"OBJECTID":55,"TARGET_FID":248180,"School_Name":"River Elm School","Address":"500 Riverton Ave. ","Zip_Code":"R2L 0N9","Latitude":49.906759979999997,"Longitude":-97.101797669999996}},{"type":"Feature","id":56,"geometry":{"type":"Point","coordinates":[-97.180319929999939,49.865755290000038]},"properties":{"OBJECTID":56,"TARGET_FID":199774,"School_Name":"École River Heights School","Address":"1350 Grosvenor Ave. ","Zip_Code":"R3M 0P2","Latitude":49.865755290000003,"Longitude":-97.180319929999996}},{"type":"Feature","id":57,"geometry":{"type":"Point","coordinates":[-97.138806039999963,49.926653001000034]},"properties":{"OBJECTID":57,"TARGET_FID":238482,"School_Name":"Ralph Brown School","Address":"460 Andrews St. ","Zip_Code":"R2W 4Y1","Latitude":49.926653000000002,"Longitude":-97.138806040000006}},{"type":"Feature","id":58,"geometry":{"type":"Point","coordinates":[-97.182092199999943,49.869131311000046]},"properties":{"OBJECTID":58,"TARGET_FID":199551,"School_Name":"Robert H. Smith School","Address":"315 Oak St. ","Zip_Code":"R3M 3P8","Latitude":49.86913131,"Longitude":-97.1820922}},{"type":"Feature","id":59,"geometry":{"type":"Point","coordinates":[-97.127441100999988,49.865793805000067]},"properties":{"OBJECTID":59,"TARGET_FID":187976,"School_Name":"École Riverview School","Address":"253 Maplewood Ave.","Zip_Code":"R3L 2L4","Latitude":49.86579381,"Longitude":-97.127441099999999}},{"type":"Feature","id":60,"geometry":{"type":"Point","coordinates":[-97.167580777999945,49.861591579000049]},"properties":{"OBJECTID":60,"TARGET_FID":195712,"School_Name":"Rockwood School","Address":"350 Rockwood St. ","Zip_Code":"R3M 3C5","Latitude":49.861591580000002,"Longitude":-97.167580779999994}},{"type":"Feature","id":61,"geometry":{"type":"Point","coordinates":[-97.154816899999958,49.901945288000036]},"properties":{"OBJECTID":61,"TARGET_FID":223800,"School_Name":"École Sacré-Coeur","Address":"809 Furby St. ","Zip_Code":"R3A 1T2","Latitude":49.90194529,"Longitude":-97.1548169}},{"type":"Feature","id":62,"geometry":{"type":"Point","coordinates":[-97.191065361999961,49.932525111000075]},"properties":{"OBJECTID":62,"TARGET_FID":233892,"School_Name":"Shaughnessy Park School","Address":"1641 Manitoba Ave. ","Zip_Code":"R2X 0M3","Latitude":49.93252511,"Longitude":-97.191065359999996}},{"type":"Feature","id":63,"geometry":{"type":"Point","coordinates":[-97.158003363999967,49.934332711000081]},"properties":{"OBJECTID":63,"TARGET_FID":238142,"School_Name":"Robertson School","Address":"550 Robertson St. ","Zip_Code":"R2X 2C4","Latitude":49.93433271,"Longitude":-97.158003359999995}},{"type":"Feature","id":64,"geometry":{"type":"Point","coordinates":[-97.177945168999941,49.898422207000067]},"properties":{"OBJECTID":64,"TARGET_FID":216516,"School_Name":"Sargent Park School","Address":"2 Sargent Park Pl. ","Zip_Code":"R3E 0V8","Latitude":49.89842221,"Longitude":-97.177945170000001}},{"type":"Feature","id":65,"geometry":{"type":"Point","coordinates":[-97.190791105999949,49.856214211000065]},"properties":{"OBJECTID":65,"TARGET_FID":201291,"School_Name":"École Sir William Osler","Address":"1600 Grant Ave.","Zip_Code":"R3N 0M5","Latitude":49.856214209999997,"Longitude":-97.190791110000006}},{"type":"Feature","id":66,"geometry":{"type":"Point","coordinates":[-97.177346197999952,49.931356003000076]},"properties":{"OBJECTID":66,"TARGET_FID":235756,"School_Name":"École Secondaire Sisler High School","Address":"1360 Redwood Ave. ","Zip_Code":"R2X 0Z1","Latitude":49.931356000000001,"Longitude":-97.177346200000002}},{"type":"Feature","id":67,"geometry":{"type":"Point","coordinates":[-97.151564721999989,49.895960190000039]},"properties":{"OBJECTID":67,"TARGET_FID":222729,"School_Name":"Sister MacNamara School","Address":"460 Sargent Ave. ","Zip_Code":"R3B 1V5","Latitude":49.895960189999997,"Longitude":-97.151564719999996}},{"type":"Feature","id":68,"geometry":{"type":"Point","coordinates":[-97.135337607999986,49.925258881000047]},"properties":{"OBJECTID":68,"TARGET_FID":237858,"School_Name":"St. John's High School","Address":"401 Church Ave. ","Zip_Code":"R2W 1C4","Latitude":49.925258880000001,"Longitude":-97.135337609999993}},{"type":"Feature","id":69,"geometry":{"type":"Point","coordinates":[-97.207531191999976,49.944946715000071]},"properties":{"OBJECTID":69,"TARGET_FID":249655,"School_Name":"École Stanley Knowles School","Address":"2424 King Edward St. ","Zip_Code":"R2R 2R2","Latitude":49.944946719999997,"Longitude":-97.207531189999997}},{"type":"Feature","id":70,"geometry":{"type":"Point","coordinates":[-97.148596102999988,49.92084668900003]},"properties":{"OBJECTID":70,"TARGET_FID":234862,"School_Name":"Strathcona School","Address":"233 McKenzie St. ","Zip_Code":"R2W 4Z2","Latitude":49.920846689999998,"Longitude":-97.148596100000006}},{"type":"Feature","id":71,"geometry":{"type":"Point","coordinates":[-97.180418333999967,49.906035280000026]},"properties":{"OBJECTID":71,"TARGET_FID":216007,"School_Name":"Technical Vocational High School","Address":"1555 Wall St. ","Zip_Code":"R3E 2S2","Latitude":49.906035279999998,"Longitude":-97.180418329999995}},{"type":"Feature","id":72,"geometry":{"type":"Point","coordinates":[-97.205404032999979,49.936834415000078]},"properties":{"OBJECTID":72,"TARGET_FID":252073,"School_Name":"Tyndall Park School","Address":"2221 King Edward St. ","Zip_Code":"R2R 1M5","Latitude":49.936834419999997,"Longitude":-97.205404029999997}},{"type":"Feature","id":73,"geometry":{"type":"Point","coordinates":[-97.146118160999947,49.900580714000057]},"properties":{"OBJECTID":73,"TARGET_FID":223606,"School_Name":"École Victoria-Albert School","Address":"110 Ellen St. ","Zip_Code":"R3A 1A1","Latitude":49.90058071,"Longitude":-97.14611816}},{"type":"Feature","id":74,"geometry":{"type":"Point","coordinates":[-97.202816370999983,49.960083384000029]},"properties":{"OBJECTID":74,"TARGET_FID":256384,"School_Name":"École Waterford Springs School","Address":"2090 Jefferson Ave. ","Zip_Code":"R2R 3A3","Latitude":49.96008338,"Longitude":-97.202816369999994}},{"type":"Feature","id":75,"geometry":{"type":"Point","coordinates":[-97.165424533999953,49.899694286000056]},"properties":{"OBJECTID":75,"TARGET_FID":220212,"School_Name":"Wellington School","Address":"690 Beverley St.","Zip_Code":"R3E 2A5","Latitude":49.899694289999999,"Longitude":-97.165424529999996}},{"type":"Feature","id":76,"geometry":{"type":"Point","coordinates":[-97.182751519999954,49.917264599000077]},"properties":{"OBJECTID":76,"TARGET_FID":227544,"School_Name":"Weston School","Address":"1410 Logan Ave. ","Zip_Code":"R3E 1R9","Latitude":49.917264600000003,"Longitude":-97.182751519999997}},{"type":"Feature","id":77,"geometry":{"type":"Point","coordinates":[-97.143449865999969,49.917401099000074]},"properties":{"OBJECTID":77,"TARGET_FID":232756,"School_Name":"William Whyte School","Address":"200 Powers St. ","Zip_Code":"R2W 4P3","Latitude":49.917401099999999,"Longitude":-97.143449869999998}},{"type":"Feature","id":78,"geometry":{"type":"Point","coordinates":[-97.151137076999987,49.89253048300003]},"properties":{"OBJECTID":78,"TARGET_FID":222769,"School_Name":"Winnipeg Adult Education Centre","Address":"310 Vaughan St. ","Zip_Code":"R3B 2N8","Latitude":49.892530479999998,"Longitude":-97.151137079999998}},{"type":"Feature","id":79,"geometry":{"type":"Point","coordinates":[-97.185564905999968,49.881680109000058]},"properties":{"OBJECTID":79,"TARGET_FID":206246,"School_Name":"Wolseley School","Address":"511 Clifton St. ","Zip_Code":"R3G 2X3","Latitude":49.881680109999998,"Longitude":-97.185564909999997}}]}