{"type":"FeatureCollection","features":[{"type":"Feature","id":1,"geometry":{"type":"MultiPolygon","coordinates":[[[[-75.825147917493254,45.190224854747235],[-75.825222586357981,45.190285169430076],[-75.825339520058563,45.190379627273813],[-75.825454244801804,45.190305963957904],[-75.825770241576024,45.190103069160401],[-75.825578621942796,45.189948302845757],[-75.825147917493254,45.190224854747235]]],[[[-75.739458664586849,45.241452401670117],[-75.739498714177174,45.241502558140652],[-75.739648474114787,45.241442873985122],[-75.739608424524505,45.241392718094495],[-75.739458664586849,45.241452401670117]]],[[[-75.897114881615266,45.252769339663509],[-75.897182840064843,45.252742458385441],[-75.897151789797036,45.252702466871966],[-75.897150321949894,45.25270304867734],[-75.897147030522646,45.252698874856378],[-75.897148496573195,45.252698293050962],[-75.896993656662644,45.252504147428994],[-75.896986197950824,45.252494736694182],[-75.896934206157169,45.252526341478202],[-75.896926000945342,45.25253132920934],[-75.896933371622268,45.252540669109493],[-75.896982578638543,45.252602675787493],[-75.896981687509808,45.252603028665639],[-75.896991100057363,45.252614888660339],[-75.896991992084438,45.252614535149817],[-75.897078417201243,45.2527233815049],[-75.897077301493681,45.252723823550255],[-75.897082280855315,45.252730110839451],[-75.897083396562877,45.252729669426557],[-75.897114881615266,45.252769339663509]]],[[[-75.897351865272071,45.252861261560625],[-75.897334686788909,45.252868056015615],[-75.897521438451648,45.253103616434366],[-75.897524353484712,45.253102463582536],[-75.897572018093683,45.253083612587226],[-75.897586304001678,45.253074927935479],[-75.897578685389732,45.253065330106935],[-75.897395738092243,45.25283459154624],[-75.897351865272071,45.252861261560625]]],[[[-75.877083057142244,45.274213934983081],[-75.876982618306982,45.274247262317552],[-75.877021357255273,45.274287385317329],[-75.877222269960157,45.274485750685216],[-75.877293583617259,45.274462029083146],[-75.877310956136526,45.274454066461331],[-75.877089230364874,45.274211886160465],[-75.877083057142244,45.274213934983081]]],[[[-75.866996127243468,45.278274646305398],[-75.867061534477628,45.278302739264575],[-75.867270760192113,45.27807763742517],[-75.867279162134935,45.278068590602039],[-75.867217819777494,45.278036127084441],[-75.866996127243468,45.278274646305398]]],[[[-75.862944725312076,45.281588683868762],[-75.862683035290019,45.281780077229413],[-75.862772473356358,45.281841029914325],[-75.863033678288119,45.281649990089043],[-75.863055750792967,45.281633847531566],[-75.862975223115953,45.281578970765786],[-75.862966310930048,45.281572895256055],[-75.862944725312076,45.281588683868762]]],[[[-75.75866933187217,45.284178264701524],[-75.758850766406709,45.284420933383799],[-75.759074081298124,45.284337717171127],[-75.75889266203491,45.284095072150627],[-75.75866933187217,45.284178264701524]]],[[[-75.753843005447422,45.285764277922702],[-75.753992821978983,45.286017321480962],[-75.754189973437732,45.285959159256528],[-75.754040156007903,45.285706112910702],[-75.753843005447422,45.285764277922702]]],[[[-75.666416336221374,45.286630785372566],[-75.666791673008333,45.286760688551212],[-75.66680542172378,45.286765447012506],[-75.666816716241826,45.286746541464403],[-75.666835691355587,45.286714785716306],[-75.666451143243677,45.286581694525047],[-75.666416336221374,45.286630785372566]]],[[[-75.913517527611873,45.286847661709537],[-75.913507983011925,45.286853625419404],[-75.913524880322427,45.286867100645985],[-75.913585289330371,45.286915272927196],[-75.913823898039482,45.286766175728886],[-75.91380229715017,45.286748950716529],[-75.913746591721107,45.286704528691139],[-75.913517527611873,45.286847661709537]]],[[[-75.925263978217046,45.288815731579319],[-75.925323472740018,45.288862799375622],[-75.925361952973546,45.288838499188898],[-75.925361105862194,45.28883782990664],[-75.925401198571649,45.288812506509622],[-75.925402047479579,45.288813175792171],[-75.925547699421458,45.288721187600288],[-75.92556099538595,45.288712787110235],[-75.925501510744482,45.288665712869474],[-75.925418563006119,45.288718098404239],[-75.925419415507321,45.288718772743913],[-75.925416563356265,45.288720573932288],[-75.925415715346674,45.288719900224599],[-75.925263978217046,45.288815731579319]]],[[[-75.976799474464073,45.290286260865074],[-75.977500110978397,45.290835989084904],[-75.977788977732715,45.29065256008321],[-75.977088343015097,45.290102840829114],[-75.976799474464073,45.290286260865074]]],[[[-75.896486340292455,45.29081263643851],[-75.896475095181728,45.29081995404875],[-75.896479774506005,45.29082353227696],[-75.896527827187199,45.290860301055289],[-75.896539072297912,45.290852983450336],[-75.896864637926612,45.290640974095794],[-75.896811907717748,45.290600630725109],[-75.896486340292455,45.29081263643851]]],[[[-75.740425062288011,45.291306070275539],[-75.740436395433662,45.291310388506545],[-75.740544742138383,45.291351697017326],[-75.740747851224128,45.291086247047915],[-75.740628170475475,45.291040625148277],[-75.740425062288011,45.291306070275539]]],[[[-75.890809636280451,45.291372278901292],[-75.891173048830296,45.291469298293237],[-75.891221042222725,45.291379465622256],[-75.890857625181283,45.2912824460767],[-75.890809636280451,45.291372278901292]]],[[[-75.888703426073519,45.293042676447755],[-75.888688613796148,45.293059115737286],[-75.888671788668816,45.293074566791979],[-75.888653083117248,45.293088908001991],[-75.888917221946713,45.293275947010208],[-75.888928213732569,45.293283726886322],[-75.888954146298175,45.293267493479334],[-75.889015598250126,45.293202538950958],[-75.889081435777271,45.29313295407465],[-75.889066810306176,45.293128651781068],[-75.888716108917535,45.293025378311604],[-75.888703426073519,45.293042676447755]]],[[[-75.733433762790938,45.295206753643356],[-75.733471185707344,45.295283211927206],[-75.733473972281388,45.295288909974623],[-75.733835543284897,45.295145790042433],[-75.733795305048361,45.295063641718798],[-75.733433762790938,45.295206753643356]]],[[[-75.885034468828479,45.298269843602633],[-75.885290060188083,45.298476437600392],[-75.885479265149854,45.2983583371295],[-75.885223668400357,45.298151740173779],[-75.885034468828479,45.298269843602633]]],[[[-75.902384521242794,45.299643361367131],[-75.902500774918693,45.299737262216674],[-75.902896437885559,45.299489215449704],[-75.902786507450998,45.299391345370147],[-75.902384521242794,45.299643361367131]]],[[[-75.589677834822126,45.307382801536257],[-75.589773870115891,45.307499703663694],[-75.589842614591319,45.307471582202218],[-75.589746580195879,45.307354681280295],[-75.589677834822126,45.307382801536257]]],[[[-75.616427618519353,45.314104370048724],[-75.616486345881029,45.314205828120976],[-75.616864144051874,45.314096973320652],[-75.61685085886711,45.314074022547686],[-75.616805416690127,45.3139955156852],[-75.616427618519353,45.314104370048724]]],[[[-75.905655838757852,45.317588608698017],[-75.905817458253907,45.317891807066495],[-75.906032340659777,45.317834785483974],[-75.905870707688976,45.317531595022054],[-75.905655838757852,45.317588608698017]]],[[[-75.589059625023381,45.319355738902203],[-75.589067260703303,45.319365088650954],[-75.589109138365231,45.319416351801102],[-75.5894274177586,45.319286893576447],[-75.589440679587113,45.319281499872069],[-75.589428879317566,45.319267052018624],[-75.589391170736874,45.3192208861973],[-75.589059625023381,45.319355738902203]]],[[[-75.824193865339041,45.32104131852337],[-75.82438048764439,45.321281899199718],[-75.824387359756287,45.321279224233905],[-75.824608493538179,45.321193078898162],[-75.824421864944696,45.32095249468648],[-75.824193865339041,45.32104131852337]]],[[[-75.595280233787079,45.32264334186906],[-75.595423814213916,45.322890927933493],[-75.595445198609255,45.322882116902726],[-75.595448537647172,45.322880739981706],[-75.595557815006558,45.322835708328533],[-75.595414403462982,45.32258842772606],[-75.595280233787079,45.32264334186906]]],[[[-75.816418969012872,45.32521631757951],[-75.816367911467069,45.32523620252833],[-75.816555815668295,45.325476289175349],[-75.816828095929225,45.325370250800084],[-75.816640192626267,45.325130161177199],[-75.816418969012872,45.32521631757951]]],[[[-75.776490176055503,45.326519800234955],[-75.777025527049133,45.326664085163301],[-75.777367435727726,45.326528324596708],[-75.777292376095815,45.326401751872027],[-75.776933053575434,45.326507804105816],[-75.776858147555458,45.326381171967057],[-75.776798330537346,45.326280031904453],[-75.776430620447115,45.326359661742572],[-75.776490176055503,45.326519800234955]]],[[[-75.895784330254088,45.330502432805297],[-75.895945041553361,45.330657325478072],[-75.896258798827645,45.330495361561184],[-75.896098082138423,45.330340465287811],[-75.895784330254088,45.330502432805297]]],[[[-75.75472960849693,45.333714253146802],[-75.754857206996476,45.333992516041661],[-75.754869555238372,45.333989696432965],[-75.755042190774759,45.33395031093783],[-75.754914584190288,45.333672056676583],[-75.75472960849693,45.333714253146802]]],[[[-75.798267936470367,45.338269424116469],[-75.798360750405564,45.338435230855936],[-75.798711583846469,45.338337551155306],[-75.798687061635889,45.338293730900602],[-75.798618775301236,45.338171739078163],[-75.798267936470367,45.338269424116469]]],[[[-75.936254217134646,45.34388201322195],[-75.936343005718982,45.343924346670249],[-75.936351590918164,45.343915407584149],[-75.936395653282844,45.343869524504498],[-75.936396394392929,45.343869877446558],[-75.936401688164921,45.343864366120457],[-75.936400947953132,45.343864011915642],[-75.936532384953921,45.343727145354855],[-75.936456320107254,45.343690818738402],[-75.936443643081958,45.343684763773965],[-75.936254217134646,45.34388201322195]]],[[[-75.67037494847213,45.344581789286202],[-75.670159885504901,45.344796989902711],[-75.670231433622305,45.344832546800163],[-75.670446501979427,45.344617343161936],[-75.670455468962572,45.344608370091173],[-75.670383919946872,45.344572812421447],[-75.67037494847213,45.344581789286202]]],[[[-75.672545898934416,45.345154088937036],[-75.672566577253932,45.345161952609992],[-75.672797844032218,45.345249904450831],[-75.672849531297032,45.345297814356705],[-75.672930648268917,45.345264209302535],[-75.672718671912975,45.345009728627112],[-75.672705696647014,45.344994155922969],[-75.672545898934416,45.345154088937036]]],[[[-75.688572131962303,45.345452261227187],[-75.688527091332233,45.345470852984533],[-75.688695069103872,45.34567321275923],[-75.68882324971176,45.345620304050044],[-75.688655272838474,45.34541794534902],[-75.688572131962303,45.345452261227187]]],[[[-75.726105516908831,45.350171521027917],[-75.72609743296961,45.350174915586194],[-75.726296281345981,45.350410601095817],[-75.726413272538665,45.350361524439485],[-75.726214425060647,45.350125838094222],[-75.726105516908831,45.350171521027917]]],[[[-75.932460894896153,45.350667287892968],[-75.932287737438614,45.350694354470498],[-75.932223418962579,45.350704408001917],[-75.932358009948388,45.350897210083687],[-75.932384584809384,45.350935278889217],[-75.932400025950827,45.350929919763594],[-75.932442218731012,45.350917429322635],[-75.932486230980444,45.350908566587698],[-75.932534888227792,45.35090095875929],[-75.932513322372813,45.350832360734302],[-75.932461402444304,45.350667209611146],[-75.932460894896153,45.350667287892968]]],[[[-75.920524818917642,45.351963747519051],[-75.920526072067446,45.351963922386574],[-75.920511502291831,45.352015089749443],[-75.92059114872157,45.352027817822666],[-75.920606023026068,45.351975597478393],[-75.920604896538705,45.351975439024372],[-75.920612184570601,45.351949855962118],[-75.920613311057977,45.351950009997097],[-75.920639698171115,45.351857385642433],[-75.920638319257165,45.351857194360896],[-75.920642814426856,45.351841400694461],[-75.920644193340792,45.351841592607286],[-75.92066757738597,45.351759499939391],[-75.920587928261298,45.351746760442637],[-75.920584909921914,45.351757356699153],[-75.920562355920097,45.351836543531881],[-75.920563603679994,45.351836722187656],[-75.920560964429725,45.351845984507001],[-75.920559711279921,45.351845806482707],[-75.920531049632444,45.35194645835378],[-75.920529797380922,45.35194628411746],[-75.920524818917642,45.351963747519051]]],[[[-75.642665819747052,45.356002284122212],[-75.64264248600756,45.356004800267918],[-75.642701829613543,45.356294940913699],[-75.642709118543721,45.35633056255012],[-75.6428323386546,45.356318166846897],[-75.642825049724422,45.356282545202532],[-75.642790871522806,45.356115569905739],[-75.642765631558262,45.355992253625445],[-75.642665819747052,45.356002284122212]]],[[[-75.778382643389875,45.356649869805423],[-75.778616705725355,45.356865484081354],[-75.778647596991306,45.356848824493724],[-75.778774279209316,45.356780508897444],[-75.778540221365446,45.356564893666587],[-75.778382643389875,45.356649869805423]]],[[[-75.636898164007476,45.356945132774563],[-75.636890107915988,45.356961060101042],[-75.636905566799925,45.356973884365019],[-75.636918769563465,45.356987898317769],[-75.636979658271727,45.357062134007528],[-75.636996729158255,45.357078879539202],[-75.637018121739445,45.357092962682216],[-75.637043013676291,45.357103842077407],[-75.637070448113221,45.357111099518605],[-75.637099370459893,45.35711445602832],[-75.637128668930288,45.357113782581884],[-75.637157217279935,45.357109105066513],[-75.637183918099367,45.357100603286959],[-75.637211289766057,45.357089439920451],[-75.637227745368207,45.357081338373447],[-75.637242047930201,45.357071422014556],[-75.637253796916227,45.357059968545329],[-75.637262663302067,45.357047298713454],[-75.637268398789217,45.35703376733003],[-75.637270842758383,45.357019753334129],[-75.637269926767445,45.357005649180174],[-75.637265676468289,45.356991849847503],[-75.63721430900371,45.356875903895855],[-75.636898164007476,45.356945132774563]]],[[[-75.740126979717175,45.358759263805723],[-75.740043048323585,45.358794714094181],[-75.739959123218128,45.358830161204345],[-75.740139544453072,45.359042193882026],[-75.74022337254047,45.359006478008268],[-75.740307285967774,45.358971016490614],[-75.740358500718756,45.358949369678669],[-75.740178411860455,45.3587375392732],[-75.740126979717175,45.358759263805723]]],[[[-75.677938181056092,45.359635295772797],[-75.678133674224853,45.359872393020062],[-75.678328738897193,45.359792453675155],[-75.6781332430335,45.359555359248901],[-75.677938181056092,45.359635295772797]]],[[[-75.741606424141779,45.364993596729299],[-75.741606906537044,45.364994424792137],[-75.741319883125726,45.365077994073324],[-75.741320764373,45.365079494935024],[-75.741356381675672,45.365140288637825],[-75.741356426591452,45.365140365637366],[-75.741716239592009,45.365035601339912],[-75.74167969522793,45.364973231553883],[-75.741614104737437,45.364992330020272],[-75.741613616053911,45.364991501957448],[-75.741606424141779,45.364993596729299]]],[[[-75.74160904362914,45.365571497733747],[-75.741612246123125,45.365576963397636],[-75.741721953775496,45.365545021444476],[-75.741722197218934,45.365545439258689],[-75.741727621246625,45.365543859516912],[-75.741727379599837,45.365543441702592],[-75.74189513908081,45.36549459780629],[-75.741894652193949,45.365493766595016],[-75.741900077119922,45.365492186220834],[-75.741900564905166,45.365493014907393],[-75.741972057327033,45.365472198646572],[-75.74193551116629,45.365409828079542],[-75.741575701759018,45.365514589159304],[-75.74160904362914,45.365571497733747]]],[[[-75.746954827155093,45.368434871572695],[-75.747144718429752,45.36876496423708],[-75.747410296360343,45.368650533711644],[-75.747242540472612,45.368351168406846],[-75.746954827155093,45.368434871572695]]],[[[-75.660137754680761,45.370559913789897],[-75.660061750919567,45.370590538365427],[-75.65993089153551,45.370643268485068],[-75.660103926822146,45.370857909320314],[-75.660234876037762,45.370805289839836],[-75.660329960913927,45.370767084204125],[-75.660156771117073,45.3705522511749],[-75.660137754680761,45.370559913789897]]],[[[-75.671309351776159,45.376201522966639],[-75.671311813160045,45.376218570612281],[-75.671321659593829,45.376286783860223],[-75.671709218858553,45.376259270141759],[-75.671699449679807,45.376191051812576],[-75.671697005363967,45.37617400100352],[-75.671309351776159,45.376201522966639]]],[[[-75.668197172610263,45.385809572860126],[-75.668244621623572,45.386137007668722],[-75.668345290427609,45.386129764195566],[-75.668297840515976,45.3858023306069],[-75.668197172610263,45.385809572860126]]],[[[-75.715520684085774,45.397810696419583],[-75.715581568302483,45.397911662642279],[-75.715937102627308,45.397805097622616],[-75.715876146545398,45.397704155179142],[-75.715520684085774,45.397810696419583]]],[[[-75.700741157821582,45.398165473380971],[-75.700655086981328,45.398193685364511],[-75.700647921120336,45.398195841984133],[-75.700785607700553,45.398498388598917],[-75.700815647363626,45.39849258928475],[-75.70089762827628,45.398475066939199],[-75.700978555942129,45.398455277237169],[-75.700824720348024,45.398133760447699],[-75.700741157821582,45.398165473380971]]],[[[-75.625162366523185,45.398467338859255],[-75.625242379465533,45.398592335009582],[-75.625597592193529,45.398479477432964],[-75.625583725798791,45.398457812309985],[-75.625517576556234,45.398354484186903],[-75.625162366523185,45.398467338859255]]],[[[-75.739216982741127,45.399393718243353],[-75.739267112327241,45.399477044941484],[-75.739618125431264,45.39937199544088],[-75.73956809196487,45.399288641465091],[-75.739216982741127,45.399393718243353]]],[[[-75.732079322531405,45.402744469802364],[-75.732030389501247,45.402759065388722],[-75.732114136740279,45.402898340433225],[-75.732175294943104,45.402880097413728],[-75.732091550399062,45.402740817909219],[-75.732079322531405,45.402744469802364]]],[[[-75.728174033377613,45.403779392294112],[-75.728182662594207,45.403793628737738],[-75.728224507916792,45.40386261413321],[-75.728568733350556,45.403759326168412],[-75.728518307320385,45.403676090932137],[-75.728174033377613,45.403779392294112]]],[[[-75.699805236705103,45.406689094923891],[-75.699809445312198,45.406694086126357],[-75.699839717639023,45.406729979379939],[-75.699871034706433,45.406767111895462],[-75.700002612742708,45.40692313290193],[-75.700058039694056,45.406899982617126],[-75.699860665453102,45.406665948327266],[-75.699805236705103,45.406689094923891]]],[[[-75.688381375610021,45.407599387338877],[-75.688479333298517,45.407717837127194],[-75.688593631341988,45.407670808145987],[-75.68849543200669,45.407552456013029],[-75.688381375610021,45.407599387338877]]],[[[-75.706895289798027,45.408869918894709],[-75.70692860202368,45.408925908488158],[-75.706971897227135,45.408998670911799],[-75.706973589653131,45.409001518316131],[-75.70706391974656,45.408977485336131],[-75.706976635840292,45.408835480032678],[-75.706895289798027,45.408869918894709]]],[[[-75.64898194278166,45.409885700738528],[-75.64898463952413,45.41018737312028],[-75.649179311632722,45.410186509141973],[-75.649176613991898,45.409884838016879],[-75.64898194278166,45.409885700738528]]],[[[-75.717770430273177,45.410250780892234],[-75.717762048991602,45.410253286426375],[-75.717778735197996,45.410281043423801],[-75.717930239663943,45.410533057340977],[-75.717986412216987,45.41050928924961],[-75.717838490232381,45.41026322090292],[-75.717821804026016,45.410235460112972],[-75.717770430273177,45.410250780892234]]],[[[-75.699892458627644,45.415186242485412],[-75.700002106092896,45.415140951311109],[-75.700015385887767,45.41513555475786],[-75.699958127271529,45.415067072464517],[-75.69994486364638,45.415072487311342],[-75.699905653082538,45.415088399529779],[-75.699892363406235,45.415093791042864],[-75.69983288056136,45.415117930511776],[-75.699833325227459,45.415118476599247],[-75.699813657512635,45.41512671709674],[-75.699814302502958,45.415127492086903],[-75.699812865198552,45.415128083576448],[-75.699827593077615,45.41514609121554],[-75.699839149005442,45.415159776185064],[-75.699848469026477,45.415168345211619],[-75.699867249205823,45.415160314705133],[-75.699868969479624,45.415159716279362],[-75.699881643809917,45.415174939243379],[-75.699882748737735,45.415174488374845],[-75.699892458627644,45.415186242485412]]],[[[-75.621742947360531,45.415936924660876],[-75.621707556433236,45.415944187014389],[-75.621705832566207,45.415944653010641],[-75.621509937850561,45.41599824381538],[-75.620200566967142,45.416356190520631],[-75.619960936873497,45.416421662794228],[-75.619901388451666,45.416437942255534],[-75.61867244912554,45.416773804333339],[-75.617873840549734,45.416992050272469],[-75.616821040189592,45.417279751802653],[-75.61694231275294,45.41749959929902],[-75.617001866564678,45.417483325188243],[-75.617989277657003,45.417213492320649],[-75.618884155088566,45.416968935642892],[-75.620082150148093,45.416641523089872],[-75.620321761377028,45.416576055485166],[-75.621630788205721,45.416218203498545],[-75.622023341205121,45.416110809751963],[-75.622023033981264,45.416082740962644],[-75.622015955256799,45.416055117976363],[-75.62200231344093,45.416028743516641],[-75.621982507385553,45.416004386888339],[-75.621957110215845,45.415982754339538],[-75.621926861245257,45.41596447771105],[-75.621892644416064,45.415950086690579],[-75.621855449671742,45.415940000614789],[-75.62181636397375,45.415934513965425],[-75.621779520470653,45.415933674036985],[-75.621742947360531,45.415936924660876]]],[[[-75.685178736993379,45.426379016564056],[-75.685195115975972,45.426372007736767],[-75.685184609280384,45.426359546056169],[-75.685014557298786,45.426157876517273],[-75.68499891223982,45.426139321365405],[-75.684998481946764,45.42613881258184],[-75.684924512869642,45.426169168734276],[-75.684887733146965,45.426184255702623],[-75.685000572326473,45.426318327795386],[-75.685094252237548,45.426278821207283],[-75.685178736993379,45.426379016564056]]],[[[-75.493756390842265,45.425947085320175],[-75.494047877083943,45.426456419379093],[-75.494443991005099,45.426510708842805],[-75.494158710325394,45.425919117881683],[-75.493756390842265,45.425947085320175]]],[[[-75.667345739502522,45.429838652054841],[-75.667382236255875,45.43010020455668],[-75.667567812922229,45.430087506031157],[-75.667531377254292,45.429825918797341],[-75.667345739502522,45.429838652054841]]],[[[-75.698229607866466,45.432619694226396],[-75.698249037527773,45.432643279023665],[-75.698361411379878,45.432779632911704],[-75.698423749070699,45.432855284557711],[-75.698525651261576,45.432813620942888],[-75.698535705206268,45.432809510810401],[-75.698438067318008,45.432690853929323],[-75.698341783190926,45.432573833294065],[-75.698229607866466,45.432619694226396]]],[[[-75.479718152894264,45.450624982959262],[-75.479645488170945,45.450647239354581],[-75.479639335609548,45.450649119208883],[-75.479798624875755,45.45090708402639],[-75.479816209397427,45.45090170601658],[-75.479893461816928,45.450878072133776],[-75.479741802840763,45.45063245763545],[-75.479734157279381,45.450620080085379],[-75.479718152894264,45.450624982959262]]],[[[-75.491098388205941,45.452602350353125],[-75.491151378926233,45.452643836143288],[-75.491212128395659,45.452605397842163],[-75.491211100722921,45.452604593748745],[-75.491218041106848,45.452600202742779],[-75.491219067881218,45.452601007466534],[-75.491343893281481,45.452522025387616],[-75.49134440621954,45.452522426804762],[-75.491351632267651,45.452517855564317],[-75.491351119329664,45.452517453516968],[-75.491418047411543,45.452475104932773],[-75.491429456015709,45.452467885719109],[-75.491427062903782,45.452466011597004],[-75.491376466193699,45.45242639853916],[-75.491365057589604,45.452433618388262],[-75.491362201845305,45.452435425083337],[-75.491298413375333,45.452475787405568],[-75.491298156457134,45.45247558575155],[-75.491295303407796,45.452477389924645],[-75.491295562122573,45.452477591578571],[-75.491179007511079,45.452551339545415],[-75.491180376543582,45.452552412091102],[-75.491169919255384,45.452559027593161],[-75.491168550222895,45.452557956938037],[-75.491098388205941,45.452602350353125]]],[[[-75.503995441451224,45.457769606671725],[-75.503872829499812,45.457804040889833],[-75.504026836672111,45.458075658258167],[-75.504204953728276,45.458025633477426],[-75.504050951047589,45.45775402027887],[-75.503995441451224,45.457769606671725]]],[[[-75.449496581846603,45.458624134022642],[-75.449635939293245,45.458894842621248],[-75.449728500801854,45.458871242962928],[-75.449589143355155,45.45860053362086],[-75.449496581846603,45.458624134022642]]],[[[-75.488908446460229,45.462292506874405],[-75.488964785201603,45.462387402507055],[-75.489688308094316,45.462183418976508],[-75.489643529772366,45.462107991891948],[-75.489631962166456,45.462088523000467],[-75.488908446460229,45.462292506874405]]],[[[-75.486016173853955,45.463394300376827],[-75.485954189287639,45.463401778900213],[-75.485892732080131,45.463411157116973],[-75.485831920529705,45.463422416974353],[-75.485960347275949,45.463736847691024],[-75.485986549336147,45.463733226204326],[-75.486126876065029,45.463713807017427],[-75.486078566465665,45.463388735943106],[-75.486016173853955,45.463394300376827]]],[[[-75.488566669833972,45.467164771604779],[-75.488565486752734,45.467165525720254],[-75.488801657434223,45.46734784812098],[-75.489020124118028,45.467290624330957],[-75.489037859556674,45.467285974277317],[-75.488565488549384,45.467062443016431],[-75.488556794654059,45.4670713374366],[-75.488543536845071,45.467082831182317],[-75.488528838850755,45.467093428519675],[-75.48851282331475,45.467103041022504],[-75.488495623874769,45.467111588482155],[-75.488541886213611,45.467147308504821],[-75.488543071091456,45.467146550609002],[-75.488566669833972,45.467164771604779]]],[[[-76.213447009520863,45.467015063415346],[-76.213444097182688,45.467016821762762],[-76.213393773560469,45.467047125055096],[-76.21440747205294,45.467866747957288],[-76.214645546264464,45.467700893510603],[-76.215192469355543,45.467317434740004],[-76.214209345023789,45.466556008112988],[-76.213447009520863,45.467015063415346]]],[[[-75.527062042651963,45.471691448750285],[-75.527025517152524,45.471707872908482],[-75.527223263296051,45.471924882129436],[-75.52725951301268,45.471908156287732],[-75.527485882176094,45.471806762971063],[-75.52731555620835,45.471619752380619],[-75.527288226762437,45.471589758334872],[-75.527062042651963,45.471691448750285]]],[[[-75.526767943211141,45.472734935834893],[-75.526988149033315,45.472977620595607],[-75.527079895769901,45.472936412450494],[-75.527101325081063,45.472926783815566],[-75.526881118360535,45.472684102615474],[-75.526767943211141,45.472734935834893]]],[[[-76.117200296356344,45.473735224355153],[-76.119825106242914,45.475747437979116],[-76.126160667023612,45.471260084211451],[-76.128520089422381,45.473465252225395],[-76.132812226375194,45.470344568966908],[-76.130527179092056,45.468166746568308],[-76.128628231311268,45.466356740827202],[-76.128054163827244,45.466767232267046],[-76.127579658422803,45.46631492491769],[-76.117200296356344,45.473735224355153]]],[[[-75.512331561149438,45.478072183832424],[-75.512189130566227,45.478194590058862],[-75.512148522223782,45.47823061358892],[-75.512100134471027,45.478273546884651],[-75.512357025692836,45.478751081773538],[-75.512792994269873,45.478637440856268],[-75.512781721311413,45.478493016952086],[-75.512771541602575,45.478404207868003],[-75.512768914928671,45.47838424007147],[-75.512704418586225,45.478266776299641],[-75.512674566671009,45.478211363165556],[-75.512631025329199,45.478130512197367],[-75.512546466911502,45.477973515774913],[-75.512466610276022,45.477962923648334],[-75.512331561149438,45.478072183832424]]],[[[-75.467032511862868,45.496936204411931],[-75.466993957069235,45.496984235753722],[-75.466993840288239,45.49698438057807],[-75.467397726433219,45.497124324204719],[-75.467405779829761,45.497127115530233],[-75.467409232953727,45.497128313161859],[-75.467459554779282,45.497065267456158],[-75.467044445083118,45.496921434199329],[-75.467032511862868,45.496936204411931]]],[[[-75.466248336518774,45.498223630439171],[-75.466403480059952,45.498293727002121],[-75.466448437146639,45.498244515540527],[-75.466293306181939,45.49817441199005],[-75.466248336518774,45.498223630439171]]],[[[-75.399084503422529,45.502344527298611],[-75.399212647199462,45.502523233364023],[-75.399230994524018,45.502547378233125],[-75.3992509546907,45.502570886196743],[-75.399272482797215,45.502593704372472],[-75.399295530414179,45.50261578142954],[-75.399320045693784,45.502637067704413],[-75.399345973486646,45.502657515312656],[-75.399373255465861,45.502677078256454],[-75.399401830257943,45.502695712527938],[-75.399431633581372,45.502713376208639],[-75.399462598390727,45.502730029563381],[-75.39949465502788,45.502745635129848],[-75.399527731378328,45.502760157802598],[-75.399561753033879,45.502773564912509],[-75.399596643459617,45.502785826299885],[-75.399632324166248,45.502796914382287],[-75.399668714886744,45.502806804216796],[-75.399705733756818,45.502815473555899],[-75.3997432974991,45.502822902897663],[-75.39978132161049,45.502829075529689],[-75.399819720552102,45.502833977566361],[-75.399858407942105,45.502837597980474],[-75.399897296749486,45.502839928627843],[-75.399936299490349,45.502840964265658],[-75.399975328424404,45.502840702564122],[-75.400014295752484,45.502839144112002],[-75.400053113813826,45.502836292415019],[-75.400091695283763,45.502832153888235],[-75.4001299533696,45.502826737841303],[-75.400167802006294,45.502820056457772],[-75.400205156049765,45.502812124767573],[-75.400241931468614,45.502802960613266],[-75.400278045533199,45.502792584609814],[-75.400431313392005,45.502745301158647],[-75.400149563091361,45.502263386715292],[-75.400006104835427,45.502018014346078],[-75.399954977221043,45.502036131513115],[-75.399656662884851,45.501619770786121],[-75.398834659484137,45.501910980964198],[-75.398785989660325,45.501928222369777],[-75.399084503422529,45.502344527298611]]]]},"properties":{"OBJECTID":1,"Dissolve":1,"Shape_Length":17642.309303877086,"Shape_Area":1172590.4287467764}}]}