{"type":"FeatureCollection","features":[{"type":"Feature","id":1,"geometry":{"type":"MultiLineString","coordinates":[[[-75.656654902780957,45.417555036165361],[-75.656665535240663,45.41769910038424],[-75.656706727488015,45.418365299057541],[-75.656808600034481,45.419247921217725],[-75.656825685991194,45.419338940210714]],[[-75.656526741935991,45.417581085805047],[-75.656524598555734,45.417725055373936],[-75.656615926677418,45.418636830158384],[-75.656678560812267,45.419399937249125]],[[-75.656825685991194,45.419338940210714],[-75.656678560812267,45.419399937249125]],[[-75.67696567930254,45.43798233145543],[-75.676454094138137,45.437889603435337],[-75.674078524522102,45.437556771558299],[-75.672443233175528,45.437330580913475],[-75.671461631488171,45.437144951756743],[-75.671101297464745,45.437058155130259],[-75.670853429819999,45.436999916005348],[-75.670005565718853,45.436739855986986],[-75.669180738913184,45.436423318131901],[-75.668971134109626,45.436339763541184],[-75.668684726044219,45.436210106903971],[-75.667996926455359,45.435846678436512],[-75.667422297524311,45.435508985163374],[-75.666660625876361,45.434992852997759],[-75.665977425661765,45.434378979077039],[-75.665649397750926,45.434088629486851],[-75.665309654012148,45.433726205417436],[-75.66499429594009,45.4333607380564],[-75.664737437057639,45.432983980629238],[-75.66443082408486,45.432371229020248],[-75.664242020670017,45.431764696590392],[-75.664065876314183,45.431077707579071],[-75.664047805803904,45.430907332052008],[-75.66389186006721,45.430312836190637],[-75.663630029907992,45.42943322707972],[-75.663245195233515,45.428301262238556],[-75.663076015516083,45.427849402876618],[-75.662958195178362,45.427283109524588],[-75.662809824934456,45.426455000214943],[-75.662605373765672,45.425589628764016],[-75.662365548737654,45.424644308111667],[-75.66233553961726,45.424467402812333],[-75.662236676426986,45.423994893320959],[-75.662073360013395,45.423543035424984],[-75.661923894723145,45.423280980298301],[-75.661698751760127,45.422994253201594],[-75.661374807590562,45.422670357216816],[-75.66107818478207,45.422420970550185],[-75.660891175302851,45.422305277904769],[-75.658897267511705,45.421431995445381],[-75.658453289555581,45.42121275909939],[-75.658326325266572,45.421157832130518],[-75.65790883233997,45.420875799204254],[-75.657593164349123,45.420621511109658],[-75.657278569845047,45.420295231987517],[-75.657103180074031,45.420059974485298],[-75.656879633417262,45.419626385766044],[-75.656825685991194,45.419338940210714]],[[-75.678004408452097,45.438023979277979],[-75.677927094947165,45.438042876574166],[-75.677849362827331,45.438068097962301],[-75.677732644722454,45.438086856571182],[-75.677618812006273,45.438081583234393],[-75.67751281439601,45.438059439752813],[-75.677396782604021,45.438030977203411],[-75.677293418854177,45.438001716011001],[-75.677126779572347,45.437972009159566],[-75.67696567930254,45.43798233145543]],[[-75.677770769223116,45.43828528899018],[-75.677756991761598,45.438269271741405],[-75.677359513299535,45.438081966474769],[-75.67696567930254,45.43798233145543]],[[-75.677766573192429,45.438356742214971],[-75.677715271304862,45.438323951361241],[-75.677606090065225,45.438276103860332],[-75.6772893827236,45.438168629157445],[-75.676420332754816,45.438012827475028],[-75.675097278733006,45.437806014456491],[-75.671772140454323,45.437348373459827],[-75.671047811772738,45.437157912176332],[-75.670815763460126,45.43710902110363],[-75.669907051074901,45.436816167336787],[-75.669306085336345,45.436592233514425],[-75.668577303705916,45.436285354309639],[-75.667478360482875,45.435699011393424],[-75.667067297697059,45.435441942106664],[-75.666357351043189,45.434934796438199],[-75.665773924910553,45.434462511356216],[-75.665186314425327,45.43386431354886],[-75.664728508702026,45.4332478421491],[-75.664570332448491,45.432969159610337],[-75.664385200448223,45.432582300075971],[-75.664207592736759,45.432077829328037],[-75.663929912702656,45.431088508985091],[-75.663728848182487,45.430358707786006],[-75.66349286435063,45.429526621485458],[-75.662955276551997,45.427926789175352],[-75.662797321284017,45.427300782931496],[-75.662608971518395,45.426210566155156],[-75.662174526484037,45.424479638567803],[-75.662064502624673,45.42399154984885],[-75.66199026584961,45.423796653391605],[-75.661856136597905,45.423466997415062],[-75.661630411526573,45.423156669901601],[-75.661253900641526,45.422790129712503],[-75.661102309039023,45.422672034981815],[-75.661077154414457,45.422644854678772],[-75.661051866839188,45.42262667162943],[-75.660811903470602,45.422435938724384],[-75.660269006628667,45.422180636234906],[-75.65985342172371,45.422017558475659],[-75.658160874455859,45.421299834193917],[-75.65799854079917,45.42120361154398],[-75.657628037846777,45.420940785780488],[-75.657365177319903,45.420673046381282],[-75.657023977412052,45.420230363207672],[-75.656726183200419,45.419634251698106],[-75.656678560812267,45.419399937249125]]]},"properties":{"OBJECTID":1,"FULL_ROADN":"Vanier Pky","Shape_Length":9138.1215969641344}},{"type":"Feature","id":2,"geometry":{"type":"LineString","coordinates":[[-75.912240659572049,45.247873104691791],[-75.912184365746469,45.248322707175646],[-75.912132734177192,45.249078763345537],[-75.912035471784762,45.249861170984737],[-75.911990941397804,45.250472862247918],[-75.912050086476114,45.250914117119414],[-75.912187154117106,45.251211783641885],[-75.912437763420129,45.251618020714496],[-75.913069352726708,45.252143210703458],[-75.913321989527333,45.252341205720228],[-75.913991940489808,45.25286786439986],[-75.914914538134383,45.253592507585203],[-75.916026976747929,45.254444100975547],[-75.91748029457078,45.255603382284264],[-75.917786757524908,45.255850755896212],[-75.918154358020644,45.256148677944402],[-75.918473469253954,45.2564050735322],[-75.919047247480435,45.25687120642116],[-75.920108931280453,45.257713502021772],[-75.920677320513548,45.258202333252079],[-75.92070261886856,45.258220459156327],[-75.920727825595435,45.258247583187469],[-75.920916651468147,45.258473511098586],[-75.920940852081912,45.258599617727292],[-75.921104106511748,45.258834414546961],[-75.921419902063363,45.25910598647539],[-75.922418047125007,45.259938939963142],[-75.922935969005437,45.260382500042773],[-75.923984497876418,45.261278685864148],[-75.924426994510654,45.261622878823836],[-75.925286157621429,45.262347110584756],[-75.92600198913874,45.262920792343039],[-75.928079145603888,45.264646855890781],[-75.928281124609015,45.264836842708995],[-75.928533712900588,45.265063076969092],[-75.928899451188741,45.265442866358789],[-75.929100985527796,45.265677842890085],[-75.929337996134052,45.265997063166864],[-75.929442655254533,45.266161058215062],[-75.929653468292145,45.266499502933144],[-75.929791024616662,45.26676115501504],[-75.929952357550121,45.267193913156802],[-75.930048552743997,45.267507371595165],[-75.930112791269963,45.267716644499387],[-75.93023183421478,45.268554137447587],[-75.93021143796625,45.269318933931594],[-75.929998448310712,45.270226757241851],[-75.929998178816135,45.270253752257787],[-75.929985254754129,45.270271685286339],[-75.929737256853642,45.270855379323613],[-75.929477868315345,45.271304780894795],[-75.929309321910168,45.271591143873309],[-75.929268114391448,45.271887907986162],[-75.929345576118394,45.272019091585129],[-75.92972460408285,45.272412258095301]]},"properties":{"OBJECTID":2,"FULL_ROADN":"Stittsville Main St","Shape_Length":4621.2458192985941}},{"type":"Feature","id":3,"geometry":{"type":"MultiLineString","coordinates":[[[-75.78262326824931,45.363899058668977],[-75.782631701633207,45.363814831872425],[-75.782636807657298,45.363723768229356],[-75.782645390161505,45.363638853837905],[-75.782687389095983,45.36355541497467],[-75.782749521072617,45.363498656482207],[-75.782825302949988,45.363452963478046],[-75.782943824871936,45.363415596741255],[-75.78303407501528,45.36340173134851],[-75.783113499561111,45.363402229967505],[-75.783208678760417,45.363419375514631],[-75.783300350936841,45.363455356215752],[-75.783373588785324,45.363501398250627],[-75.783427674551959,45.363545762620404],[-75.783479030338427,45.363609191174881],[-75.783549105218796,45.363754462146645],[-75.783659270113674,45.364068945240788],[-75.783676039863394,45.364148178592608],[-75.783674651067955,45.364243930394736],[-75.783648207360955,45.364311882903209],[-75.783580533677338,45.364382842770887],[-75.783514603623686,45.364465146865811]],[[-75.784195081942983,45.364154460477288],[-75.784169553619236,45.364154300795128],[-75.784074401369395,45.364152345477294],[-75.783978317566607,45.364135104216771],[-75.783884272041206,45.364099199686635],[-75.783813851309446,45.364034105429205],[-75.783780319894831,45.363965778311005],[-75.783622296354892,45.363639789849081],[-75.783567023913776,45.363556356667679],[-75.783457332431055,45.363423736220028],[-75.783306780179331,45.363335326623293],[-75.783205778998678,45.363292553254155],[-75.783137233949248,45.363273650506116],[-75.783064447953336,45.363266266509974],[-75.782989065826271,45.363269834484313],[-75.78291240000668,45.363279106924573],[-75.782827009749028,45.363300464269123],[-75.782755796703199,45.363326095217907],[-75.78268234325904,45.363368280317147],[-75.782608455030285,45.363420222535439],[-75.782546962654123,45.363522205769243],[-75.782528581326801,45.363593170414418],[-75.782535663644495,45.363703395022895],[-75.782566358179452,45.363801722074612],[-75.78262326824931,45.363899058668977]],[[-75.783589939936675,45.364564604877195],[-75.783785628938162,45.36459953398537],[-75.783933554515997,45.364647747505181],[-75.784044271874762,45.364719978715954],[-75.784098033349565,45.364786395701138],[-75.784196158124686,45.365081329041033],[-75.784220827659027,45.365296777385758],[-75.784204383099421,45.365441336515566],[-75.784165003652319,45.365563410317378],[-75.784050911323021,45.365681754462535],[-75.783837151811284,45.365766353374866],[-75.783740318813543,45.365798373464031]],[[-75.783432195772775,45.365356559766425],[-75.783063535265015,45.364804265386212],[-75.783000639720399,45.364665732734373],[-75.782762357099713,45.364261104088691],[-75.78262326824931,45.363899058668977]],[[-75.783432195772775,45.365356559766425],[-75.783429620302869,45.365434327068705],[-75.783495734511149,45.365569134749073],[-75.783605729624426,45.365848839117511],[-75.78360581676101,45.365849244306787],[-75.783654890826668,45.366080422621778],[-75.783673902771326,45.366223702338296],[-75.783643660987295,45.366557559962814],[-75.783583686763976,45.366770091933681],[-75.783482069339044,45.366982362452156],[-75.783406406937601,45.367125930200132],[-75.783322008420029,45.36728604302597],[-75.7831353447922,45.367633605378273],[-75.782990764540486,45.367948390037483],[-75.782919822785857,45.368204908299269],[-75.782885375089663,45.36845797892336],[-75.782877751986163,45.368648817737864],[-75.782871754833323,45.368791210559984],[-75.782970334155976,45.36915007674785],[-75.783084365399816,45.369368954753035],[-75.783157608638192,45.369484202355871],[-75.783220071194862,45.369592577739716],[-75.783483941428088,45.369927183517945],[-75.783942788298802,45.370388918331031],[-75.78461654991473,45.370994376433551],[-75.784873047674424,45.371263720114776],[-75.785054545091072,45.371495680919459],[-75.785134798781911,45.371638289973944],[-75.785256903185228,45.371872054730119],[-75.785345585768383,45.372134544012575],[-75.785392116703477,45.372494781110085],[-75.785376064707648,45.372755641263581],[-75.785308380244274,45.373061172018055],[-75.7851899697134,45.373339396754218],[-75.785072465582672,45.373545629974721],[-75.784877682082978,45.373805371482902],[-75.78465781762057,45.374028960521834],[-75.784309832737378,45.374287751354359],[-75.783975519314495,45.374474627131875],[-75.783624010340446,45.374636908226123],[-75.783286145877256,45.374757903934537],[-75.782412966353107,45.375056133545527],[-75.781476502313822,45.375384315933793],[-75.781118723997409,45.375531235200086],[-75.780660260707307,45.375757705618824],[-75.78040836142354,45.375913910059836],[-75.780148252436391,45.376101260671049],[-75.779845574084561,45.376359901303111],[-75.779631850505424,45.376584229258391],[-75.779398997302309,45.376880004063011],[-75.779268479278059,45.377112198653684],[-75.779153567685242,45.377346330115508],[-75.779032616718752,45.377644643881446],[-75.778819356670297,45.378241445895178],[-75.778769236067333,45.378364827891232],[-75.778655403351152,45.378576858025227],[-75.778488302335276,45.378847859174265],[-75.778155523234901,45.379222607850302],[-75.77761261381653,45.379706253953188],[-75.77733372644667,45.379994691188855]],[[-75.783740318813543,45.365798373464031],[-75.783641111568514,45.365607928961353],[-75.7834902781441,45.365393217080957],[-75.783432195772775,45.365356559766425]],[[-75.783522162946795,45.367208256180099],[-75.783769178988678,45.366897926295067],[-75.783986529066624,45.366519819755212],[-75.784082597598044,45.366323150315459],[-75.784205288601228,45.366023909018068],[-75.784306474834835,45.365731810611997],[-75.784355349474495,45.365486131063761],[-75.784359144856566,45.365316325115991],[-75.78435321058582,45.365135704008573],[-75.784315307969038,45.364970575061399],[-75.784244990543527,45.364780895247705],[-75.78419995171015,45.364617249728965],[-75.784200929077173,45.364519343809981],[-75.784242621686133,45.36443371678007],[-75.784423817268831,45.364236881668006]],[[-75.783522162946795,45.367208256180099],[-75.78366173149756,45.366967715971612],[-75.783777500981472,45.366663184823175],[-75.783809336376834,45.366480989562795],[-75.783822700613314,45.36632613240775],[-75.783810202352754,45.366099660194813],[-75.783740318813543,45.365798373464031]],[[-75.783522162946795,45.367208256180099],[-75.783372692266681,45.367513047570093],[-75.783190604656909,45.367882629335853],[-75.783071172741558,45.368241835776111],[-75.783051586773425,45.368781632307062],[-75.783099123821628,45.369060888487361],[-75.783185639668332,45.369286407878114],[-75.783258715820054,45.369414674533516],[-75.783340377170973,45.369544353288092],[-75.783666916573367,45.369939785761765],[-75.785026996456253,45.371163582221826],[-75.785261235759847,45.37142661688469],[-75.7854838939828,45.371747587010269],[-75.785636216813941,45.372078926892179],[-75.78571658459083,45.372458681839241],[-75.785734659592677,45.372667057564435],[-75.785732610535504,45.372829860682181],[-75.785662965049852,45.373150254895044],[-75.785570270590625,45.373401017723225],[-75.785424858498942,45.37366034466546],[-75.785241872573891,45.373919059566155],[-75.784987439142711,45.374173904989419],[-75.784714133904046,45.374390696263944],[-75.784324969349925,45.374629627310348],[-75.784067346899462,45.374753321977977],[-75.783625373084732,45.374941501827415],[-75.782886495288821,45.375188315288881],[-75.782326808035904,45.375383711407494],[-75.781862500306573,45.375571205125432],[-75.781465660546644,45.375764220955624],[-75.780996499219839,45.376048586121904],[-75.780858301498228,45.376153436033555],[-75.780700692081624,45.37626436878147],[-75.780490157521754,45.376442853694975],[-75.780187050673518,45.376736350014816],[-75.779829955975032,45.377179965330853],[-75.779508476782624,45.377689852169034],[-75.779143873964998,45.378313218049364],[-75.77901077687757,45.378517964175806],[-75.778757641511959,45.378836504491737],[-75.778545645393109,45.379087408686573],[-75.778011624804492,45.379602345745234],[-75.777827488137532,45.379787517980269],[-75.777651330306952,45.380008336719818],[-75.777498354400592,45.380248714202978],[-75.777401993916698,45.380427465430309],[-75.777287765941793,45.380752805675613],[-75.777127390612435,45.381390037263792],[-75.777017756621902,45.381714373793258],[-75.776828467218508,45.382061789433244],[-75.776635441721822,45.38229358795963],[-75.776329654300795,45.382588893758978],[-75.776024967315976,45.382797962162208],[-75.775692149588053,45.382966493486862],[-75.775257809656608,45.383132542810067],[-75.774861918517644,45.383225700219022],[-75.774530166191639,45.383284664877827],[-75.774385024492872,45.383302687715897],[-75.774280393220138,45.383309025519843],[-75.774073101578438,45.383307708114742],[-75.773801600156858,45.383279265281139],[-75.773112015615538,45.383240143111706],[-75.772475856579092,45.3832083038821],[-75.772107156545459,45.383186106067583],[-75.771897997306283,45.38317676685601],[-75.771699635816802,45.383186525013393],[-75.771472118606482,45.383216196969023],[-75.771174675636132,45.383279498729436],[-75.771023614039635,45.38331714699337],[-75.77073914723357,45.383412893475828],[-75.770518040401114,45.383506712277764],[-75.770138904638827,45.383686641889831],[-75.769774151802551,45.383904634588035],[-75.769589420450885,45.384032471863193],[-75.769354402307926,45.384237397915172],[-75.769104444283499,45.384509414856645],[-75.768870803257883,45.384824810330578],[-75.768681688127629,45.385073697394418],[-75.768535664283249,45.385257357692922],[-75.768342731313055,45.38547446105062],[-75.768218662294217,45.38559375280996],[-75.768015332222916,45.385743301697133],[-75.767762619963818,45.385899481707263],[-75.767408073785788,45.386088751268503],[-75.766924958029378,45.386340490777691],[-75.766481991576242,45.38658300155614],[-75.766304452136765,45.386697978752274],[-75.766172066515026,45.386806297805151],[-75.765971055893772,45.386993571317127],[-75.7658036611288,45.387194954238694],[-75.765674458238109,45.387383681308421],[-75.765470377175234,45.387698960434314],[-75.765296536099768,45.387962826665593],[-75.765105652186733,45.388237500007136],[-75.764906843336249,45.388471430833505],[-75.764695847042319,45.388667570282664],[-75.764499331590756,45.388833035699626],[-75.764283021761941,45.389004328679434],[-75.763958681435327,45.389251344462373],[-75.763721074347743,45.389435399993346],[-75.763511748920237,45.389610707271288],[-75.763244889093727,45.38987793972106],[-75.762943765725652,45.390227886688351],[-75.762711433545419,45.390499739799637],[-75.762495860335108,45.390721649090068],[-75.762327474728352,45.390889277378641],[-75.762097783595038,45.391082320405559],[-75.761883962099546,45.391255292206544],[-75.7616476755354,45.391446491900503],[-75.761477097141054,45.391600369957835],[-75.761288837206962,45.391796689695617],[-75.761148283204335,45.391972257127719],[-75.761038034766159,45.392133842651035],[-75.761000445661395,45.392180656832203],[-75.760947377686009,45.392261005241458],[-75.76086291359141,45.392486584144663],[-75.760820980233945,45.39267785537357],[-75.760743352318656,45.393121968871824],[-75.760676721579102,45.39347881971765],[-75.760581480396056,45.393869227486661],[-75.760476338880238,45.39423390081906],[-75.760401309791092,45.394507197524064],[-75.760397758750784,45.394713776183742],[-75.760414259904238,45.394918155079274],[-75.760463473208745,45.395248958625864],[-75.760463714855575,45.39544645728143],[-75.760508889334574,45.395670457185759],[-75.760545829855687,45.395820745205725],[-75.760603543917753,45.396026912198224],[-75.760718475273507,45.396356089371508]],[[-75.77733372644667,45.379994691188855],[-75.777097227880148,45.380186000273554],[-75.776980059719321,45.38030333518234],[-75.776908571789008,45.380345738556976],[-75.776843510406252,45.380361040941054],[-75.776790774807495,45.380363564206085],[-75.776740211335081,45.380354672519871],[-75.776659806727281,45.380327672500975],[-75.776677110076264,45.380405561819579],[-75.7767402355896,45.38051181135171],[-75.776781360463318,45.380624926280952],[-75.776780158517468,45.380719202114939],[-75.776714465619065,45.380943066051017],[-75.776626735250076,45.381305358872851],[-75.776633475309666,45.381427547343336]],[[-75.77733372644667,45.379994691188855],[-75.777079570594907,45.380336820998004],[-75.77691464529866,45.38068075899114],[-75.776846934784103,45.380818808848382],[-75.776633475309666,45.381427547343336]],[[-75.776633475309666,45.381427547343336],[-75.776540292166928,45.381611092664336],[-75.776477726304023,45.381734331020375],[-75.776321638633519,45.381958317759249],[-75.776112517123579,45.38217003029812],[-75.775930851721995,45.382310327756741],[-75.775672548348552,45.382467002452245],[-75.775402920812652,45.382598513839959],[-75.775140146524066,45.382679395772136],[-75.774706442599836,45.382784819538259],[-75.774192931447445,45.382849731956568],[-75.773857275941538,45.382892094302761],[-75.772970866928205,45.382995150999051],[-75.772051559812525,45.383103494813568],[-75.771767013954701,45.383133600270668],[-75.771425636180425,45.383186047389934],[-75.771088974561394,45.383267843346829],[-75.770812482998409,45.383345373395294],[-75.770627766918111,45.383410886455785],[-75.770403945376856,45.383503461680398],[-75.770161844916231,45.383615610337088],[-75.769950312328064,45.383733670014621],[-75.769750381481799,45.383860695032169],[-75.769600751799857,45.383969144446702],[-75.76941983379659,45.384121541242486],[-75.769252854053263,45.38427926520319],[-75.769098312383363,45.384451042024203],[-75.768928743695383,45.38466972453152],[-75.768799434803512,45.384841662313626],[-75.768634252589052,45.38505657986255],[-75.768484033612296,45.385251825160658],[-75.768339565649995,45.385414179427052],[-75.768206329323689,45.38554099498996],[-75.768109775702001,45.3856191370635],[-75.767977824864857,45.385716107406388],[-75.767763395209911,45.385848117228015],[-75.767539199071209,45.385968632167049],[-75.767195191928081,45.386153164629334],[-75.766835906238626,45.386343482540006],[-75.766469937981768,45.386543583885832],[-75.766270635956204,45.386671330652391],[-75.766061533310889,45.386836020856641],[-75.765885186834097,45.387011756375813],[-75.765701768819383,45.387248476424219],[-75.765527148904567,45.387513142208682],[-75.765332068960817,45.387820579271654],[-75.765116071745709,45.388144489652092],[-75.76498776447535,45.388304902577914],[-75.764843276750128,45.388464034354804],[-75.764702227775786,45.388605012056644],[-75.764452921928239,45.388814674580573],[-75.764133247451241,45.389060943603162],[-75.763776391704624,45.389336233650162],[-75.763551154418494,45.389504768194534],[-75.763352993253335,45.389688086675115],[-75.763170245381829,45.389877457738073],[-75.762861980407251,45.390252906114306],[-75.762716688689807,45.390416169598765],[-75.762633412168043,45.390513506443796],[-75.762612153536821,45.390539861274803],[-75.762513365805034,45.390644773265187],[-75.762329135713301,45.390826526676669],[-75.76213304965647,45.391001200677174],[-75.761840597725822,45.391238134279476],[-75.761707638978947,45.391341441980089],[-75.761425476351562,45.391588069670846],[-75.761175132949859,45.391875470999693],[-75.761050436008659,45.392040202817171],[-75.760939189542185,45.392219946295654],[-75.76088445788686,45.392308378242127],[-75.760812080624419,45.392496179200364],[-75.760727746785562,45.392914446343362],[-75.760648438122374,45.393379391735699],[-75.760562036361733,45.393740083309488],[-75.760412512681,45.394277769229873],[-75.760316511523214,45.394636659140453],[-75.760286862627254,45.394857782596972],[-75.760276823953959,45.394968285650755],[-75.760279616816163,45.395238882731086],[-75.760303942295749,45.395492067665607],[-75.760335365364398,45.395674881638861],[-75.760386171381924,45.395883624723155],[-75.760431886646714,45.396050652320042],[-75.760500808988596,45.396249143570962],[-75.760567041774493,45.396385492003574]],[[-75.760718475273507,45.396356089371508],[-75.760746460489557,45.396434298497091],[-75.760937966935074,45.396778414209727],[-75.761099572956383,45.397024594915329],[-75.76131733086946,45.397285900777625],[-75.761459357210825,45.397534931039374],[-75.76155818626512,45.397849549254708],[-75.761579590423395,45.397974335461186],[-75.761591751815715,45.398185530074088],[-75.761548196100847,45.398487635203956],[-75.761443115670488,45.398781587929641],[-75.761258798442171,45.399075029467888],[-75.760977597910482,45.399370943960918],[-75.760776563933035,45.399528813337149],[-75.760446020739408,45.399730169887739],[-75.760155541509135,45.39986370683971],[-75.759847502910006,45.399976122015218],[-75.759706547360452,45.400020221239821],[-75.759383077501383,45.400108672518023],[-75.758906399072274,45.400217812339818],[-75.758275309228978,45.400348782875326],[-75.75700288784985,45.400611574545302],[-75.756156959618139,45.40078274919906],[-75.755514258151493,45.40091205515143],[-75.754938094897938,45.40109914757749],[-75.754533849426821,45.401254617832954],[-75.754121164283603,45.401486181233146],[-75.753785421641126,45.401712311788664],[-75.753636877124052,45.401816931822928]],[[-75.760567041774493,45.396385492003574],[-75.760718475273507,45.396356089371508]],[[-75.760567041774493,45.396385492003574],[-75.760620478957478,45.396495496896755],[-75.760820572398814,45.396875248081372],[-75.76088469683873,45.397002087132201],[-75.761020315497191,45.397269216508775],[-75.761116766710927,45.397542764093863],[-75.761158930037098,45.397874513582771],[-75.761149546235643,45.398054086488003],[-75.761111163020175,45.398296987919906],[-75.761028958188518,45.398558127682357],[-75.760881109865807,45.398842224926966],[-75.760706109065296,45.399080220664793],[-75.760534267639656,45.399262625649044],[-75.760286211348671,45.399472222776012],[-75.760121960687187,45.399586517762792],[-75.759804512235448,45.399767153099589],[-75.759516329099057,45.399895132373359],[-75.759280883358031,45.399978978074166],[-75.75891703243029,45.400077652047123],[-75.758657241446741,45.400131702588972],[-75.758352120575665,45.400187582262035],[-75.757755829669847,45.400292741889281],[-75.757316403477262,45.400370504040772],[-75.756874964160133,45.400448619935872],[-75.756591786436474,45.400498729832385],[-75.756046344667311,45.400589414471789],[-75.755752512026092,45.40065101646497],[-75.755332800260732,45.400750502296482],[-75.754966310981004,45.400866184229045],[-75.754731060174407,45.400953840706698],[-75.754366435797209,45.401119144635729],[-75.753941254190082,45.401364083425761],[-75.753655439012761,45.401570495733608],[-75.753436454899315,45.401768971379219]],[[-75.753436454899315,45.401768971379219],[-75.753098376637098,45.402010884251943],[-75.752956454500307,45.402117949078139],[-75.752814888096367,45.402198010252413],[-75.75263524031088,45.40225982493979],[-75.75243040196824,45.402294479105095],[-75.752213266587646,45.402293057441433],[-75.751855986836219,45.402263722217789],[-75.751040199777265,45.402132395343116],[-75.751841002937283,45.402423566519474],[-75.751991377322582,45.402507860068496],[-75.752095053686162,45.40257601132199],[-75.752157664464818,45.402634640432559],[-75.752232638756752,45.402761111457401],[-75.752256404585921,45.402896245803852],[-75.752242563344026,45.402977142842722],[-75.75218293856534,45.403130834346136],[-75.751926788453659,45.403483522964834]],[[-75.753436454899315,45.401768971379219],[-75.753161410522253,45.402074296156677],[-75.752717866452414,45.402550165423534],[-75.751926788453659,45.403483522964834]],[[-75.753636877124052,45.401816931822928],[-75.753321854123598,45.402095715169111],[-75.75288048487505,45.402586044280554],[-75.752516638438891,45.403006088540906],[-75.752197368203753,45.403402922457282],[-75.752089639539932,45.403569040411611]],[[-75.754233011723016,45.403152138797751],[-75.75391014463348,45.402833000701868],[-75.753659494007962,45.40260158158145],[-75.753568439872453,45.40251046749313],[-75.753513457587175,45.402432354448734],[-75.753475146236937,45.402339262753031],[-75.753451828667096,45.402233504587819],[-75.75345645319419,45.402132570686348],[-75.75348232287773,45.402044540751909],[-75.753546367367591,45.401941824061012],[-75.753636877124052,45.401816931822928]],[[-75.751926788453659,45.403483522964834],[-75.751223501010983,45.40430045943463],[-75.75073602393384,45.404855202453348],[-75.750413864716762,45.405165303219597],[-75.749769600181523,45.405626507460276],[-75.749335509083409,45.40586649093445],[-75.74880703020176,45.406105853424158],[-75.748308186741312,45.406276019364327],[-75.747807808060074,45.406407154339348],[-75.747405661053463,45.406490854779356],[-75.74613878317794,45.406653473467593],[-75.744870188621917,45.406805503221634],[-75.743916426623514,45.406927838386729],[-75.743284610941487,45.407057543367422],[-75.742912729973412,45.407163062305671],[-75.742566024291207,45.407295742263273],[-75.742103399106398,45.407499641117816],[-75.741462507745041,45.407898245283903],[-75.740251410757097,45.40899597927897]],[[-75.752089639539932,45.403569040411611],[-75.751597802040408,45.40440371424409],[-75.751386843475714,45.404673009149903],[-75.750868158027288,45.405259349547372],[-75.750380344081947,45.405664541959517],[-75.749942355193809,45.405940630308038],[-75.749563877896605,45.406131056918568],[-75.749268725630245,45.406260659665755],[-75.748837262104317,45.406428290424458],[-75.748376164055514,45.406565554009376],[-75.746435658413048,45.406976288270968],[-75.745924083130106,45.407086274437233],[-75.74505764546214,45.407258246827098],[-75.744342696988767,45.4074307812527],[-75.743775462989149,45.407609708252117],[-75.742979395747284,45.407910396967466],[-75.742300605362402,45.408220918642456],[-75.741713382949399,45.408552363260426],[-75.74113861567777,45.408951023693945],[-75.740880481187631,45.409147277477757],[-75.740271833955092,45.40963785061922]],[[-75.75466765708164,45.403732974348628],[-75.754508716361798,45.403541336249553],[-75.75428135096675,45.403292664217865],[-75.75401053136649,45.403091288827333],[-75.753788092332456,45.402969142769614],[-75.75350837941086,45.40288643806835],[-75.753315349422607,45.402839557069058],[-75.753152302503594,45.40283617071654],[-75.752964148570697,45.402862792273254],[-75.752747135361005,45.402954213585616],[-75.752552553982255,45.403093361374204],[-75.752089639539932,45.403569040411611]],[[-75.739382628486268,45.408829042924715],[-75.7395414344588,45.409085330321481]],[[-75.740251410757097,45.40899597927897],[-75.740062900193038,45.409117372549709],[-75.739992190203765,45.40914737649021],[-75.739929746511734,45.409166008490352],[-75.739851153805844,45.409178818932858],[-75.739764655925441,45.409176337946498],[-75.739708053977708,45.409162628192938],[-75.739656935346474,45.409143241300356],[-75.739600562469121,45.409112390390561],[-75.7395414344588,45.409085330321481]],[[-75.740251410757097,45.40899597927897],[-75.739824243873187,45.409385866132183]],[[-75.7395414344588,45.409085330321481],[-75.739593775697159,45.409215199362833],[-75.739617650222471,45.409249642407886],[-75.739663027720738,45.40929375331347],[-75.739775722271432,45.409359262784989],[-75.739824243873187,45.409385866132183]],[[-75.739824243873187,45.409385866132183],[-75.740271833955092,45.40963785061922]],[[-75.739824243873187,45.409385866132183],[-75.739532719902229,45.409654990977295],[-75.738987309574114,45.410147353253635],[-75.738339589219976,45.410578811944752],[-75.737933029688676,45.410774401059641],[-75.73735177029252,45.410972025809038]],[[-75.740271833955092,45.40963785061922],[-75.739071913805901,45.410638016718877],[-75.738633831492962,45.410914063732022],[-75.73818381775645,45.411127028714503],[-75.737631709589564,45.411330312750103],[-75.73691390267696,45.411505490935795],[-75.736376393930058,45.411573887368661],[-75.736076295539718,45.411597929333936],[-75.73580845115967,45.411602437043634]],[[-75.733232343436256,45.410715944992475],[-75.732379861994559,45.410458258671696],[-75.731794299668195,45.410301345614798],[-75.731143779265295,45.410224980127346],[-75.73044094187857,45.410238243760219],[-75.730005877905,45.410289303546378],[-75.728813692250412,45.410587212025142],[-75.727735592636904,45.410948869616064]],[[-75.732745083751425,45.410847651735068],[-75.732108915731828,45.410654406316795],[-75.731841504339727,45.410589617903774],[-75.731331490328756,45.410514198131629],[-75.731012371908903,45.410494053045895],[-75.730373770353211,45.410480752896099],[-75.72993882675388,45.410522814530232],[-75.7295931810837,45.410574475055945],[-75.728901154023106,45.410731779609037],[-75.727735592636904,45.410948869616064]],[[-75.727735592636904,45.410948869616064],[-75.727313172450977,45.411009002923066],[-75.726916504269283,45.411037332162508],[-75.726476209405803,45.411047044518824],[-75.725471204808656,45.411060554535489],[-75.725103455192595,45.411068503012224],[-75.724761605802797,45.411090460326633],[-75.724334168525985,45.411134241236127],[-75.723806365177438,45.411204906493687],[-75.722893640017844,45.411377665980226],[-75.7220796576743,45.411604286667568],[-75.721810203513243,45.411691538650096],[-75.721359408242407,45.411878408713434],[-75.721077457617454,45.412019491966582],[-75.720638878536178,45.412296536170793],[-75.720541586499323,45.412375732848623],[-75.720426790789162,45.412479000013974],[-75.720328842982155,45.412572304544234],[-75.72029014715298,45.412599036284561],[-75.719731998714138,45.413282518254817],[-75.719541872080882,45.413595554248566],[-75.719353247430774,45.413828792386134],[-75.719194043504544,45.413986276424261],[-75.719043284640307,45.414108557570636],[-75.718846105333753,45.414239589861914],[-75.718535125650405,45.414398749504166],[-75.71836610403642,45.414463614894117]],[[-75.73735177029252,45.410972025809038],[-75.736741117121937,45.411054407140938],[-75.736536601274466,45.411062039041617],[-75.736332328870446,45.411051674614995],[-75.735797128793848,45.410949110517699],[-75.735416319470147,45.410766580560335],[-75.735188442035422,45.410612078652122],[-75.734945250121697,45.410357158471683],[-75.735447643724129,45.411207736759792]],[[-75.73735177029252,45.410972025809038],[-75.736976099332281,45.411070580311524],[-75.736566713701109,45.411144450512488],[-75.736178227375021,45.411191002367886],[-75.735786008548942,45.411210057477007],[-75.735447643724129,45.411207736759792]],[[-75.735336207713118,45.411202047849095],[-75.735080821169433,45.410766116413249],[-75.734960391225812,45.410579426184917],[-75.734845406869454,45.410385482362322],[-75.734862846762368,45.41046772013371],[-75.734867329355637,45.410527473678663],[-75.734856412129986,45.410600856477338],[-75.734804098739431,45.410690491920221],[-75.734726357636404,45.41077095842568],[-75.734623188820976,45.410842255402152],[-75.734507488507333,45.410895471407777],[-75.734225960988852,45.410929578562161],[-75.734033894892917,45.41091223678827],[-75.733861041964246,45.410873310322998],[-75.733599375298411,45.410793492255472],[-75.733232343436256,45.410715944992475]],[[-75.735336207713118,45.411202047849095],[-75.734955361558534,45.411174144998142],[-75.734519223199882,45.411105937270484],[-75.733956964968613,45.41098177664513],[-75.733635670829145,45.410880545579786],[-75.733232343436256,45.410715944992475]],[[-75.735447643724129,45.411207736759792],[-75.735410369928019,45.411207481354765],[-75.735336207713118,45.411202047849095]],[[-75.735447643724129,45.411207736759792],[-75.73552687513218,45.411341879102942],[-75.735678408344199,45.411593523154551]],[[-75.735560829653295,45.411585463761611],[-75.735336207713118,45.411202047849095]],[[-75.735560829653295,45.411585463761611],[-75.735430941348042,45.411576560590525],[-75.73505511408095,45.411537616294922],[-75.734640109487671,45.411481278661959],[-75.733850996104437,45.411260021612492],[-75.732745083751425,45.410847651735068]],[[-75.735678408344199,45.411593523154551],[-75.735560829653295,45.411585463761611]],[[-75.735678408344199,45.411593523154551],[-75.735688933904385,45.411611002826191]],[[-75.73580845115967,45.411602437043634],[-75.735678408344199,45.411593523154551]],[[-75.73580845115967,45.411602437043634],[-75.735688933904385,45.411611002826191]],[[-75.735688933904385,45.411611002826191],[-75.735580350942726,45.411618785371083]],[[-75.735688933904385,45.411611002826191],[-75.735816306028511,45.411822523577023],[-75.735883931203105,45.411948426022377],[-75.735913221671268,45.412139976322877],[-75.735891009029231,45.412232549896046],[-75.735856403229533,45.412310865060547],[-75.735715447679993,45.41247840282108],[-75.73559936558236,45.412553007108045],[-75.735494079437785,45.412603881923502],[-75.735393872367851,45.412635517932188],[-75.7352475448929,45.412657375000414],[-75.735015560360665,45.412661888301081],[-75.734865046736488,45.412630500138391],[-75.734669910198903,45.41255624909796],[-75.73451924655609,45.412442516373346],[-75.73440618549273,45.412290572420488],[-75.734312594514876,45.412081996525899],[-75.734139098392475,45.41168488745533],[-75.734000765025243,45.411521985596607],[-75.733823987357113,45.411367823771421],[-75.733608643217181,45.411231399872676],[-75.732745083751425,45.410847651735068]],[[-75.735580350942726,45.411618785371083],[-75.735560829653295,45.411585463761611]],[[-75.735580350942726,45.411618785371083],[-75.735417438771009,45.411630462024206],[-75.735379113946038,45.41163020535987],[-75.735069789857747,45.411629753832358],[-75.73482795799336,45.411680495787095],[-75.734713247623162,45.411742727661505],[-75.734600506360053,45.411815893838849],[-75.734532211940575,45.411903496750895],[-75.734492793865911,45.411984220082765],[-75.734478924776241,45.412065114197276],[-75.734473957092732,45.412099977389033],[-75.734473104591501,45.41213759384317],[-75.734476913448319,45.412175107481424],[-75.734485354917041,45.412212258489113],[-75.734498356234155,45.412248734080407],[-75.734515824873171,45.412284288315774],[-75.734537629680048,45.412318629221069],[-75.734563592788405,45.412351493831352],[-75.734595392251137,45.412386505671805],[-75.734632342653725,45.412420390579499],[-75.734673350746448,45.412451871559497],[-75.734718100322326,45.412480715918669],[-75.734766245529983,45.412506700423393],[-75.734817426144971,45.412529630848063],[-75.7348712531968,45.41254933756116],[-75.734923726487494,45.412563305044642],[-75.734980632065785,45.412574681330028],[-75.735038747674778,45.412582514191264],[-75.735097599902304,45.412586748766429],[-75.735156757557036,45.412587361723503],[-75.735215759803197,45.412584337297282],[-75.735274162873083,45.412577700081229],[-75.735331522998933,45.412567512504772],[-75.735387411684329,45.412553828798949],[-75.735415022302902,45.412545214602083],[-75.735466663753641,45.412526130935106],[-75.735515743209177,45.412503955985997],[-75.735561896851848,45.412478851819309],[-75.735604767152154,45.412451008877042],[-75.735644027123328,45.412420632736065],[-75.735679385711236,45.412387968702127],[-75.735704133398983,45.412360482644168],[-75.73573612959278,45.412318420486784],[-75.735762798776932,45.412274550316873],[-75.735783928050736,45.412229213294808],[-75.735785551306449,45.412225372829347],[-75.735799448243895,45.412185701877739],[-75.735808389175929,45.41214533028031],[-75.735812295949088,45.412104566408573],[-75.735811135325747,45.412063714851215],[-75.735804938746909,45.412023089026512],[-75.735793725077215,45.411982997939191],[-75.735580350942726,45.411618785371083]]]},"properties":{"OBJECTID":3,"FULL_ROADN":"Kichi Zibi Mikan Pky","Shape_Length":29443.319519638633}},{"type":"Feature","id":4,"geometry":{"type":"MultiLineString","coordinates":[[[-75.688960250877443,45.446080382984661],[-75.688991995542949,45.446151572981478],[-75.688997844473761,45.446215421868665],[-75.688988854134394,45.446276307934831],[-75.688951458167438,45.44643127505455],[-75.688971086356403,45.446486224698361]],[[-75.688971086356403,45.446486224698361],[-75.689020398475606,45.446443003750417],[-75.689037636247591,45.446406113495918],[-75.689055254006945,45.446356834647858],[-75.689076219787353,45.446309962004086],[-75.689104077442636,45.446254209265035],[-75.689119714416776,45.446225154643884],[-75.689142148942679,45.446193767493511],[-75.689170434196043,45.446167183378989],[-75.689185851082939,45.4461536036128],[-75.689222002883255,45.446134689495658]],[[-75.688971086356403,45.446486224698361],[-75.688957166961046,45.446536914529766],[-75.68891614629193,45.446785682898671],[-75.688886549498264,45.447107792454808],[-75.688907853045222,45.447364337184268],[-75.688963734544103,45.447821842742947],[-75.688921520013949,45.448152651570943],[-75.688860969970548,45.448311919797042],[-75.688781738562483,45.448455136033751],[-75.688677540277737,45.44858937390503],[-75.688547563039279,45.44868475202378],[-75.688285616099066,45.448807420589894],[-75.687918697424635,45.448907928238178],[-75.687508736871678,45.44896800284134],[-75.686817405107135,45.449006490887101],[-75.686567537812522,45.44901350194511],[-75.68639653451504,45.449035725575335],[-75.686204173771671,45.449095887641121],[-75.686048221746788,45.449182567437433],[-75.685931620422906,45.449289725594269],[-75.685840326437201,45.449415054191697],[-75.685799892367953,45.449563296633933],[-75.685812259474474,45.449715757872895],[-75.685868302670102,45.449871452244949],[-75.685946443523406,45.450036709412188],[-75.685999059646221,45.45011810861871],[-75.686044142497067,45.450224197449714],[-75.686285783020296,45.450444070411436],[-75.68650018303083,45.450658313037565],[-75.686618833411885,45.450802740208523],[-75.686702118018502,45.450945436519383],[-75.686774636316457,45.451122451662513],[-75.686879598169199,45.451342275119309],[-75.6869866557915,45.451492900247288],[-75.687250716467574,45.451800737789831],[-75.687416050497291,45.451962898298639],[-75.687780179902774,45.452262898989076],[-75.688158049938821,45.452621600701214],[-75.688360072961373,45.452897457569428],[-75.688453819347799,45.45304418729139],[-75.688521618795548,45.453222559514529],[-75.688545250775732,45.453357704811211],[-75.688477266275029,45.45358643248764],[-75.688323202508869,45.453733310393879],[-75.688150945163244,45.453841966601765],[-75.687929120576882,45.453923906028585],[-75.687640843117364,45.453993637407237],[-75.687451345304808,45.454066023525776],[-75.6873476725345,45.454114624528565],[-75.687183724605262,45.454224804962841],[-75.686643591879445,45.454727872877363],[-75.686167624017727,45.45510450843426],[-75.685509271203856,45.455540753490354],[-75.685235168261229,45.455786895458075],[-75.684999072139917,45.455990323041618],[-75.684723961287531,45.456156849000585],[-75.684432562182408,45.456298348388131],[-75.684093537994187,45.456421923527905],[-75.683615017120431,45.456562066225452],[-75.683276054017654,45.456665152376594],[-75.682933349431693,45.456814820628416],[-75.68247177258084,45.457002232573501],[-75.682298174050501,45.457058130957925],[-75.682126912038214,45.457096461624708],[-75.681955922215451,45.45711574383504],[-75.681561390227515,45.457105277592454],[-75.681302268488864,45.457113994630483],[-75.680968712345773,45.457146761330506],[-75.680614909972803,45.457125487331666],[-75.680347600988654,45.457042582805578],[-75.680233189757445,45.456996768818655],[-75.680097871136311,45.456928002714996],[-75.67977619700946,45.456768518112909],[-75.679573206501345,45.456659078000875],[-75.679294209537034,45.456555670475829],[-75.67892353500639,45.45649243632198],[-75.678604178533007,45.456472143179511],[-75.678223878554107,45.456463530012769],[-75.677715185066603,45.456472405311111],[-75.677172412192135,45.456511669589183],[-75.676647345111945,45.456539247573801],[-75.676273804057246,45.456563912486033],[-75.674939430364546,45.456704462519305],[-75.674303654010401,45.456743043584567],[-75.674046297461288,45.456750928288798],[-75.674018570960044,45.456752123628256],[-75.673817946614378,45.456761559688793],[-75.672619058629465,45.456737464492427],[-75.671925804470192,45.456747857709225],[-75.671118784070089,45.456849986368653],[-75.670772408967863,45.456928458921126],[-75.670310441349883,45.45704208501261],[-75.669005608755285,45.457493465510694],[-75.668139831349066,45.457709952275415],[-75.667566075580481,45.457817465364776],[-75.667029333994833,45.457898294435616],[-75.666552286358154,45.457947922991657],[-75.665723655187264,45.458034122904685],[-75.665387673592903,45.45808752756674],[-75.665020046147703,45.45815409759971],[-75.664679839776568,45.458224853338393]],[[-75.639864693028102,45.457158757488003],[-75.63854873030715,45.457931720402676],[-75.637904549315209,45.458250806706602],[-75.637273694830526,45.458533996250125],[-75.636091289134427,45.458929991941964],[-75.635778765247096,45.458994268061346],[-75.634847142228864,45.459181532251911],[-75.634257773740629,45.45925805268223],[-75.633364147662292,45.459311033393128],[-75.632691030138432,45.459318203843715],[-75.632087003839715,45.459296184004501],[-75.631495899806339,45.459255082423965],[-75.631013283513212,45.459218454476719],[-75.630729604529634,45.459195251912803],[-75.630180637771318,45.459177199096608],[-75.629704348312714,45.459190235106909],[-75.629269994906537,45.459231656191996],[-75.628764030500861,45.459310243257313],[-75.628297427575987,45.459422458185912],[-75.627944306126011,45.459530274233693],[-75.627473711088001,45.459719336174842],[-75.627126010072445,45.459878652389172],[-75.626384077106238,45.460246327804249],[-75.625434370103051,45.460730223592634],[-75.624820041924636,45.461044775176532],[-75.624647968733655,45.461130287987217],[-75.623962082556346,45.461477615383941],[-75.623491686944334,45.461713522486242],[-75.623035404763755,45.461920445701715],[-75.622584085775117,45.462089763591209],[-75.62200811476103,45.462259876737235],[-75.621438889196412,45.462396709722739],[-75.620906744290096,45.462493531893706],[-75.620420703619089,45.462550255878412],[-75.619957165745959,45.462588299286629],[-75.619016681745777,45.462588551938978],[-75.617838896085203,45.462585600127824],[-75.616875026243207,45.462612358589809],[-75.615983092590881,45.462661591732605],[-75.614836129924328,45.462759712619629],[-75.61358476505545,45.462918407202267],[-75.612560421526851,45.463084903250227],[-75.610824652717426,45.463398810390323],[-75.610339320817189,45.463463275469501],[-75.609665464878162,45.46354125368353],[-75.608948735943912,45.463580657319511],[-75.608258132713033,45.463584258654571],[-75.607431337698571,45.463538187254024],[-75.606777754040564,45.463494884236248],[-75.606380002490639,45.46347959491753],[-75.605778916377844,45.463483889309344],[-75.605177104426289,45.463533156973561],[-75.60461597807226,45.463612386358918],[-75.603838877859332,45.463791180674384],[-75.602880267653333,45.464028055287471],[-75.601854963825716,45.464254657411203],[-75.601076296950922,45.464389742246702],[-75.600110146286426,45.464528177279732],[-75.599342932931506,45.464598864536406],[-75.598125694161951,45.464674498089217],[-75.596924806527213,45.46468063586471],[-75.596065205936881,45.464652938375664],[-75.594963053033339,45.464594941949166],[-75.594164349236138,45.464578962412034],[-75.59337765950751,45.464591139698008],[-75.592686397811562,45.464637398617867],[-75.592242972319326,45.46469086884926],[-75.591598714970601,45.464764699758803],[-75.590960037956421,45.464873638385122],[-75.590055863860002,45.465060273811083],[-75.589094372756918,45.465322749840823],[-75.588144304630944,45.465649336305461],[-75.586655514134165,45.466221064080777],[-75.585806931380802,45.466502227794741],[-75.584556284265844,45.466872444937223],[-75.583558478767387,45.467150098165845],[-75.582381782763235,45.467432577729348],[-75.581695658532368,45.46763947554382],[-75.58119055650937,45.467827014678655],[-75.580601907571676,45.4680937120172],[-75.580012310911357,45.46841827842821],[-75.579620229527521,45.468684170995061],[-75.579144143986483,45.469039972383108],[-75.57903748252123,45.469129399118572],[-75.578283249822164,45.469781588644388],[-75.577981990808482,45.469998220368822],[-75.577653486790538,45.470198209327499],[-75.577224525072708,45.470386640174155],[-75.576749621714598,45.470546461716189],[-75.576066576908531,45.470684639093157],[-75.57569865751087,45.47072212516278],[-75.575237512749666,45.470731817170872],[-75.57480511497586,45.470720332282873],[-75.574188723367257,45.470685399461217],[-75.573807738872105,45.470652373523833],[-75.573125497159907,45.470568003426564],[-75.572735495375923,45.470509172709477],[-75.571703090365986,45.470293811077752],[-75.57109195300346,45.470126869511986],[-75.570699888687599,45.469982474193479],[-75.570203047571951,45.469741689771936],[-75.569735082801103,45.46942292490175],[-75.56943337103651,45.46910551962187],[-75.569272809755901,45.468879129142856],[-75.569134032620909,45.468644146608135],[-75.56891289165246,45.468093435449752],[-75.568801906595752,45.467675790580863],[-75.568747061752703,45.467291207083896],[-75.568734096368217,45.466970705916928],[-75.568758173912769,45.466616402232745],[-75.568910825527325,45.465888757837462],[-75.569215561919478,45.465243349602055],[-75.569381319055708,45.46495718662743],[-75.569713429809497,45.464518516336689],[-75.570129391108551,45.464107971979637],[-75.570622210466667,45.463689053246348],[-75.571074891301279,45.463377788248962],[-75.57217636238353,45.462747017033713],[-75.572650407850546,45.462436741065829],[-75.572909513419503,45.462231878780443],[-75.573247984245526,45.461865686882454],[-75.573431256733159,45.461606216556838],[-75.573549715773041,45.461400202007759],[-75.573664283311132,45.461141025043638],[-75.573764301734855,45.46079004365393],[-75.57381382316153,45.460495583875705],[-75.573824872439502,45.460214619553348],[-75.573790788561013,45.459953386212042],[-75.573430657556855,45.458519684133179],[-75.573421409401007,45.458303644700322],[-75.573507401529909,45.457737435787564],[-75.573587203368149,45.457549114513874],[-75.573771638275787,45.457217655068348],[-75.574084799068658,45.456833257313967],[-75.575149449105737,45.455843039538124],[-75.575383388372032,45.455610971853545],[-75.575775585638539,45.455083233034834],[-75.575895638289737,45.454778254724104],[-75.575923851677885,45.454616499931717],[-75.575827298056183,45.454264775942306],[-75.575254241176893,45.453342281040243]],[[-75.649228782753738,45.457705840175777],[-75.649086513867232,45.45753924884869],[-75.648736457468999,45.457214472983686],[-75.64827080316509,45.456789842025898],[-75.647438134066974,45.456045741010726],[-75.647218018974584,45.455886509116226],[-75.646842806155121,45.455664061853625],[-75.646570464808761,45.455538026898331],[-75.64623280426315,45.455404768412706],[-75.645779321232993,45.455279608138795],[-75.64557089322247,45.455230902906962],[-75.645005641804644,45.455112666217879],[-75.644644331312549,45.455070545802599],[-75.644417420465032,45.455056438232234],[-75.644075173121564,45.455056794261246],[-75.643735848896029,45.455078469809351],[-75.643408220735509,45.455124392478425],[-75.643071275248843,45.455193602508551],[-75.642743416221279,45.455285998361909],[-75.642437064658267,45.45539874431212],[-75.642014715439217,45.455601013219578],[-75.641643792075257,45.455841766043122],[-75.640490210621678,45.456647052121319],[-75.640077723107837,45.456940669995596],[-75.639864693028102,45.457158757488003]],[[-75.649228782753738,45.457705840175777],[-75.64854638922624,45.457169834303301],[-75.647724315756918,45.456569790903757],[-75.647153890941411,45.456241586607149],[-75.646823663954748,45.456095144351067],[-75.64627664564226,45.455911076643794],[-75.645907376076735,45.455809331924357],[-75.645575829464946,45.455742287154216],[-75.645222058533008,45.455686733408335],[-75.644777973677364,45.455638265458319],[-75.644411615551661,45.455626183279165],[-75.643852496932311,45.455638335403137],[-75.643302026394196,45.455688369233258],[-75.642930627821443,45.45575057654321],[-75.642582727379889,45.455829408540239],[-75.642313026182137,45.455908370233864],[-75.641952725396408,45.456013948480823],[-75.641485403819317,45.456206538951413],[-75.641003906827024,45.456458551401411],[-75.640285946302498,45.456881539611899],[-75.639864693028102,45.457158757488003]],[[-75.649228782753738,45.457705840175777],[-75.648202555457999,45.457077285267495],[-75.647872580897939,45.456912850871717],[-75.647325416160072,45.45673778585423],[-75.644840963545093,45.456152295068193],[-75.644399356242985,45.456036842330391],[-75.643962949288081,45.455972915712415],[-75.643577850508919,45.455948823329713],[-75.643126759692365,45.455960064216441],[-75.642762523387361,45.455999011266073],[-75.642357217005909,45.45607420896463],[-75.641826046771669,45.456227432700359],[-75.64139206257309,45.456412095472977],[-75.639864693028102,45.457158757488003]],[[-75.664679839776568,45.458224853338393],[-75.664427580268367,45.457989036867012],[-75.664274825347576,45.457942926868355],[-75.663484418390325,45.457784165981913],[-75.663128435806172,45.457646580791554],[-75.662798292362822,45.457491176311301],[-75.66250703698816,45.457300072258242],[-75.662254524155045,45.457082256262851],[-75.662040647862327,45.456846718566943],[-75.661903215505319,45.456629745814382],[-75.661875723464362,45.456578170908791],[-75.661626507448361,45.456110642354396],[-75.661493722974626,45.455789868419537]],[[-75.664679839776568,45.458224853338393],[-75.663806452741582,45.458488418502817],[-75.662267134705004,45.45894159138944],[-75.661537896730422,45.459095090246294],[-75.660720089360368,45.459212814510472],[-75.658494574329396,45.459473566113246],[-75.657423489659948,45.459602926073892],[-75.656065035727735,45.459758462723201],[-75.655698516803611,45.459796581105337],[-75.655209562896147,45.459820120518202],[-75.654850417343866,45.459826406892603],[-75.654251318304489,45.459797340990178],[-75.653817952146795,45.459759743690782],[-75.65358784150024,45.45972668551844],[-75.65303835371904,45.459629230397347],[-75.65272040939729,45.45955797612983],[-75.652271735947153,45.459428561878198],[-75.651743634357928,45.459251320768701],[-75.651317920049834,45.459080174640832],[-75.650861979229063,45.458844233206619],[-75.650617492843026,45.45870883326608],[-75.649848075022391,45.458187382271646],[-75.649228782753738,45.457705840175777]]]},"properties":{"OBJECTID":4,"FULL_ROADN":"Sir-George-Étienne-Cartier Pky","Shape_Length":21945.202429410881}},{"type":"Feature","id":5,"geometry":{"type":"MultiLineString","coordinates":[[[-75.696009548304218,45.394310204656307],[-75.695838390496505,45.394296994688034],[-75.695495631113332,45.394312732976118],[-75.695116898694593,45.394288463498206],[-75.694641014376217,45.394234711421703],[-75.693925983257813,45.394220668754265],[-75.693169493990766,45.394214707511246],[-75.69294792632256,45.394228186858584],[-75.692874789085394,45.394214004778426],[-75.692510533915765,45.394215569210559],[-75.691998130386139,45.394238159479208],[-75.691591940062438,45.394296681802032],[-75.691198894786282,45.39439461691785],[-75.690721012614688,45.394583742594563],[-75.690320441253093,45.394779975640702],[-75.689727057295528,45.395153027809009],[-75.689107670703763,45.395613927102353],[-75.688897190042795,45.395768840313501]],[[-75.696009548304218,45.394310204656307],[-75.695839547526589,45.394378145011729],[-75.693947025395047,45.394581797160221],[-75.693390350193255,45.394605858343198],[-75.692987628264859,45.394609991443126],[-75.692319768580361,45.394582125184179],[-75.69190762512126,45.394624480630753],[-75.691351862607803,45.39476067275686],[-75.690653693765626,45.394905553986405],[-75.690352541651464,45.394996117655545],[-75.690129204302153,45.395101245311295],[-75.689720066606,45.395387733029651],[-75.689293221318962,45.395762653406614],[-75.689163451591327,45.395905709684612]],[[-75.688897190042795,45.395768840313501],[-75.68871652356782,45.395851906159074],[-75.688439573864045,45.395978251067596],[-75.688189057985795,45.396083680310333],[-75.687692261785912,45.396198518329065],[-75.687050080443811,45.396325020161576],[-75.686321547646713,45.396442703834801],[-75.6859102854349,45.396530468732813]],[[-75.689163451591327,45.395905709684612],[-75.688897190042795,45.395768840313501]],[[-75.689163451591327,45.395905709684612],[-75.688968410275166,45.396147287475898],[-75.688774525989075,45.396307885851456],[-75.688633013484051,45.396378869284689],[-75.688311930448677,45.396502568727186],[-75.68790170489271,45.396607635547525],[-75.687655420977805,45.396627554715579],[-75.687594808950621,45.396632449034108],[-75.687390469172954,45.396630995057549],[-75.687186516569156,45.396602548204299],[-75.686906582662004,45.396528566890225],[-75.686733612054056,45.396494901427296],[-75.686545581190359,45.396479352354334],[-75.686332380430713,45.39648848309853],[-75.6859102854349,45.396530468732813]],[[-75.706823962666178,45.39617370717518],[-75.706616349427591,45.396406229390948],[-75.705667522773354,45.397391233593886],[-75.705512819406707,45.397512848606944],[-75.705382498113508,45.397588441541288],[-75.705194159127672,45.397670668296783],[-75.704988619200762,45.397732938314476],[-75.704691953273127,45.39778159604176],[-75.704437938456877,45.397784959989167],[-75.70418322834459,45.397759996252333],[-75.703933017893547,45.397718378645685],[-75.70332195958278,45.397589757982772],[-75.702871482315572,45.397476613289797],[-75.702513675253073,45.39737140363561],[-75.702162515723671,45.397251307249604],[-75.701817363228571,45.397098644335777],[-75.701182846312477,45.396773294080702],[-75.700853963205475,45.396546028515196],[-75.700224731976519,45.39600222460566],[-75.699744191690016,45.395539402632863],[-75.698924363110578,45.394804760912407],[-75.698649158833391,45.394586919380238],[-75.698454819999768,45.394443433962309],[-75.698284418573536,45.39435351158],[-75.698041996516011,45.39425592145092],[-75.697799166623355,45.394187300924933],[-75.697553067761362,45.394142111506348],[-75.69720959601419,45.394127971038735],[-75.696964636215981,45.394140735687472],[-75.696800299316223,45.394177927574141],[-75.696009548304218,45.394310204656307]],[[-75.6859102854349,45.396530468732813],[-75.685564816732835,45.396572998710383],[-75.685308616315481,45.396625163381273],[-75.68430422257272,45.396737800099771],[-75.683701541950299,45.396765126600329],[-75.683228605004345,45.396829887975727],[-75.682993877017225,45.396882208845305],[-75.682610168830152,45.397008304812012],[-75.682215361059406,45.397158003904039],[-75.681852424616622,45.397335404141195],[-75.681440315293514,45.397565501897056],[-75.681085663114288,45.397820641915303],[-75.680906377349885,45.398037249798058],[-75.680776661521179,45.398266528474174],[-75.680571978587068,45.398817732210155],[-75.680443325465347,45.399093078178829],[-75.680118698576166,45.399595692788786],[-75.67998645129498,45.399813583764832],[-75.679886089714799,45.40005822986808],[-75.67978841319902,45.400460128595725],[-75.679773714066016,45.400761312027939],[-75.679790496392158,45.400902589565831],[-75.679882484775561,45.401143880452096],[-75.679982156449611,45.401318910468937],[-75.680154865647808,45.401557937752862],[-75.680329981432664,45.401758691658102],[-75.680565576294029,45.402078144250424],[-75.680834415109103,45.402386994389019],[-75.681212113566957,45.402806604299357],[-75.681413205036563,45.403051911052586],[-75.681677224390128,45.403391123005576],[-75.681882622383227,45.403721783604183],[-75.681984983613219,45.403927945105188],[-75.682060747524275,45.404078234498996],[-75.682141082961834,45.404263629929204],[-75.682198726955292,45.404487884374092],[-75.682230158108766,45.40464244402979],[-75.682267495685224,45.404945315624097],[-75.682261516498698,45.405442895690683],[-75.68224009796738,45.40589800647124],[-75.68217243775851,45.406333542199313],[-75.682041137301638,45.407212565844951],[-75.68201540955188,45.407535513047428],[-75.682027224194499,45.407825198903694],[-75.682034244528452,45.40797166555457],[-75.682054738693338,45.408134317188996],[-75.682107380867308,45.408443606583603],[-75.682166877186887,45.408712370767638],[-75.682292136473464,45.409094943370249],[-75.682547909292751,45.409406080984652],[-75.682728641344767,45.409554996757599],[-75.683088312411485,45.409774373594551],[-75.683296215805896,45.409923814353633],[-75.683530871029461,45.41009248867524],[-75.683706188935247,45.41024444989317],[-75.683981589943485,45.410582415402814],[-75.684028169387602,45.410679286788188],[-75.684078589129555,45.410826063247171],[-75.684090850234867,45.41090269972478],[-75.6841002214599,45.411045547399688],[-75.684063441737223,45.41129997006032],[-75.683951689519247,45.411706845160701],[-75.683911656996912,45.412038922015334],[-75.683934484984931,45.412228055479659],[-75.68394000243741,45.41273202571633],[-75.683896221245405,45.413210923559085],[-75.683706220376294,45.413704485771603],[-75.683549708700966,45.414106029506016],[-75.683037076100945,45.415101214304244],[-75.682854067717983,45.415387859782768],[-75.682476456396742,45.41602587376579],[-75.682200099581038,45.416436022796468],[-75.681457210807395,45.417409393916749],[-75.68131873999792,45.417634238710676],[-75.681206358060919,45.417942202363335],[-75.681199684476681,45.418199017795281],[-75.681257624914181,45.418390329355468],[-75.681402095571443,45.418607979485223],[-75.681502615255098,45.418725681059151],[-75.681868835938545,45.41902526767884],[-75.682105101841444,45.419155683872901],[-75.682895277033325,45.419470414352595],[-75.683346687650129,45.419628174595729],[-75.684544613539387,45.42004604227413],[-75.685014952557523,45.420250400783232],[-75.685734574965338,45.420605846985637],[-75.68612667790876,45.42076527052847],[-75.686696713753761,45.420949465531983],[-75.687147691382563,45.421115026838457],[-75.687374681281838,45.421208528323696],[-75.687560626257437,45.421297569376868],[-75.688097716389407,45.421590809470686],[-75.688489468989857,45.42184503077916],[-75.688798203783335,45.422028913941219],[-75.689200742455412,45.42223883012408]],[[-75.691446649243318,45.421672131813914],[-75.690904493511482,45.422041497635462],[-75.690336107871644,45.422463102104388],[-75.690129439660751,45.422570474311996]],[[-75.69052793142248,45.422038159722256],[-75.690025397682859,45.422015791789448],[-75.689788006190938,45.422005785610764],[-75.68958123287716,45.422015259639856],[-75.689427421537573,45.422055401611857],[-75.689340318192677,45.422091433903326],[-75.689277741549972,45.422142451447542],[-75.689230684202144,45.422200248156642],[-75.689200742455412,45.42223883012408]],[[-75.690129439660751,45.422570474311996],[-75.689901910772335,45.422536456153452],[-75.689645095907323,45.422443983958772],[-75.689487878156186,45.422372984095333],[-75.689200742455412,45.42223883012408]],[[-75.69150043856591,45.423158282711022],[-75.690337602668279,45.422725887995227],[-75.690129439660751,45.422570474311996]]]},"properties":{"OBJECTID":5,"FULL_ROADN":"Queen Elizabeth Drwy","Shape_Length":9919.7479478089626}},{"type":"Feature","id":6,"geometry":{"type":"MultiLineString","coordinates":[[[-75.698201449275572,45.3700058741316],[-75.698837599328854,45.370474607028108],[-75.699199994087522,45.370762153567462],[-75.699571336964723,45.371154198742239],[-75.699816261728614,45.371499527940031],[-75.699983230692169,45.371801713239158],[-75.700231140557747,45.372364307669883],[-75.700436005849866,45.372741535202437],[-75.700656273655852,45.373074387580424],[-75.701168807441206,45.373729701934053],[-75.701437535763517,45.374152337826445],[-75.701586535726435,45.374537695729472],[-75.701668878898616,45.374985537921866],[-75.701667167608022,45.375249618096767],[-75.701662646387192,45.375428499344224],[-75.701638024463563,45.375602971670595],[-75.701622658780636,45.375692321253958],[-75.7015665455164,45.375871990512231],[-75.701431405660003,45.376256098636134],[-75.701348219868066,45.376583506744865],[-75.701289701813835,45.377019001513922],[-75.701293817894467,45.377442156120374],[-75.701327958366832,45.378308522170421],[-75.701348309699583,45.378822955219569],[-75.701426312212348,45.379635554974918],[-75.701429529977702,45.380163420162781],[-75.701358289982409,45.380604492909896],[-75.701239000899207,45.380998967853408],[-75.701066810028891,45.381438706538304],[-75.700830904350454,45.381868990696063],[-75.700570091982442,45.382254106095942],[-75.699902720981456,45.382991569126304],[-75.699613369136856,45.383371344802093],[-75.699411461996974,45.383692124731326],[-75.699238568644134,45.384096840247146],[-75.69916628390817,45.384366013004666],[-75.699103907589787,45.384789960590403],[-75.699106160564526,45.385058224675205],[-75.699144359625336,45.385348041555218],[-75.699220282538221,45.38567786137105],[-75.699420414607104,45.386339260508464],[-75.700061704820442,45.388423659052513],[-75.700304531119841,45.389316233052838],[-75.700338906950819,45.38959543073306],[-75.700320173483874,45.390018242023864],[-75.700277930207648,45.390296903157065],[-75.700184606927721,45.390575207111347],[-75.700000242987016,45.390969864825536],[-75.699922099438751,45.391077300697162],[-75.699908948103001,45.39110420473925],[-75.699895924328018,45.391122110899758],[-75.699687159449255,45.391435599638186],[-75.699285440939036,45.391846720208214],[-75.698124799625646,45.392639462647765],[-75.697425290497051,45.393110332550975]],[[-75.696941501004162,45.392836073376017],[-75.696892691043203,45.39282266624263],[-75.696797057296365,45.39280306809021],[-75.696641015439937,45.392797684542721],[-75.696207213599351,45.39279177487807],[-75.696152313959061,45.392802817017795],[-75.696080914063643,45.392833742441404],[-75.696035359597289,45.39290056294886],[-75.696032117577417,45.393407640869761]],[[-75.696941501004162,45.392836073376017],[-75.69699273551808,45.39287301315666],[-75.697032715039782,45.392913293178935],[-75.69709793272942,45.393001192248363],[-75.697109556929192,45.393082261162938],[-75.697081849292573,45.393235052892614],[-75.696788948204286,45.393518705672022]],[[-75.697425290497051,45.393110332550975],[-75.697406251602914,45.393015751870877],[-75.697205394593581,45.392871378664779],[-75.69711614337686,45.392823642144286],[-75.697019949979591,45.392777480148723],[-75.696925793063087,45.392750821036628],[-75.696833737306051,45.392738808661164],[-75.696820679395074,45.392738282544066],[-75.696565399750895,45.392727488941098],[-75.696070370537171,45.392719385852061],[-75.696023985129159,45.392701916736328],[-75.69584752636294,45.392441514487345],[-75.695615443914335,45.392248364443894]],[[-75.697425290497051,45.393110332550975],[-75.697174262579111,45.392940001419454],[-75.697035390222709,45.392867598704989],[-75.696941501004162,45.392836073376017]],[[-75.697425290497051,45.393110332550975],[-75.696788948204286,45.393518705672022]],[[-75.696788948204286,45.393518705672022],[-75.696529865093183,45.393636581913952],[-75.696065453159292,45.393758821323217],[-75.695490010354604,45.393808761152684],[-75.695260267119011,45.393798144384881],[-75.694685972361228,45.39376710026319],[-75.693740475761757,45.393719973245354],[-75.69311607118081,45.39369303007566],[-75.692426202771856,45.393706151869608],[-75.691850757272206,45.393756073451684],[-75.691172632538951,45.393841259299819],[-75.690788229954137,45.393928522318397],[-75.690403429415667,45.394042777422115],[-75.689902416523836,45.394246192960388],[-75.689722598058466,45.394316906469882],[-75.689426428000857,45.394485778788969],[-75.68903905828067,45.39477999330348],[-75.688741254187576,45.395063175314078],[-75.688432708040324,45.395345776825039],[-75.688093578749204,45.395560383821213],[-75.687678401679392,45.395752373854286],[-75.687334419689122,45.395851711241512],[-75.686883754674014,45.395912512237068],[-75.68640453850422,45.395954486314125],[-75.685854311409557,45.395981154638605],[-75.685589145805665,45.395991490921247],[-75.685202348312316,45.395996825592952],[-75.68486788756573,45.395993646363344],[-75.684598731645352,45.396012361551868],[-75.684217774099665,45.396074541931206],[-75.683980668272,45.396113370728159],[-75.683749586546625,45.396136097752148],[-75.683051140125031,45.396173896414403],[-75.682761084899553,45.396193311728261],[-75.682446948536281,45.396230014027282],[-75.682149872078568,45.396273554136044],[-75.681657341977953,45.396386207325271],[-75.681283853025533,45.396506428554716],[-75.681102999700954,45.396579364673741],[-75.680952714248861,45.396657000100241],[-75.680742415945915,45.396791138519966],[-75.680328291701613,45.397130177379488],[-75.680058497079074,45.397396928310989],[-75.679651213505679,45.397824661239873],[-75.679309878850532,45.398206773313099],[-75.679020110187651,45.398556149584749],[-75.678849679116993,45.3987661107628],[-75.678784036524249,45.398897531877246],[-75.67873051130637,45.39901781904026],[-75.678553531517295,45.399823334004154],[-75.678290865924851,45.400768548579997],[-75.678261822493397,45.400985825103817],[-75.678285679950704,45.401126302929946],[-75.678315961260608,45.40123597186998],[-75.678420697636227,45.401430347626878],[-75.678506597238638,45.401550232663908],[-75.6789653524812,45.402088304705167],[-75.679061723744894,45.402245819587485],[-75.679141415090356,45.402404210742588],[-75.679208200340142,45.4025950371704],[-75.679292597061107,45.402902907494337],[-75.679364079601527,45.403063440626653],[-75.679477440702172,45.403278437108739],[-75.679582635218566,45.40344235612114],[-75.679831072395245,45.403811637467967],[-75.679954307777493,45.404010099563983],[-75.680212917476425,45.404483781009048],[-75.680294966001213,45.404672881747977],[-75.68032625252593,45.404796967312706],[-75.680500081923313,45.405290143906953],[-75.680639552557665,45.405695894259921],[-75.680746742232316,45.405996654339482],[-75.68087231592925,45.406311832156],[-75.681003184296472,45.406611570406405],[-75.681069511405482,45.406820508330668],[-75.681128389684162,45.407295183486696],[-75.6811128991354,45.407815622217562],[-75.681053268966821,45.408358206251066],[-75.68103097367981,45.408659714621479],[-75.681040138292332,45.408990911340119],[-75.681117482339971,45.409290337076584],[-75.68122978881847,45.409514233538857],[-75.681459914736379,45.409855437364499],[-75.681655316276988,45.410119216544174],[-75.682117138367929,45.410693594646666],[-75.682604301034701,45.411444658161429],[-75.682753312675715,45.411742684779114],[-75.68286387282933,45.41204942751974],[-75.682897525516495,45.412373617760345],[-75.682919831583305,45.41259874178774],[-75.682915938284879,45.412868681208252],[-75.682861854314879,45.413075262104222],[-75.682678203636499,45.413406895795283],[-75.681762383780764,45.414894121214097],[-75.681527487808694,45.41523438386632],[-75.680936465522024,45.416345980925179],[-75.680525632704928,45.416912365073962],[-75.680050216408802,45.417510398258784],[-75.679904498889925,45.417784511815235],[-75.679823961331437,45.418173725102932],[-75.679933344692017,45.418561448876673],[-75.680121224638739,45.418823756689022],[-75.680373494028402,45.419050541704038],[-75.680512600845105,45.419150524156159],[-75.682136793506345,45.419936050448456],[-75.683088034832039,45.420428780857733],[-75.683113328695512,45.420446958940204],[-75.683151399297245,45.420465228443085],[-75.684584532873984,45.421213361244043],[-75.685231757358082,45.42152394155697],[-75.686006747428422,45.42183541863956],[-75.686820723483777,45.422102175239196],[-75.68835506126041,45.422530459437361],[-75.688727384199595,45.422661515060483],[-75.689064266804181,45.422800261852231],[-75.689730368485684,45.423071486640502],[-75.689935172692358,45.423168045944394],[-75.690214334048363,45.423299489733125],[-75.690566994662603,45.423424702051264],[-75.691115607484718,45.42360448628871],[-75.691903296139898,45.423891980112074],[-75.692194507497135,45.424058492389747],[-75.692349100371018,45.424220097747117],[-75.692414307280856,45.424296590582308],[-75.692578795995914,45.424501188420741],[-75.692744127330684,45.424707835835243],[-75.692851691602812,45.424847478550113],[-75.693154290902896,45.425200711850991],[-75.693269695670821,45.425346238801239],[-75.693366144189611,45.425487091070273]]]},"properties":{"OBJECTID":6,"FULL_ROADN":"Colonel By Dr","Shape_Length":12242.955697290397}},{"type":"Feature","id":7,"geometry":{"type":"MultiLineString","coordinates":[[[-75.626142318005407,45.426693211238849],[-75.625892872020685,45.426295365142096],[-75.62530176978396,45.425678927704205],[-75.624317445302964,45.424751795331268]],[[-75.626142318005407,45.426693211238849],[-75.624881500164804,45.42558572300792],[-75.624098048862791,45.425012800193628],[-75.623886180304709,45.424883386116562]],[[-75.627401695846615,45.428727543171441],[-75.627053062379801,45.428109940129907],[-75.627016943817168,45.427986710857688],[-75.626618452055453,45.427308765058079],[-75.626431071572014,45.427028376818889],[-75.626142318005407,45.426693211238849]],[[-75.637139903345371,45.440472765262584],[-75.636626129884931,45.439326063188112],[-75.635302587179595,45.436067534687112],[-75.635290219174777,45.436040445301138],[-75.635277713727689,45.436022353555245],[-75.635151903773846,45.435757302289417],[-75.634945125070175,45.435275977152159],[-75.634626915745386,45.434718052682193],[-75.634389057129525,45.434361405593904],[-75.634112709296971,45.434021597980575],[-75.633784831404796,45.433642243390558],[-75.633440355341108,45.433308835506843],[-75.633027555213559,45.432931703913624],[-75.632285574636626,45.43235831919354],[-75.631542600523019,45.431889961997577],[-75.630989987502943,45.431590375559537],[-75.629921984054917,45.43109982227999],[-75.629209334370358,45.430781814190638],[-75.628934470554668,45.430633103800069],[-75.628627812666124,45.430437642095626],[-75.628262356448971,45.430101906687085],[-75.628074419010062,45.429857511114648],[-75.62798690872836,45.429730863092196],[-75.627838140530784,45.429432764346927],[-75.627518432816117,45.428826833293051],[-75.627401695846615,45.428727543171441]],[[-75.636886211024304,45.440524625296],[-75.637139903345371,45.440472765262584]],[[-75.636886211024304,45.440524625296],[-75.636336734921201,45.439494843818579],[-75.636126466262638,45.439034318312785],[-75.635398780576836,45.437301074156295],[-75.634878786283068,45.436199303326404],[-75.634741506639656,45.435982298418153],[-75.63472913953315,45.43595520899126],[-75.6347166349844,45.435937117218039],[-75.634681848623316,45.43588508655467],[-75.634335897525943,45.435367594360585],[-75.634070955602567,45.434971340559478],[-75.63367322022232,45.434498448107021],[-75.633235691271608,45.434030820995083],[-75.632866216890207,45.433672321293045],[-75.632401115050158,45.433262778454953],[-75.631696828680887,45.432712278982379],[-75.631078003536174,45.432293579006263],[-75.630318742966466,45.431845323446794],[-75.629114417479116,45.431206238124801],[-75.628797853867937,45.431014853996288],[-75.628419199602646,45.43070601414022],[-75.62809249491022,45.430343570869709],[-75.62791761178903,45.430081277492597],[-75.627396748824353,45.428840160013173],[-75.627401695846615,45.428727543171441]],[[-75.639098216291714,45.44366406406624],[-75.639078668052804,45.443496588589475],[-75.638250159052788,45.442271876793093],[-75.637376022822863,45.440915477527149],[-75.637139903345371,45.440472765262584]],[[-75.639098216291714,45.44366406406624],[-75.638856593734786,45.443421060245953],[-75.638170182941352,45.442487238323054],[-75.637394729340343,45.441365555702632],[-75.6368959676266,45.4405429103617],[-75.636886211024304,45.440524625296]],[[-75.647323330271973,45.450523995014414],[-75.647574014135159,45.451268485870017],[-75.647608027046758,45.451556702757095],[-75.647591177346982,45.451826532789674],[-75.647510693687423,45.452077890528145],[-75.647260211945166,45.452579945379568],[-75.646565438734754,45.453717578579898]],[[-75.646565438734754,45.453717578579898],[-75.646714833956381,45.453303838804004],[-75.646876965492126,45.452620851432506],[-75.646923312272591,45.452028512656462],[-75.646929688514476,45.451605629203939],[-75.646861398586566,45.451047200727324],[-75.64676415146549,45.450713528914413],[-75.64669573936672,45.450454254304219],[-75.646379930340387,45.449677908703734],[-75.646108621158263,45.449250851426243],[-75.645475809244573,45.448356037999289],[-75.645277146819481,45.448099726549103],[-75.644815486425301,45.447684410969295],[-75.644398149805568,45.447384334246948],[-75.641999020972889,45.446259500114927],[-75.641301866328661,45.445867314128343],[-75.640669437097287,45.445421629397813],[-75.640215433942572,45.44501327162159],[-75.639624665879126,45.444351920248877],[-75.639098216291714,45.44366406406624]],[[-75.646565438734754,45.453717578579898],[-75.646426251069684,45.45396953283624]],[[-75.646426251069684,45.45396953283624],[-75.646558077939318,45.453598050048548],[-75.646615032924956,45.453301307453309],[-75.646653270613342,45.452980346133877],[-75.646645629543528,45.452638344868994],[-75.646586460210713,45.452322947332739],[-75.646488941798424,45.452007270125939],[-75.646402714310923,45.451790661270195],[-75.645916515536442,45.450968150933171]],[[-75.646426251069684,45.45396953283624],[-75.646184248525401,45.454407626071848],[-75.645858396334191,45.454819121374015],[-75.64557089322247,45.455230902906962],[-75.645348802734759,45.455544197175229],[-75.645205727161141,45.45570509988783],[-75.644840963545093,45.456152295068193],[-75.644541341261842,45.456519000447173],[-75.643941131904768,45.457315372074433],[-75.643602326007155,45.457735772297298],[-75.643536916976359,45.457834265329758],[-75.643523179040727,45.457897152049533],[-75.643535282940874,45.45794223501013],[-75.643585877854292,45.457978608592981],[-75.643611310956615,45.457987798076338],[-75.644017841741828,45.458161817019047],[-75.644081631110154,45.458171293800497],[-75.6441583409472,45.458171868456354],[-75.645465398668748,45.457983687257148]]]},"properties":{"OBJECTID":7,"FULL_ROADN":"Aviation Pky","Shape_Length":10617.091245672809}},{"type":"Feature","id":8,"geometry":{"type":"MultiLineString","coordinates":[[[-75.658310327169687,45.325731513229243],[-75.658233134937319,45.325787602227464],[-75.65741418131698,45.326387684779839],[-75.657276238716889,45.326485997089179],[-75.657056881802603,45.32664541902043],[-75.656864640535176,45.326784218429218],[-75.656751321655335,45.32686662394363],[-75.656649657518003,45.326939850733375],[-75.656543078697752,45.327016544742669],[-75.656433310858247,45.327095650607042],[-75.656341170659545,45.327162779949042],[-75.656227974848903,45.327244728921762],[-75.656083114322826,45.327348628465778],[-75.655910848892375,45.327472021044912],[-75.655632939787864,45.327671121872179],[-75.655385767439128,45.327850059457603],[-75.655117802684828,45.328042725910521],[-75.65495265101309,45.328162321956064],[-75.654783640178906,45.328284198925509],[-75.654689443736544,45.328351929361638],[-75.654583879114227,45.328427931802871],[-75.654499991738064,45.328488651201617],[-75.654363975125946,45.328585472560661],[-75.654232477938024,45.328681195487839],[-75.65408021978557,45.328790744131801],[-75.653954911989942,45.328881677681842],[-75.653876867256386,45.328938650885334],[-75.653804189058334,45.32899345087823],[-75.653688030603888,45.329081131009254],[-75.653571163378686,45.329167547282886],[-75.65341981162635,45.329281213915095],[-75.653321629359056,45.329355101966563],[-75.65327936093,45.329388284488502],[-75.65322550692872,45.329432210786628],[-75.653052324318352,45.329576999844306],[-75.653008488329107,45.329614940259411],[-75.652880932948662,45.32973035093557],[-75.652757302307691,45.329849220307409],[-75.652667587560259,45.329937656957483],[-75.652604435995798,45.330002491088109],[-75.652513726813339,45.330101540439898],[-75.652445674040663,45.330177155929384],[-75.652360122984589,45.330276096983638],[-75.652230181678746,45.33042879886284],[-75.65212803514612,45.330558350355624],[-75.652002363532802,45.330727737700677],[-75.651907284944812,45.330868962270976],[-75.651839706482619,45.330972363209185],[-75.651799442194957,45.331038396051454],[-75.651698878493846,45.331206021276579],[-75.651626253296371,45.331336986229879],[-75.651591088744581,45.331404322104611],[-75.651537923751135,45.331508023300003],[-75.651476217575947,45.331640506986126],[-75.651433998554225,45.331736906156543],[-75.65140774798499,45.331797800727031],[-75.651368440403104,45.331895253627749],[-75.651328007232152,45.332003558289017],[-75.651299818996861,45.332086839064814],[-75.651265875255532,45.332190214413636],[-75.651232094109275,45.332304224204961],[-75.65120084800877,45.33242029059096],[-75.651176094032778,45.332531199848518],[-75.651158752954544,45.332618408451147],[-75.65114287163864,45.332715129919443],[-75.651118801280589,45.332851257717586],[-75.651101599441205,45.332976501242136],[-75.651090400144582,45.333066519341273],[-75.651079349968271,45.333170955085642],[-75.651070612953802,45.333291627112978],[-75.651064771209519,45.333438321636407],[-75.65106383516499,45.333549783353966],[-75.651065824035015,45.333661009936051],[-75.651072471568128,45.333802390117455],[-75.65108340945504,45.333949724913445],[-75.651092289301602,45.334039377095486],[-75.651106700973699,45.334149666217037],[-75.651123865083846,45.334271157725041],[-75.651145954656698,45.334376737396873],[-75.651181951048429,45.334547419864691],[-75.651204196029809,45.33464747416842],[-75.651220071057509,45.334703356052238],[-75.651241651285588,45.33478307571734],[-75.6512713810299,45.334882364249388],[-75.65130265497821,45.334971641118578],[-75.651332876100994,45.335056781025536],[-75.651363451160023,45.335136813406478],[-75.651392144248504,45.33521231040185],[-75.651435154685998,45.335318183850063],[-75.651459611319595,45.335378710839805],[-75.65150972653268,45.33549407314549],[-75.651543504983991,45.335566070037245],[-75.651604375725952,45.335689067094123],[-75.65165503262314,45.335785674073591],[-75.651704939427077,45.335877643370878],[-75.651766612364582,45.335984245553419],[-75.651841897473588,45.336113750870645],[-75.651878026816021,45.336172987554491],[-75.651907198706553,45.33621880804175],[-75.651954578549578,45.336293459956572],[-75.652053803760907,45.336453883570087],[-75.652083885644842,45.336500987594967],[-75.652153465553482,45.336614274524528],[-75.652255567170357,45.336779635248128],[-75.652336110118725,45.336910553845328],[-75.652443860342103,45.337085902088042],[-75.652522488082312,45.337214449493835],[-75.652582337439796,45.337312782161291],[-75.652710242264888,45.337525990394106],[-75.652822609828831,45.337722041338665],[-75.652896978656258,45.337856058799183],[-75.652963705515575,45.337980217164358],[-75.653020020900726,45.338087823175897],[-75.653094486746213,45.338229706932403],[-75.653180004564618,45.338397983990006],[-75.653277422365605,45.338597559138996],[-75.65334850785068,45.33875219919706],[-75.653397326794774,45.338861457475076],[-75.653442886651064,45.338964990945293],[-75.653503893038618,45.339107398488515],[-75.65355311802125,45.339224957530469],[-75.653620605753616,45.339400446992471],[-75.653684406800025,45.339572000213387],[-75.653743624641876,45.339736336333168],[-75.653795035225585,45.339881068739885],[-75.653832981859821,45.33999406666041],[-75.653851870735295,45.340050619522835],[-75.653908182527189,45.340229198498079],[-75.653967981579015,45.340433034956838],[-75.654009730781866,45.340583224189594],[-75.654042684579736,45.340704381766734],[-75.654078006336704,45.340842817755686],[-75.654141098612385,45.341106998602264],[-75.654183906928935,45.341314229516108],[-75.654222751878436,45.341519631115872],[-75.654247296546941,45.341668327348863],[-75.654287783616809,45.341924254434858],[-75.654306516185414,45.342071998715021],[-75.654317353461025,45.34215348666104],[-75.654338592329282,45.342324509373995],[-75.654351837988131,45.342440282459378],[-75.654372193812463,45.342666264702729],[-75.654382807407558,45.342805450409223],[-75.65439093177099,45.342949140751372],[-75.654396230932846,45.343083016404989],[-75.654400450319741,45.343224241734021],[-75.654403553100735,45.343377718769425],[-75.654405083829971,45.343544935585349],[-75.654404852962941,45.343662115422859],[-75.654404134310724,45.343737964096668],[-75.654403394997246,45.343815259795768],[-75.654400257181948,45.343943203477693],[-75.654393547665094,45.344090518202648],[-75.654387796650639,45.344201071236512],[-75.654378688631994,45.344344025640446],[-75.654367251281769,45.344484550786611],[-75.654346040261288,45.344714820723219],[-75.654290947483233,45.345178740648521],[-75.654256392887518,45.345445940647032],[-75.654237461791226,45.345599725446178],[-75.654218029434986,45.345761146127643],[-75.654202465224373,45.345896669922247],[-75.654184094676822,45.346064649552957],[-75.654170792424097,45.346210041963595],[-75.654158709185211,45.346376334320098],[-75.654148136912625,45.346581674622279],[-75.65414476823031,45.346676157465744],[-75.654144322665928,45.346743018004531],[-75.654142503577475,45.346861460862677],[-75.654141756179158,45.34695840485994],[-75.65414504221647,45.34709011688264],[-75.654149116076297,45.347199138731568],[-75.654155760914449,45.347317392495206],[-75.654160773513723,45.347396574807057],[-75.654169743191844,45.347495982641931],[-75.654180199581745,45.347599494640662],[-75.654195667672639,45.347730334556488],[-75.654212825494554,45.347851635935513],[-75.654240940067993,45.348042884550537],[-75.654262571500041,45.348163258462563],[-75.654287877041597,45.348295678561357],[-75.65432254572336,45.34846063394744],[-75.654350024289585,45.348578212710713],[-75.654380175343775,45.348699304566097],[-75.654414310426262,45.34882415949604],[-75.654461445927524,45.348985800784696],[-75.654504632434808,45.349126671736748],[-75.654544196934879,45.349250868518745],[-75.654599101066722,45.349410656929244],[-75.654657778122768,45.349577023217151],[-75.654708476342449,45.349707306160347],[-75.654780283174688,45.349875679786614],[-75.654879853339111,45.350099933489581],[-75.654912701135771,45.350166942761462],[-75.654969643545002,45.350285634135609],[-75.655031689283362,45.350407812607472],[-75.65510242532379,45.350544247616291],[-75.655183968097063,45.350690122201534],[-75.655238152678365,45.35078705459113],[-75.655292217783753,45.350877019124255],[-75.655346797623778,45.350964473457658],[-75.655411891345906,45.351066991758913],[-75.655474165256351,45.351163759365178],[-75.655578152437002,45.351325344731144],[-75.65561624459832,45.351381298536765],[-75.655674048491903,45.351466699746389],[-75.655728240259734,45.351542130146065],[-75.65580357118283,45.351644654976553],[-75.655864705131165,45.351726443527546],[-75.655944532122263,45.351831801895457],[-75.656016827638013,45.35192649440225],[-75.656106656471479,45.352038594575561],[-75.656162396036549,45.352106183600874],[-75.656250521664219,45.352210069729345],[-75.656324273349057,45.352296344021134],[-75.656418046684934,45.35240251758087],[-75.656514629052722,45.352508976282124],[-75.656637602126892,45.352641471437273],[-75.656752040307566,45.352760117220065],[-75.656830442570623,45.352839411861417],[-75.65688161240584,45.352891389628226],[-75.656985616654495,45.352993102083055],[-75.657118617622189,45.353119148863357],[-75.657214818205958,45.353208143204398],[-75.65732409826029,45.353307949899467],[-75.657417151147314,45.353391317390503],[-75.657454700726177,45.353423837509069],[-75.657517680712431,45.353481670436345],[-75.658867438054386,45.354553472500776],[-75.659278541264371,45.35489962709697],[-75.659310396422669,45.354923782183143],[-75.659359504624291,45.354965640243414],[-75.659535823253321,45.355118770448378],[-75.65967753787929,45.35524376650595],[-75.65971628401411,45.355277306297594],[-75.659800150729041,45.35535314193298],[-75.659851271156924,45.35540020119663],[-75.659893053597415,45.355438153979158],[-75.659932510299626,45.355474830976618],[-75.659973457306904,45.355512769821573],[-75.659999475212501,45.355536855839681],[-75.660064173675877,45.355596685777407],[-75.660128819138677,45.355657448638873],[-75.660164062742211,45.355690266036156],[-75.660179628749461,45.355705368041988],[-75.660224117813897,45.355748075816074],[-75.66024955271287,45.355772766469954],[-75.660310808832094,45.355832924407068],[-75.660369093324348,45.355892043247621],[-75.660404868730538,45.35592864546377],[-75.660437627594007,45.35596159400302],[-75.66047971546169,45.356004807211598],[-75.6605116002644,45.356037677432063],[-75.660558079995496,45.356085121185863],[-75.660644708131613,45.35617717555175],[-75.660781290682351,45.35632231032104],[-75.660838384906882,45.356385069020334],[-75.66089812556821,45.356451384692022],[-75.660937595745153,45.356496505134736],[-75.661013101839742,45.35658149526364],[-75.661063233222478,45.356638516347218],[-75.66110358554505,45.356682815399793],[-75.66115097616786,45.356737082291644],[-75.66120413217817,45.356796465307141],[-75.661253161328062,45.356853885746624],[-75.661315552019488,45.356927160871798],[-75.661398214093623,45.357026279906059],[-75.661452403166507,45.357091256610978],[-75.661586307839372,45.357251817607143],[-75.661668485721563,45.3573567446578],[-75.66170531934317,45.357401559494448],[-75.661759167056246,45.357469683078477],[-75.661800298218168,45.357522937987127],[-75.661842653783808,45.357577769022534],[-75.661898873049225,45.357653317522669],[-75.661940684235816,45.357711212406464],[-75.661965184886867,45.35774359243527],[-75.661986016818304,45.357771317784731],[-75.662028256501287,45.357830560845237],[-75.662072552427958,45.357892425951299],[-75.662116262653043,45.357952300740315],[-75.662143732236117,45.357990474633084],[-75.662193650718137,45.358061033397128],[-75.662237241467295,45.358123836247302],[-75.662282658491435,45.358189449225499],[-75.662331204347709,45.358259785551724],[-75.662390694379084,45.358351394526252],[-75.662511948077821,45.358541097159112],[-75.662546366129618,45.358595800964558],[-75.662624328218172,45.358720560210571],[-75.662653916028702,45.358768704888384],[-75.662703347623832,45.358846474934474],[-75.66275213782184,45.358925958617462],[-75.662824188097531,45.359050935534825],[-75.662883802096417,45.35915434055655],[-75.662984125947347,45.359338017505358],[-75.66302420697869,45.359415368278214],[-75.663076651523298,45.359512739561133],[-75.663130606135894,45.359612753534151],[-75.663163702765914,45.359677067659959],[-75.663209562659475,45.359768539262241],[-75.663254362541011,45.359861480156667],[-75.663291506979689,45.359938540492273],[-75.663349051260155,45.360057921473931],[-75.663377189189802,45.360119636443905],[-75.663430144875804,45.360237773582341],[-75.663472548950466,45.360334161937935],[-75.663484309694169,45.36036289908948],[-75.663509772440904,45.360425474047602],[-75.663535271120253,45.360487307912699],[-75.663640598587307,45.360745304808638],[-75.663722270717997,45.360950839145765],[-75.663745254114531,45.361012948266712],[-75.663769152894346,45.361083062691691],[-75.663784352388959,45.361125113757907],[-75.663798464922081,45.361165227045127],[-75.663814368695867,45.361211758220691],[-75.663830503336683,45.361260361545426],[-75.663856496089437,45.361342448005473],[-75.66386210696669,45.361360540324725],[-75.663870165753096,45.361383386098417],[-75.663881564475744,45.361407439320793],[-75.663885093956509,45.361424333629536],[-75.663892288563602,45.361448948589199],[-75.66390190772367,45.361479795856198],[-75.663908345050999,45.361498782519902],[-75.663978464847133,45.361721322583875],[-75.664072108825593,45.362026274822583],[-75.664087203217335,45.362077542912509],[-75.664128169987549,45.362215152179282],[-75.664148833035725,45.362283352651964],[-75.664171232527323,45.362362069047684],[-75.664185542689808,45.36241320302436],[-75.664208579985257,45.362496118435935],[-75.664243203751269,45.362615943415619],[-75.664258882047903,45.362667223594606],[-75.664277894890887,45.362731216138364],[-75.664297612013058,45.362800456157075],[-75.664316096646672,45.362860445043424],[-75.664331214394593,45.362909928694592],[-75.664362785685242,45.363011250753438],[-75.664409205229234,45.363151825491975],[-75.664435186303876,45.363222787445871],[-75.664457772645065,45.363283220855443],[-75.664485408416482,45.363359550692337],[-75.664508367558511,45.363421228609347],[-75.664533502420156,45.363487998676689],[-75.664543520432204,45.363513499521147],[-75.664553220440638,45.363539859996351],[-75.664587102198197,45.36362630447006],[-75.664616301936533,45.363698490910316],[-75.664627513809592,45.363725940680879],[-75.66464198926208,45.363760093981014],[-75.664709719539545,45.36391444818527],[-75.664722539396962,45.363943141230806],[-75.664738336271242,45.363977448402061],[-75.664764103546844,45.364030193522922]],[[-75.665724505891831,45.365591142564377],[-75.665648410502428,45.365488437880437],[-75.665596256113659,45.365417288795022],[-75.665586889380194,45.365403254116011],[-75.665505991597286,45.365288586422821],[-75.665461947198892,45.365225969507641],[-75.665394988574263,45.365124596505758],[-75.665324690911703,45.365016863272047],[-75.66525023315107,45.364900295044642],[-75.665226098114317,45.364864106983973],[-75.665185557145549,45.364799010450987],[-75.665142040058228,45.36472851373712],[-75.66509321302928,45.364649041992493],[-75.66496061630346,45.364416655483531],[-75.664869073484425,45.364247305805478],[-75.664825388412169,45.364163534589991],[-75.664764103546844,45.364030193522922]],[[-75.669736520291266,45.367777356389915],[-75.669382086402635,45.367786582020031],[-75.669191275253141,45.367740200777384],[-75.668962829184821,45.36764854263081],[-75.668685038657941,45.367439551378098],[-75.668431855681632,45.367293730066088],[-75.667441093873308,45.366953561763772],[-75.667098698307811,45.366798088030663],[-75.666896315959136,45.366670630857463],[-75.666530244396043,45.366388991721337],[-75.665724505891831,45.365591142564377]],[[-75.666644703237949,45.369026460072156],[-75.666543508919503,45.368962730876511],[-75.666217437539373,45.368564403001507],[-75.666119588547033,45.368446080664746],[-75.666041639034901,45.36836514934145],[-75.665985553618455,45.368306654446215],[-75.665931287290434,45.368259302984299],[-75.6657623249653,45.368117404876102],[-75.665697815148121,45.368064245770427],[-75.665373573636188,45.367784345350778],[-75.665222369207584,45.367648260521989],[-75.665071974161023,45.367458189557908],[-75.664960005449075,45.367259400292298],[-75.664898963128863,45.36706998249543],[-75.664898301968819,45.367055922350367],[-75.664889243357507,45.366862942435922],[-75.664901409241395,45.366796064011602],[-75.664917023757667,45.366710168412318],[-75.664960461793228,45.366536899982364],[-75.665054403114056,45.366230731883569],[-75.665112754081647,45.365985216703727],[-75.665125264918615,45.3658588369413],[-75.665138893259794,45.365689027063162],[-75.6651331808729,45.365461927470655],[-75.665103032513656,45.365238549446595],[-75.664994632808316,45.36480617145196],[-75.664827179652846,45.36436137096517],[-75.664734439379529,45.364122284193442],[-75.664764103546844,45.364030193522922]],[[-75.684192309556309,45.377623755110029],[-75.684151721875139,45.377535007402706],[-75.684133100697608,45.377491860488114],[-75.684087600130155,45.377390015390318],[-75.684013665189028,45.377224576424453],[-75.683971650983167,45.377128826403066],[-75.683925853971687,45.377027786452807],[-75.683899223415082,45.3769678542374],[-75.683868153384367,45.37689800180916],[-75.68382405778199,45.376798184351138],[-75.683763307414281,45.376661514803985],[-75.683712831078466,45.376547322372602],[-75.683674262810058,45.376458105391841],[-75.683616805666176,45.376334715449204],[-75.6835682894543,45.376223564506326],[-75.68352329823162,45.376123118622608],[-75.683482948603995,45.376031935338062],[-75.683457615214664,45.375971874600545],[-75.683439204242916,45.375930417636077],[-75.683397501752495,45.375836561021018],[-75.683346340002103,45.375720090182632],[-75.683316469222291,45.375655363934953],[-75.683009802350597,45.374987667030588],[-75.68293714930536,45.374837235900756],[-75.682895370458112,45.374761823933461],[-75.682833998456232,45.374647645334953],[-75.682802059754621,45.374593490908858],[-75.682727096242473,45.374468426535323],[-75.682697092511987,45.374419784706113],[-75.682632450642444,45.374329563537188],[-75.682553384524411,45.37421993640713],[-75.682482136444278,45.374128087458011],[-75.682446268511612,45.374083624110057],[-75.682361684042775,45.373982947249011],[-75.682295543783354,45.373906942852329],[-75.682196209875855,45.373802683221818],[-75.682094305888356,45.373698324324522],[-75.682014390862349,45.373620349409649],[-75.681863758660569,45.373483907564093],[-75.681684997512292,45.373333847910402],[-75.681427617606971,45.373132823905294],[-75.681295826669952,45.373039074343914],[-75.681126753852027,45.372925984626804],[-75.681001787416221,45.372846439837197],[-75.680814751885848,45.372732296497198],[-75.68057134437646,45.372603478876847],[-75.680280003661849,45.372445922391094],[-75.679861072532461,45.372258781804462],[-75.679521477914008,45.372131303489446],[-75.679176926391847,45.372010641044433],[-75.678851678766833,45.371899535874327],[-75.67852500641375,45.371802979164627],[-75.677922597980853,45.371637783223619],[-75.677632116953959,45.371563227141301],[-75.677412721412111,45.371513092850584],[-75.677244536129677,45.371480627303306],[-75.677007770763495,45.371427018247601],[-75.6767710628895,45.37136950215983],[-75.676534902089514,45.371316070961882],[-75.676424413801143,45.371290677131064],[-75.676220479163661,45.371247229477483],[-75.676098731391534,45.371218635429287],[-75.675831709868262,45.371154395007096],[-75.67567976432953,45.371117843660549],[-75.675580701713258,45.371094536713841],[-75.675309199393368,45.371025806660647],[-75.675162615000247,45.370989443923442],[-75.674927544755008,45.370929278751071],[-75.674623734525923,45.370847121005497],[-75.674372427231916,45.370777231355902],[-75.674279233309406,45.370749592527147],[-75.674142582486709,45.370710120903915],[-75.674002502794565,45.37066884498924],[-75.673862836327444,45.370625969881026],[-75.673597584485307,45.370543870385646],[-75.67335344215401,45.370467668255323],[-75.673146964385936,45.370398045085878],[-75.672959507545727,45.370335544266652],[-75.672645567913492,45.370228682391044],[-75.672350060812576,45.370121648657566],[-75.672187207929667,45.370060482286057],[-75.671962236544857,45.369975482742873],[-75.671798179919463,45.369913069809321],[-75.671651803037179,45.369854527289768],[-75.671477187613931,45.369784076003917],[-75.671330113639002,45.369722926306864],[-75.671185259401099,45.369661274193291],[-75.671053620279366,45.369604398132537],[-75.670948792275624,45.369556039898939],[-75.670822680487802,45.369499724144951],[-75.670651479560959,45.369423053596776],[-75.670538601753947,45.369370215684178],[-75.670418038859665,45.36931289945592],[-75.670344556669406,45.369275299928148],[-75.670229927147588,45.369217693298474],[-75.670019621658113,45.369108777606172],[-75.66982076160366,45.369002714910835],[-75.669713097618555,45.368944297669287],[-75.669555114502785,45.368854204714573],[-75.669390142494123,45.368762095240875],[-75.669064272336598,45.368567153359905],[-75.668737036739856,45.368356695650753],[-75.668665520063456,45.368311281733774],[-75.668551328021152,45.368246653032877],[-75.668480792305061,45.368191078791398],[-75.668445971808012,45.368163226014751],[-75.668411435178584,45.368138791949598],[-75.668346027046127,45.368092269626906],[-75.668202566993571,45.367988706753756],[-75.668021348054666,45.36785538732525],[-75.667764105591587,45.367657823820124],[-75.66766016153008,45.367571085726361],[-75.667622331676824,45.367540316252459],[-75.66759044777244,45.367514343254051],[-75.667552824531711,45.367483647590085],[-75.667508434281956,45.367447492106805],[-75.667417886796258,45.36737257454979],[-75.66731833459815,45.367286998541523],[-75.667268134943455,45.367244223742382],[-75.667220082262276,45.367202285777161],[-75.667135117806055,45.367126678710484],[-75.667056985037604,45.367054906243162],[-75.666982592853984,45.366986532914801],[-75.66690551380934,45.366913662113802],[-75.666855134491584,45.366866295601049],[-75.666775951592541,45.366788321995948],[-75.666718161173691,45.36673002490592],[-75.666643863313169,45.366654667134291],[-75.666556270386437,45.366565498921972],[-75.666490061855058,45.366495287155196],[-75.666434731023458,45.366436711435099],[-75.666385246427708,45.36638256366264],[-75.666300391565969,45.366288687415086],[-75.6662211826158,45.366199933279624],[-75.666168189200562,45.366137751592504],[-75.666086160438695,45.366040613870389],[-75.666028773363408,45.365972530269055],[-75.665960138482433,45.365887661539041],[-75.665874052928757,45.365781252621098],[-75.665773594330531,45.365654466581184],[-75.665724505891831,45.365591142564377]]]},"properties":{"OBJECTID":8,"FULL_ROADN":"Airport Pky","Shape_Length":11386.583166515567}}]}